Name,x,y,Admin1,Admin2,Admin3
Bende Community Dispensary,7.6364,5.56,Abia,,
Gwadabawa Government House Clinic,12.463,9.2775,Adamawa,,
Ovom Government House Clinic,6.2915,4.8955,Bayelsa,,
Abetse Community Health Centre,8.8662,7.3685,Benue,,
Adi Community Health Centre,9.2333,7.1821,Benue,,
Agasha Community Health Centre,8.899,7.7166,Benue,,
Chembe Community Health Centre,9.1337,7.3838,Benue,,
Gbajimba Community Health Centre,8.8619,7.8251,Benue,,
Igumale Community Health Centre,7.9672,6.8058,Benue,,
Mbaalom Community Health Centre,9.1138,7.4149,Benue,,
Mbaandar Community Health Centre,8.7842,7.3759,Benue,,
Mbagar Community Health Centre,9.0069,7.3861,Benue,,
Mbagen Ashibi Community Health Centre,9.1277,7.1493,Benue,,
Mbahyande Community Health Centre,8.9023,7.2837,Benue,,
Mbanoroki Community Health Centre,8.6935,7.259,Benue,,
Mbastwar Community Health Centre,9.0706,7.2644,Benue,,
Mbatser Dzua Community Health Centre,8.6119,7.7167,Benue,,
Mbayer Ankyunya Community Health Centre,9.3578,7.4171,Benue,,
Okpokwo Community Clinic,8.2167,7.0419,Benue,,
Ortese Community Health Centre,9.2588,7.4345,Benue,,
Tse-Akenyi Community Health Centre,8.9199,7.9699,Benue,,
Uikpam Community Health Centre,8.6496,8.0147,Benue,,
Ukazo Community Health Centre,9.1121,7.3784,Benue,,
Gabu Government Hospital,8.7486,6.8647,Cross River,,
Wonye Government Health Centre,8.8652,6.8094,Cross River,,
Abigborodu Government Hospital,5.5332,5.9,Delta,,
Agbarho Government Hospital,5.8521,5.5896,Delta,,
Ashaka Government Hospital,6.4046,5.634,Delta,,
Aviara Government Hospital,6.2662,5.3906,Delta,,
Ebu Government Hospital,6.6082,6.4822,Delta,,
Ehwere Government Hospital,5.8956,5.6076,Delta,,
Ewu Government Hospital,5.991,5.3754,Delta,,
Focados Government Hospital,5.4336,5.3586,Delta,,
Ibusa Government Hospital,6.6149,6.1725,Delta,,
Isheagu Government Hospital,6.5467,6.0388,Delta,,
Kiagbodo Government Hospital,5.836,5.2432,Delta,,
Ofagbe Government Hospital,6.3444,5.5563,Delta,,
Ojobo Government Hospital,5.6668,5.0317,Delta,,
Omadino Government Hospital,5.6507,5.6265,Delta,,
Orogun Government Hospital,6.153,5.6371,Delta,,
Otu-Jeremi Government Hospital,5.8774,5.4381,Delta,,
Owa-Alero Government Hospital,6.2167,6.2194,Delta,,
Ugbevwe-Jesse Government Hospital,5.813,5.8807,Delta,,
Umunede Government Hospital,6.3061,6.2512,Delta,,
Umutu Government Hospital,6.2256,5.9085,Delta,,
Uzere Government Hospital,6.2392,5.3329,Delta,,
Iruekpen Government Hospital,6.0472,6.7471,Edo,,
Aramoko Community Health Centre,5.0459,7.7159,Ekiti,,
Ecowas Ilupeju Mission Clinic,5.4046,7.5713,Ekiti,,
Erijiyan Community Health Centre,5.0064,7.6126,Ekiti,,
Ikere Mission Clinic (CAC),5.2276,7.5006,Ekiti,,
Ilawe Community Health Centre,5.1128,7.5832,Ekiti,,
K & S Mission Clinic Iyin Ekiti,5.1587,7.6505,Ekiti,,
Ogotun Community Health Centre,5.0081,7.5052,Ekiti,,
Oke Igbala Mission Clinic (CAC),5.1253,7.6702,Ekiti,,
Oke Irapada Mission Clinic (CAC),5.1668,7.6634,Ekiti,,
Oke-Ayo Mission Clinic (CAC),5.1274,7.6633,Ekiti,,
Oke-Ayo Mission Clinic (CAC),5.1271,7.6635,Ekiti,,
Oke-Emure Community Health Centre,5.454,7.431,Ekiti,,
Oke-Ibukun Mission Clinic (CAC),5.4572,7.4364,Ekiti,,
Oke-Igbala Mission Clinic (CAC),5.4552,7.4358,Ekiti,,
Oke-Isegun Mission Clinic (CAC),5.4604,7.4345,Ekiti,,
Oke-Itunu Mission Clinic (CAC),5.2276,7.6504,Ekiti,,
Okemesi Community Health Centre,4.9186,7.8357,Ekiti,,
Okesegun Mission Clinic (CAC),5.1543,7.6556,Ekiti,,
St Mary Cath Mission Clinic,5.0201,7.5029,Ekiti,,
Temiasese Mission Clinic (CAC),5.4634,7.436,Ekiti,,
Uacc Ajaye Church Mission Clinic,5.0924,7.6796,Ekiti,,
Enugu Government House Hospital,7.5223,6.4467,Enugu,,
Government House Clinic,11.1639,10.2812,Gombe,,
Umuowa Ibu Community Health Clinic,7.2715,5.9055,Imo,,
Umuowaibu I Community Health Clinic,7.2861,5.8954,Imo,,
Government House Clinic,8.5542,11.9764,Kano,,
Akanbi Government House Clinic,4.5796,8.4787,Kwara,,
Ijagbo Community Health Centre,4.7391,8.1798,Kwara,,
Iwo Community Health Centre,5.0381,8.3007,Kwara,,
Ogidi Community Health Centre,4.5,8.5167,Kwara,,
Shonga Community Health Clinic,5.151,9.0102,Kwara,,
Zambutu Community Health Centre,5.1677,8.7841,Kwara,,
Aljenatu Community Health Clinic,5.8114,9.2974,Niger,,
Bali Community Health Post,4.8177,9.2054,Niger,,
Chatafu Community Health Clinic,5.7338,9.2177,Niger,,
Dagida Community Health Clinic,5.5243,9.6933,Niger,,
Dassun Community Health Clinic,5.5737,9.3273,Niger,,
Dikko Community Health Clinic,5.7394,9.267,Niger,,
Dumma Community Health Clinic,5.4856,9.1841,Niger,,
Edogi Community Health Pos,5.833,8.7536,Niger,,
Egangi Community Health Pos,4.8007,9.3029,Niger,,
Egbako Community Health Clinic,5.8088,9.3388,Niger,,
Egbanti Community Health Clinic,5.6331,9.2528,Niger,,
Emiworongi Community Health Clinic,5.8191,9.402,Niger,,
Fofo Community Health Post,5.256,9.0788,Niger,,
Foti Community Health Post,5.0596,9.2947,Niger,,
Gbachi Community Health Clinic,5.5171,9.2821,Niger,,
Gbamatingi COMMUNITY HEALTH CLINIC,5.5059,9.3601,Niger,,
Guzan Community Health Post,5.4833,9.0167,Niger,,
Jipan Community Health Clinic,5.5645,9.3426,Niger,,
Kara Community Health Post,4.8238,9.1664,Niger,,
Koegi Community Health Clinic,5.5286,9.5447,Niger,,
Koshaba Community Health Post,5.0335,9.1988,Niger,,
Kutiwongi Community Health Clinic,5.499,9.5027,Niger,,
Labefu Community Health Post,4.8151,9.2128,Niger,,
Lagun I Community Health Clinic,5.5249,9.495,Niger,,
Lanle Community Health Clinic,5.6452,9.2274,Niger,,
mashigi Dadi Community Health Clinic,5.5764,9.6475,Niger,,
Mayisa Community Health Clinic,5.6488,9.2797,Niger,,
Ndaruka Community Health Clinic,5.7826,9.3587,Niger,,
Panti Community Health Clinic,5.6691,9.2174,Niger,,
Ribiku Community Health Clinic,5,9.5838,Niger,,
S/Madina Community Health Clinic,5.3609,9.6286,Niger,,
Santali Community Health Clinic,5.7581,9.3885,Niger,,
Shebe Gbako Community Health Clinic,5.6267,9.2054,Niger,,
Shetti Community Health Post,5.2209,9.4266,Niger,,
Sonfadagabi Community Health Clinic,6.0395,8.9747,Niger,,
Tsoegi Community Health Clinic,5.8435,9.2851,Niger,,
Tswatagi Community Health Centre,6.0901,9.2098,Niger,,
Wa'abi Community Health Post,5.2242,9.3865,Niger,,
Wuchi Community Health Pos,5.8013,8.7749,Niger,,
Yeti Community Health Clinic,5.4613,9.4011,Niger,,
Yiddan Community Health Clinic,5.3763,9.5286,Niger,,
Zhiluko Health Community Health Clinic,5.5389,9.552,Niger,,
Zhiwu Community Health Post,5.2165,9.1225,Niger,,
Odogbolu 1 Community Health Clinic,3.7688,6.8474,Ogun,,
Akeredolu Comm. Health Centre,4.5524,7.3916,Osun,,
Area Iv Comm. Health Centre,4.6112,7.0608,Osun,,
Aye-Oba Communtiy Health Centre,4.6097,7.2869,Osun,,
Bode Osi Community Health Centre,4.2277,7.7556,Osun,,
Bolorunduro Afobi Communtiy Health Centre,4.5,7.2,Osun,,
Idi Ogun Adedire Communtiy Health Centre,4.606,7.1286,Osun,,
Isoya Community Health Centre,4.5402,7.3141,Osun,,
Onigbodogi Communtiy Health Centre,4.6,7.15,Osun,,
Ose Arowolo Community Health Centre,4.5967,7.1737,Osun,,
Osi Community Health Centre,4.5402,7.3141,Osun,,
Osogbo Government House Clinic,4.5428,7.7847,Osun,,
Yinmi Communtiy Health Centre,4.4833,7.1666,Osun,,
Government College Ibadan (GCI) Health Centre,3.8313,7.3785,Oyo,,
Bunga Community Clinic,9.1667,9.4667,Plateau,,
Chisu Community Clinic,9.1663,9.4666,Plateau,,
Dengi Government Secondary School (GSS) Primary Health Centre,9.9552,9.3617,Plateau,,
Dikibin Community Clinic,9.1332,9.342,Plateau,,
Hiktup Community Clinic,9.1665,9.4663,Plateau,,
Jakkom Community Clinic,9.1669,9.4664,Plateau,,
Kombiring Community Clinic,9.1528,9.2642,Plateau,,
Millet Community Clinic,9.1672,9.4667,Plateau,,
Murish Community Clinic,9.1672,9.4659,Plateau,,
Ruvwang Community Clinic,9.121,9.4312,Plateau,,
Telengpat Community Clinic,9.2185,9.4139,Plateau,,
Telengteng Community Clinic,9.2202,9.4164,Plateau,,
Washna Community Clinic,9.2468,9.4814,Plateau,,
Portharcourt Government House Clinic,7.0189,4.7677,River,,
Government House Clinic,5.2334,13.0313,Sokoto,,
Government House Clinic,11.3745,8.8878,Taraba,,
Damaturu Government House Clinic,11.9542,11.7321,Yobe,,
Babba Doka Community Dispensary,6.3622,11.2589,Zamfara,,
Chabi Community Dispensary,6.4594,12.3921,Zamfara,,
Dabah Community Dispensary,6.5434,12.6414,Zamfara,,
Dayau Community Dispensary,6.5532,12.6094,Zamfara,,
Dokau Community Dispensary,6.6782,12.0903,Zamfara,,
Gabiya Comm Dispensary,6.3717,12.2355,Zamfara,,
Galadima Government House Clinic,6.6638,12.1567,Zamfara,,
Gidan Bugaje Com Dispensary,6.4957,13.0764,Zamfara,,
Jakiri Community Dispensary,6.6477,12.1966,Zamfara,,
Kasumka Community Dispensary,5.9545,12.0805,Zamfara,,
Kwantaragi Community Dispensary,6.3145,12.2394,Zamfara,,
Lugga Community Dispensary,6.3395,12.3477,Zamfara,,
Madada Community Dispensary,6.5148,11.1634,Zamfara,,
Madira Community Dispensary,6.5608,12.6394,Zamfara,,
Magami Community Dispensary,6.6585,12.602,Zamfara,,
Maigoge Community Dispensary,6.449,11.3794,Zamfara,,
Mailallan Nagona C Dispensary,6.5132,12.4811,Zamfara,,
Mailalle Community Dispensary,6.6897,12.3779,Zamfara,,
Malamawa Comm Dispensary,6.3474,12.2336,Zamfara,,
T/Mudi (Kofa) Community Dispensary,6.5983,12.588,Zamfara,,
Tsibiri Community Dispensary,6.4206,13.0099,Zamfara,,
U Galadima Comm Dispensary,6.2621,12.292,Zamfara,,
Yamatsawa Community Dispensary,6.562,12.5311,Zamfara,,
Yan Ruma Community Dispensary,6.5634,12.6654,Zamfara,,
Yar Dole Community Dispensary,6.5564,12.3942,Zamfara,,
Methodist Church Hospital,7.580021878,10.45890982,,,
Announciation Specialist hospital,7.591910267,6.468440282,,,
Kwajaffa Primary Health Centre,12.41729732,10.46710204,,,
varg pharmacy,3.414949753,6.607053575,,,
Sheperd Specialist Hospital,3.298492093,6.46495274,,,
Primary health clinic ikukkumung,8.856243918,9.908063717,,,
Araba Primary Health Centre,5.303702165,13.76370313,,,
Dialogue Pharmacy,7.446890434,10.54490622,,,
Nigerian police clinic,8.880871039,9.918014294,,,
General Hospital Kebbe,4.731971879,12.12124012,,,
Crystal Clinic,7.4110495,10.47844762,,,
Mdg Bendu,4.132597322,11.67603928,,,
Tedi Primary Health Center Ojo,3.22761472,6.446307029,,,
General Hospital Baro Dikko No19 Kaduna Road Nasarawa Kafuna,7.396930267,10.47071573,,,
Kamzone Medical Diagnostic,3.264522586,6.546757684,,,
Primary Health Centre Gari 2,12.10988818,10.21565727,,,
Standard Clinic,5.249950026,13.04834559,,,
Damfamin Tofa Health Post,8.428341893,12.22263668,,,
Ojuoluwa Medical Centre,3.081402142,6.565789382,,,
Apikobugai Clinic,7.655986061,10.50662917,,,
Elisafe faith maternity home,3.237350384,6.530344241,,,
General Hospital Kaura,6.593044062,12.58386728,,,
PHC Bachaka,4.143626649,13.16285252,,,
Pharmacy,5.577875643,6.325744164,,,
Coker Primary Health Center,3.361646045,6.548527775,,,
Rann Primary Health Centre,14.46209714,12.26910394,,,
Yusuf Dantsoho Hospital Kv 206 Lbrahim Taiwo Road Tudun Wada Kaduna,7.410982361,10.51227405,,,
Jabo PHC,4.960058887,12.50975382,,,
Phc Maraba Rido No1 Green House Opp Sabon Rai By Gyara Junction,7.52204593,10.43109464,,,
PHC,6.156601717,8.951183723,,,
Kauna Clinic Kujama By Novin Gust House Maraba Rido,7.532836457,10.43357828,,,
Datam Conv Health Care Center,3.25062405,6.522555442,,,
"Hossana Hospital, Agbowo",3.910354931,7.442079976,,,
Runsewe Hospital,3.399698628,6.45074642,,,
Hayin Gwarmai Health Post,8.203550566,11.45991333,,,
Gwamna Awan General Hospital Nassarawa Kaduna Amaka Vitalis Chemist Before Household Of Love Church Lamigyi Gonin Gora Kaduna,7.388469239,10.41966718,,,
Hilton Hospital,3.320668597,6.448513816,,,
Kelle Dispensary,13.20412527,10.69336842,,,
Biu Isolation Centre,12.17010494,10.61882052,,,
Mch Clinic,6.490507235,11.29377152,,,
Military Hospital,7.004973951,4.826068549,,,
Oranyan Health Centre,3.90075212,7.37522424,,,
PHC Maitemako,6.602995058,9.486863192,,,
El-Roi Inland Missions Hospital,8.879957244,9.938752882,,,
White Hall Medical Centre,7.485498988,6.450651956,,,
Anturu Primary Health Center,7.437620719,10.46818892,,,
Mbolinyi Health Post,12.95427456,10.09647943,,,
Hospitals Zci Rock Road Tudun Nupawa,7.414761593,10.51710135,,,
Gimo Maternity Buba Sauri Road Romi,7.42413189,10.53165284,,,
"Government Chest Hospital,Jericho",3.872056842,7.394264152,,,
Pamo,7.024673184,4.837557372,,,
Day Star Health Cares,3.28141472,6.62572066,,,
Phc,5.967217644,12.67285166,,,
Agodo Primary Health Center,3.279374648,6.532027579,,,
Moonlight Clinic & Maternity,7.479645319,6.424451049,,,
PHC,6.936890769,9.648793934,,,
First Opinion Medical Laboratory,7.523002054,6.458629097,,,
Agbara Primary Health Care Center,3.102409119,6.504107627,,,
Alhajiri Primary Health Clinic,12.88123449,11.47467277,,,
Plateau state specialist hospital,8.883747624,9.896432066,,,
Ntasi Obi Ndi No Naafufu Specialist Hospital,7.501389987,6.476538961,,,
Lee Way Medical Center,3.274517168,6.62163926,,,
"Omak Pharmacy, opposite UI",3.90686697,7.442526983,,,
Yamtake Dispensary,13.5072029,11.10776787,,,
"Oluyole Chemist, Eleyele Road",3.863209995,7.414806939,,,
Affinity Laboratory Medical Lab.,8.861385125,9.956752349,,,
Shikarkir Federal Health Centre,12.77626448,10.80348986,,,
PHC Kambuwa,5.032899638,10.94190014,,,
Alliero State University Hospital,4.499511529,12.30452913,,,
Neuro Spinal Clinic,7.479772975,6.460940994,,,
St Gerards Catholic Hospital Kakuri Kaduna Our Lady Of Fatima Girls Secondary Schools Sabon Tasha Kaduna,7.469053527,10.44694264,,,
PHC,3.78465857,10.37738802,,,
Primary Health Centre Danchadi,5.208942319,12.79910827,,,
Primary Health Care Kurfa,4.971206819,12.19384408,,,
Buwa Health Clinic,13.50952142,12.60913084,,,
Chidove Homoeopathic Medical Center,3.16532578,6.487065039,,,
Korko Dispensary,11.60362474,10.27118654,,,
PHC,6.987285286,9.72715467,,,
Kwando Primary Health Centre,8.682696528,10.70812107,,,
Divine Favour Maternity Home,3.352517147,6.534354563,,,
PHC Daza,6.326019426,9.626528833,,,
Eginna Memorial Maternity Home Clinic,6.562672069,9.210871177,,,
Ecwa Health Clinic & Maternity,8.912424965,9.911294689,,,
Hago Primary Health Centre,7.831174124,11.4799185,,,
Gumsuri Clinic,12.80828855,11.05987543,,,
PHC Yola,4.519758184,12.8290403,,,
Raufmomic Health Care,3.258906795,6.638922493,,,
Excellence Medical center Bida Bidi Jos,8.855613263,9.983674938,,,
NRC Dispensary,4.534462054,12.74538547,,,
Federal Teaching Hospital Mosque,11.13873824,10.29688327,,,
Husara Health Post,13.23597222,10.4838485,,,
Tswachiko Clinic,6.16164427,9.000227496,,,
Ramat Hospital Hayin Banku Kaduna,7.442110737,10.5723184,,,
Olutayo Nursing Home,3.152944619,6.465849688,,,
PHC Kafin Tela,6.568137069,9.602099944,,,
Adetutu Clinic Ltd,3.329012949,6.503313526,,,
Metro hospital,11.1467868,10.29874557,,,
Primary Health Centre Jenta Adamu,8.874657953,9.925005555,,,
University Clinic,9.79362685,10.27891717,,,
Rijiya Clinic,5.229852821,13.04569598,,,
Hasbuna Ilahu Patent Medicine Store,3.887288185,7.383174559,,,
Yusuf Dantsoho General Hospital Kaduna Inside Sir Kashim Ibrahim House Kafuna,7.41872858,10.52848976,,,
Phc Jangebe,6.070894578,12.22310103,,,
Gumsuri Federal Medical Centre,12.80731197,11.05151364,,,
Yetu Hospital,5.986671622,9.069470482,,,
Multafu Primary Health Centre,13.27280834,10.77040724,,,
Legus Specialist Hospital,3.365869183,6.530781777,,,
PHC Jandutsi,4.511661936,12.13892376,,,
PHC Buzan,5.714832169,9.906067399,,,
Cocin Clinic And Maternity,7.434595188,10.44719192,,,
Primary Health Care Kwadom,11.28773604,10.2766414,,,
"Mdgs Primary Health Centre, Sabongari",6.570060297,12.57429389,,,
Lakeland Specialist Clinic,5.774106055,5.546994197,,,
Primary Health Care By Yakowa Way Karjipu,7.467251082,10.49561719,,,
HealthPlus,3.451442128,6.435949595,,,
44 Reference Hospital Plot A12 By Rail Line,7.443561729,10.57767602,,,
Hwolshe medical center Tudun Wada,8.866885833,9.891936684,,,
BILKISU MEDICAL CENTER TINGA,8.468977444,11.96527126,,,
Kunook Pharmacy,8.8590941,9.958068056,,,
Maraban Rido Primary Health Center,7.528649529,10.43221572,,,
Kwata Phc,6.650722285,12.17000595,,,
Portal-Gate Pharmacy,3.912339934,7.470297988,,,
Model PHC Centre Raha,4.075698365,12.08020937,,,
BHC Badeggi,6.147849669,9.052858975,,,
PHC Kauna,7.068664094,9.523759659,,,
Emmanuel Chosen,3.907402574,7.48328449,,,
Gawa Town Health Post,13.85438384,11.9440394,,,
Kuma Dispensary,13.19577438,10.41599062,,,
New Life Fountain Hospital,8.913833963,9.92381784,,,
Genaral Hospital Kambaza,4.571001787,12.45938806,,,
savannah health facility,11.9155965,9.589474283,,,
Gadiya Dispensary,10.44522184,11.9627608,,,
Grace Hospital,8.911165332,9.89582178,,,
Itireijesha Primary Health Care,3.337236518,6.509943863,,,
Farin Gida Alpha Specialist Hospital,7.417547067,10.58244834,,,
Dan Hyrum Pharmacy,7.640678023,12.97839743,,,
Gwapopolok Health Clinic,12.16414273,10.25307677,,,
Orthopedic Hospital No12 B Ustaz Yunuz Street,7.432202657,10.54403878,,,
Ajigin Mairi Health Clinic,12.28703936,11.17088863,,,
First Holistic Health Physiotherapy Clinic,7.494652949,6.425601968,,,
Kakuri Hausa Primary Health Center,7.41348352,10.46478646,,,
Apollo Cresent pharmacy & stores,8.875669481,9.898678836,,,
Ogundimu Primary Health Care Centre,3.291464622,6.624037155,,,
Wushi H Post,9.607563185,10.73027083,,,
Huse Of Peace Specialist Clinic,3.340732275,6.5314473,,,
Royal Okhia Pharmacy,5.589700497,6.362872475,,,
Boboshe Dispensary,13.80958299,11.8054251,,,
Majiya Tsakar Gida Primary Health Centre,5.343343873,12.89215284,,,
EBIKON Medical Diagnostic LAB kabong,8.86913629,9.928893836,,,
Primary Health Centre Samawa,6.765986194,12.28835968,,,
PHC,4.348066632,10.58032915,,,
Pathcare Laboratories,3.274161775,6.470852091,,,
Numa Clinic and Maternity,5.757172766,5.522008247,,,
Merian Primary Health Care Center,3.281827528,6.663645755,,,
Gangwoni Health Clinic,12.23597689,8.228961227,,,
"St. Peters Maternity Health Centre, Aperin",3.918667935,7.375425824,,,
Marabawa upgraded dispensary,5.306026299,13.21811986,,,
Zuwo Health Post,8.205522492,11.75029246,,,
EYN Dispensary,12.32928466,10.50988763,,,
Express Care Clinic,6.34706957,4.954013775,,,
PHC Nassarawa,4.629923465,9.854023492,,,
Medicine Store,7.51935425,6.457631399,,,
Renue Clinic,3.278299082,6.470128481,,,
44 Military Hospital And Yusuf Dantsoho Hospital Kaduna Opposite Police Statoin Kurmin Mashi,7.414009233,10.5570174,,,
Kelvin Medical Store,5.587572918,6.368908786,,,
Kogo Primary Health Centre,8.171970069,11.62300354,,,
Mufa A,13.13125702,11.78775026,,,
Far East Medical Center,3.274354894,6.422323219,,,
Nasiha clinic and Maternity,8.893805321,9.937157052,,,
Tonia Pharmacy,7.462492257,9.076430227,,,
Tudun Nupawa Primary Health Center,7.416856063,10.51631815,,,
Tudun Kaya Health Post,7.930957999,11.73324878,,,
Excellence foundation international,8.880185483,9.929047477,,,
Risaaj Hospital And Medicure,3.344127197,6.516267673,,,
PHC Lafia Arziki,6.350892891,10.34217028,,,
Potungi Health Centre,6.179398482,9.040870255,,,
Baskore Health Post,8.147879473,11.84269716,,,
KASU Dental Clinic,7.448344023,10.51772932,,,
PHC Kangi,4.612625648,11.59087495,,,
Cj Confidence Care,3.24522074,6.558885376,,,
PHC Hammak,7.234035691,9.301432025,,,
Grace Olambipo Clinic,3.170226176,6.505941169,,,
Badari Health Post,7.893614944,11.80309049,,,
Glasmithkline Company Clinic,3.354434926,6.554672464,,,
"FIOLU PHARMACY LTD Pharm Awotuyi G127, Isale, Gambari Rd, Oko Erin 240101, Kwara, Nigeria",4.555041638,8.500391643,,,
Savannah Hospital And Maternity,7.415693661,10.44285144,,,
Author Pharmacy,7.531809087,6.458485599,,,
Late Yahaya Umar PHC Dukamaje,5.812832375,13.75144804,,,
Babu Pharmacy,7.531273735,6.460195675,,,
Pat Medicine Store,7.528774671,6.457847987,,,
Madi Memorial Hospital,11.09675354,10.29537218,,,
MADADI,8.473160684,11.95897427,,,
Divine Blessing Hospital,3.230693225,6.540172442,,,
MPHC Felande,4.493664398,12.68326735,,,
PHC Kuchiywi,6.877100726,9.702038968,,,
Ghung Health Post,12.52227773,10.41088864,,,
Maternity Child Health Care,6.709779163,9.869631266,,,
PHC,6.977324148,9.588438867,,,
Day Spring Hospital,3.265428419,6.552291584,,,
PHC Gorin Dikko,3.997130177,12.58307067,,,
Bulonguwa Maibe Dispensary,13.87817328,11.94093834,,,
National Healthcare Center,7.441107591,10.51970167,,,
"Fiolu Pharmacy Ltd, Gambari Road, Oko Erin, Nigeria",4.555087152,8.500588786,,,
Ajiboye Clinic And Maternity Home,3.281228055,6.57821832,,,
FIRST CLASS CLINIC AND MATERNITY,8.479552975,11.96305299,,,
Odu Primary Health Clinic,7.895417472,8.45457197,,,
Wuro Bakumbo Health Post,12.02406889,9.307323078,,,
Agape Medical Centre,3.258234818,6.607016695,,,
Lehobi Primary Health Care,12.81627223,10.70694903,,,
PHC Rudu,5.297453289,12.87201113,,,
Wali Bako Clinic,5.251990517,13.03788958,,,
Abbaganaram  PHC,13.15634197,11.85783756,,,
Hawadin Galadima Primary Health Centre,8.235579745,11.86576156,,,
Skylark Pharmacy,7.468911789,9.071294552,,,
Uda Dispensary,13.08230143,10.49703189,,,
Walama Dispensary,11.96277764,10.28377943,,,
Nassarawa Primary Health Center,7.397978927,10.46008496,,,
Durbe Dispensary,14.00415462,11.72206146,,,
Yabal Dispensary,13.43260555,11.7334554,,,
Kyenpia pharmacy,8.8835737,9.896623341,,,
Badoki Primary Health Centre,5.00214677,12.06058088,,,
Malamawa Health Post,7.859758928,11.83523483,,,
PHC Bubuche,4.634920756,12.86085783,,,
Roland Orthopedic Hospital,3.236773122,6.532616492,,,
Braunx Pharmaceuticals,7.53184295,6.458270184,,,
Tofaan's Hopital,3.24537899,6.59906009,,,
Igbologun Medical Center,3.252320547,6.413752639,,,
Muna Moforo Refugee Site,13.24651297,11.86690468,,,
Phc Hayin Alhaji,7.115547096,12.05958737,,,
Mch Mahuta,4.968806158,11.55662666,,,
Sabo Crown Hospital,3.172857423,6.462143797,,,
General Hospital Sabon Tasha No29 Layin Sarki Beside De Gideon Medical Kamazo,7.488555869,10.45666917,,,
Lawanti Health Clinic,13.41351367,12.57727022,,,
PHC Fana,3.929066021,11.70905685,,,
Whimsical Clinic,7.02685164,4.833943599,,,
PHC Marafa,7.075624426,9.526530465,,,
Mdgs PHC Tungar Giwa,4.589908679,11.31908285,,,
The Ark Hospital And Maternity Centre,3.254318457,6.606336252,,,
PHC Gebbe,4.603826158,11.01821184,,,
dallum dispensary,11.52998989,9.436945941,,,
RHC Asara,5.273748596,13.44929987,,,
Mandafuma Community Dispensary,12.2511323,10.71200767,,,
Doma health Clinic Gombe,11.34666979,9.724102819,,,
General Hospital ahoada,6.645076319,5.093015485,,,
Koljiri Dispensary,12.89625654,11.08390492,,,
PHC Assada,5.238736381,13.06626065,,,
Ibadan North East LG,3.933795594,7.403650291,,,
PHC Hamma Ali,5.33412378,13.17194773,,,
Health Center,6.130365689,9.028483897,,,
Stahealth specialist hospital,8.878954349,9.931371694,,,
Dambitam Dispensary,11.74866176,10.44678037,,,
Orisegun Med Center,3.349665959,6.524913858,,,
Guba Dispensary,11.86867653,10.55778459,,,
Kena Hospital,3.183157022,6.46595488,,,
Amrullah Hospital,7.399050554,10.51501015,,,
Wisdom Hospital And Maternity,3.19820698,6.50232488,,,
The Muslim Hospital Annex,4.43901003,7.749405389,,,
Jara Dali Primary Health Centre,11.70159637,10.24943936,,,
Taffi Awori Primary Health Centre,3.073602278,6.407811378,,,
Barau Dikko Teaching Hospital NoT15 Darma Road Kawo,7.44899052,10.57737805,,,
Tashan Goigoi Clinic,13.68998614,11.07084893,,,
44 Hospital No8 Togo Street Malali,7.467838486,10.56168184,,,
PHC Popoi,6.363937899,9.632090058,,,
Dusula Dispensary,12.47256458,11.22911804,,,
Buwaya Health Clinic,7.407027443,10.40482282,,,
Bimtom Hospital,3.327302371,6.499539239,,,
Tolajide Health Centre,3.356712122,6.528957623,,,
Gods Grace Maternity Faith Home,3.887474347,7.382392192,,,
Primary Health Care Center,6.290337999,12.74823179,,,
Phc Ruwangizo,5.996723955,12.24087503,,,
Donas Hospital,3.418120627,6.601153973,,,
Kauyen Mahuta Health Post,8.153916623,11.86630412,,,
Teli Health Centre,11.70648847,10.44569189,,,
PHC Kwakwere,4.027210145,11.86704349,,,
Dispensary,5.863603239,13.52851087,,,
Central Hospital Warri,5.734385389,5.517933468,,,
Ririwai Primary Health Centre,8.727918572,10.75012899,,,
Focus hospital,8.874083541,9.90655707,,,
Gilgal Dental Clinics,3.430472618,6.448193795,,,
M b Tukur Primary Health Care Malali,7.472084423,10.56125738,,,
Uding Maternal And Child Health Clinic,12.90529843,10.15338987,,,
Chuks Pharmacy,7.518531734,6.45798193,,,
Julimate Vet,8.867466699,9.940311665,,,
PHC,4.276304717,12.57761723,,,
Hf Dental Eye Clinic,3.30578636,6.459237372,,,
General Hospital Bungudu,6.559358199,12.27150108,,,
Phc Dogon Kade,6.764662524,12.30724805,,,
Tree Star Hospital No1 Natata Street,7.416286429,10.43534167,,,
Muttex Pharmacy,4.181620475,7.63477423,,,
Far East Maternity Center,3.296874721,6.456789353,,,
First dental consultants dental centre,7.501049933,6.449199959,,,
Ali Jodi PHC,5.256579776,13.04660139,,,
Dugabau Primary Health Centre,8.207099044,11.80271347,,,
tinyema heath post,12.44889467,8.767401779,,,
Orthopedic hospital,3.236808578,6.532619593,,,
Barga PHC,4.642801841,12.17047006,,,
Zenith PHC,3.390151054,6.46532255,,,
Limanti Dispensary,11.66198986,10.57067864,,,
Primary PHC Wali,4.633849968,12.71651484,,,
Quest Medical Diagnosis,3.271224086,6.601611876,,,
"Eleko, Orelope Hospital, Jebba Road, Ilorin, Nigeria",4.619473663,8.535872323,,,
Maina Hari Health Clinic,12.15887445,10.67828367,,,
Ariganbori Clinic,13.37102136,12.66033589,,,
Adeniji Adele PHC,3.392700661,6.463417678,,,
Leemp,6.50099199,10.56567255,,,
Noah Art Traditional Health Centre,3.398958926,6.524344727,,,
PHC Zagga,4.120660235,11.56359085,,,
Memfys Hospital,7.49265244,6.477155785,,,
Shepard Clinic,5.25008883,13.03609434,,,
General Hospital NoB 2022 Samaru Road Opposite Post Office Kakuri Kaduna,7.411254521,10.46880617,,,
Maternity and Child Health Miringa,12.14582793,10.72614132,,,
Baba David Clinic (Faithbased Clinic) Oke Alasepe Abaeja,3.916932965,7.476016961,,,
Kawuri Model Primary Health Centre,13.53313324,11.57613093,,,
Royal Oak Hospital,3.293548782,6.465777687,,,
Honesty Clinic and Maternity Hospital,3.90697166,7.481206197,,,
Sunnyvale Hospitals,7.446125166,8.98495374,,,
The good shepherd hospital,7.489660855,6.426618944,,,
Gaskiya Clinic & Maternity,4.530012269,12.7502344,,,
Kughum Health Clinic,13.79062656,11.05363158,,,
Anzior Pharmaceuticals LTD,8.874868674,9.924714536,,,
Health Clinic Centre,6.785933783,8.385481367,,,
PHC Kwaki,6.847349664,10.29161726,,,
Lawaniya Dispensary,12.50469962,11.98327634,,,
Fellowship Clinic And Maternity Center,3.202192743,6.456826653,,,
PHC Gelwasa,5.361603095,11.35819147,,,
General Hospital No2 Kkb Sarki Street Keke B,7.494003435,10.55913869,,,
Skills Specialist Hospital,7.43706282,10.49966012,,,
"Emmanuel Hospital, Awotan- Apete, Ibadan",3.870459922,7.450042951,,,
Nanti,3.346549232,6.426723718,,,
Ganganra Health Post,6.874272337,12.01789989,,,
Muna Da`Alti 2B Refugee Site,13.25055305,11.86736393,,,
Zange Dispensary,11.76461956,10.27545712,,,
Sauna Phc,6.04997385,12.41772623,,,
Dalori Clinic,13.21772423,11.77678288,,,
Kawo General Hospital,7.446911891,10.58342643,,,
Damri Model Primary Health Centre,5.836538493,12.40839164,,,
Unguwar Malam Amadu Health Post,7.772042563,11.49322888,,,
"CAC Oke Imole Maternity Home, Agbeni Ibadan",3.888146995,7.378216998,,,
General Hospital Tiggi,4.606256743,12.79885195,,,
Medicine Store,5.584004742,6.365761298,,,
Tinna pharmacy,8.889264677,9.918046564,,,
Kiru General Hospital,8.134761627,11.70698996,,,
Koramgilim B Dispensary,12.70446359,10.85822888,,,
Chekele Dispensary,11.63914214,10.3802838,,,
Gilgal Medicare Complex,8.87703615,9.935946118,,,
Kafin Dabga Health Post,8.123095862,11.83187235,,,
Kalyto pharmacy,8.886747842,9.905349154,,,
Bakin Kogi Model Primary Health Center,10.30086024,10.26022418,,,
The Hosanna Hospital,3.284099359,6.467506035,,,
Sefa Hospital Clinic And Maternity,3.100920577,6.503950467,,,
Mdg Dispensary,4.236878591,11.99876685,,,
Selman Hospital,8.892521633,9.955492633,,,
St Judes Hospital Maternity,3.295504196,6.463335033,,,
S.B.R.S BIOLOGY LAB,11.17238287,10.30675573,,,
St Gerard's Hospital Kakuri Kaduna No3 Maikushi Street Off Auta Jagaba Romi New Extension Kaduna,7.413529118,10.44242672,,,
Kajla Primary Health Center,3.36576726,6.527145623,,,
Phc Adapka,5.618296784,11.89080534,,,
Njilang Dispensary,12.77915683,10.84963525,,,
PHC,6.002158781,8.872319486,,,
Ajoke Clinic,3.34572177,6.521715324,,,
Zurmi Phc,6.780543884,12.78030037,,,
Juggal Dispensary,11.72144765,10.51244738,,,
PHC Maje,6.723524143,9.855673218,,,
Helix Pharmacy,3.501745031,6.613641667,,,
Abbari Primary Health Clinic,13.02014157,11.59883038,,,
Jimi Clinic,6.464302053,9.713109953,,,
Bulanjilin Health Clinic,13.31790407,11.22635905,,,
Ola hospital Jos,8.884318935,9.929640245,,,
Oriowo Maternity Home,3.123270084,6.476957889,,,
Federal Medical Centre,3.35014138,6.55069676,,,
Naf Medical Centre 79 Cg Maiduguri,13.07208246,11.84088122,,,
HealthPlus,3.358140817,6.613858172,,,
PHC Medical Reseption Service,4.177513678,12.43289906,,,
Clinique La paix,2.731559944,6.537925673,,,
Summit Hospital And Maternity Home,3.304205869,6.594274693,,,
Health Clinic,6.55448999,9.996852128,,,
Walawa Health Post,8.223149048,11.78618394,,,
Shalom Health Center,3.396413677,6.531731195,,,
Zuma Kumogun Dispensary,13.35189327,12.42947506,,,
Kamsiyochukwu Clinic Maternity,7.51661496,6.483448918,,,
Ajiri Health Clinic,13.11346702,11.66027828,,,
Kwahara Dispensary,11.89082554,10.30372567,,,
Richard Pharmacy,7.522429151,6.456744091,,,
Crystal Specialist Hospital,3.306224818,6.602583758,,,
Shani MCH Clinic,12.06469723,10.21807855,,,
Kware Comprehensive Health Centre,5.259247233,13.22790104,,,
Federal Medical Centre,7.500738043,5.51680736,,,
PHC Kwaido,4.664777598,13.03154448,,,
Barwati Health Clinic,13.67089837,12.81207273,,,
Josemaria specialist clinic,3.421583023,6.598865294,,,
Maciland Medical Center,3.249144895,6.524075751,,,
La Healing Dew pharmacy,8.885557277,9.925559348,,,
Mbuta Dispensary,13.25233345,12.04007212,,,
Orphanage Hospital,6.662041123,12.18472633,,,
PHC,6.418330164,10.45304593,,,
Al Ramadan Nursing And Maternity Home Nassarawa,7.395410796,10.47124857,,,
Fueller Health Hospital,3.26173376,6.644288168,,,
Primary Health Centre,6.561029299,12.49317408,,,
Manigi Health Centre,5.489518817,9.741858959,,,
Kabusa Healthcare,7.441340021,8.949681686,,,
Jes 7 Jes Clinic Amuwo Housing,3.279811848,6.448170074,,,
Ijagemo Primary Health Centre,3.224206219,6.504528064,,,
Rojafia Clinic,3.397454374,6.592971224,,,
Mainframe Hospital And Maternity Centre,3.17369226,6.48644746,,,
Damboa Town Dispensary,12.75408932,11.16009516,,,
ACE Health & Medical Stores,7.256619388,8.969265584,,,
Holy Family Hospital and Maternity Home,3.261461599,6.445740077,,,
The Vine Medical Center,3.246239979,6.583503445,,,
Aduwa Health Clinic,13.17608638,12.94549553,,,
Danzabua Primary Health Centre,8.110249674,12.34582375,,,
312 Artillery Hospital,7.41948622,10.4587991,,,
Maska Health Post,8.080938745,11.59451085,,,
Emel Specialist Hospital Festac Town,3.289444918,6.475653245,,,
Aulari Health Clinic,13.59280275,11.54354963,,,
"Ramna Hospital (Ramunaak Clinic and maternity Agbamu, Idi Ose",3.923886927,7.507319932,,,
PHC Lopa,4.634036381,10.48606199,,,
"General Hospital, Bonny",7.175791773,4.435607061,,,
Kexpress Clinic,3.260892887,6.455781262,,,
Kamazou Health Clinic,7.484673371,10.46718276,,,
Agbenuba Health Centre,3.262252767,6.649938829,,,
Gwarmai Primary Health Centre,8.405443875,12.3633923,,,
Budingeri Health Clinic,13.36608887,11.68231196,,,
Damilola Trado Medical Hospital And Maternity Home 7 Agbaje Street Off Olayinka Olatunji Street Orisunmbare Phase 1camp Davies Road Ayobo Lagos,3.221827854,6.593247575,,,
Kukurupu Community Health Dispensary,12.54393045,10.39921759,,,
Mashema Phc,6.68786627,13.05870076,,,
Believers Faith Medical Clinic,6.280931241,4.936308094,,,
Makafiya Dispensary,10.9348249,11.18848367,,,
"Aroro Pry Health Centre, Ojoo",3.95789365,7.523104229,,,
St Joseph Eye Clinic,3.239070434,6.580176751,,,
Emergency pharmacy,8.893004346,9.911998685,,,
EL SHADDAI CLINIC,3.90440202,6.803474927,,,
College Clinic Gang Woki,12.08682353,8.457366496,,,
PHC,6.14256974,8.960723251,,,
ABU Teaching Hospital Shika Zaria No11a Danmarna Road Unguwan Rimi Kaduna,7.465467497,10.53523652,,,
St Gerard's Catholic Church Hospital,7.420754989,10.46687808,,,
La tahzan clinic and maternity,8.897638952,9.924044738,,,
vertiarg hospital,3.414957464,6.606851152,,,
Wunje Dispensary,12.00795225,10.18617996,,,
PHC Aliyu,6.766553481,10.16569878,,,
Unguwar Liman Health Post,7.743666719,11.40505377,,,
PHC Gande,4.833210517,13.07847174,,,
Adamu Turaki PHC,6.255117997,10.18699309,,,
PHC Fingilla,3.780825694,11.89806416,,,
General Hospital Binji,4.914840867,13.23015694,,,
Bakindusti Phc,6.705531885,11.94058899,,,
Yan Kaba Primary Health Center,6.565905472,12.64024145,,,
God's Goal Hospital,3.202269186,6.456080496,,,
Lugge Health Post,10.34747334,10.96173273,,,
Fudawa Clinic,8.916477531,9.93031943,,,
Nagode Pharmacy,7.531944539,6.458117549,,,
Ashigashiya Primary Health Centre,13.8694649,11.13953318,,,
Federal Medical Centre,6.741567531,7.79993695,,,
Check-Up Diagnostic,8.866073292,9.939509936,,,
Whitambaya Primary Health Centre,12.25012513,10.39247368,,,
Primary Health Care (P. H. C),8.914944732,9.928231834,,,
Valangide Hospital,13.68866029,11.06985166,,,
Cass pharmacy,8.885400116,9.919737529,,,
Ishaku Hospital,7.418716426,10.49642018,,,
Bioscreen Health Services Limited,5.747231494,5.531151478,,,
Shehuri Dispensary,14.18332593,12.43656422,,,
PHC Knanyigmana,7.21475899,9.308009388,,,
Solace Women Hospital,8.913547553,9.924850155,,,
Jauro Gotel Health Clinic And Maternity,11.7502643,10.09939524,,,
Bulajimbam Dispensary,12.61328089,11.2009489,,,
Ngollom Dispensary,13.69812002,12.53027339,,,
Shaffa Primary Health Centre,12.3276978,10.51269524,,,
Nyawi Dispensary,11.77600856,10.66542508,,,
ade oyo maternity teaching hospital,3.902506536,7.387016152,,,
Calvaty Med Center,3.351893533,6.535614363,,,
Manawaji Health,14.12811275,12.42108142,,,
Good Hope Hospital,3.341107617,6.524272978,,,
GIDAN MAGANI AL-MISBAH MEDICINE STORE,8.46669086,11.96291285,,,
Hospitals And Clients No15 Madobi Road By Quranic Recitation Centre Kinkinau,7.405828496,10.50005432,,,
Debof Clinicks Ltd,3.345535357,6.538145865,,,
PX Pharmacy,5.152675441,7.28951425,,,
Alfa Medical Center,7.495642935,6.464026959,,,
"Al-Lateef Medical Hospital, Akingbile Junction",3.913331932,7.51323194,,,
Irede Primary Health Center Riverine,3.260827173,6.448409964,,,
God's Grace Clinic,6.32844364,4.941411583,,,
Peal medical laboratory,8.886181477,9.924225368,,,
Kojos Pharmacy,3.421733227,6.606034923,,,
Royal Salvation Hospital,3.306495721,6.591499697,,,
Dederi Health Post,8.05735735,11.84366443,,,
Ikoyi-Ijumu Health Centre,5.926572957,7.846741665,,,
Blessed Trinity Hospital,3.093523799,6.577245767,,,
n/a,6.007261683,9.300477829,,,
Health Centre Gonin Gora,7.397156998,10.43115265,,,
Gwangwan Primary Health Centre,7.747225424,11.48707237,,,
Auno Primary Health Clinic,12.93299023,11.84744115,,,
Igbologun Primary Health Center Snake Island,3.328642721,6.417724068,,,
Health,3.423057065,6.430745271,,,
PHC Gabadna,6.608525018,9.356635071,,,
PHC Alaita,7.20596235,9.471751124,,,
Abu hajara pharmacy and stores,8.888554478,9.94550308,,,
Gwanna Awan General Hispital,7.374489566,10.47768663,,,
Iyalode Bisoye,3.359616954,6.545350027,,,
Dipchari Health Post,13.90542377,11.38613439,,,
Kafin Zaka Dispensary,10.66253709,11.49333315,,,
Waire Health Post,8.220978889,12.34553449,,,
Denis Pharmacy,7.520085822,6.458121238,,,
Sa'achi Nku Health Clinic,5.880641217,8.903457083,,,
Able God Hospital Maternity,3.331738074,6.504102347,,,
Okey Madu Maternity Home,3.247662891,6.548273216,,,
Garanda Health Clinic,12.99127195,13.00067133,,,
Eastern Nigeria Medical Center,7.509274927,6.409845918,,,
Gabiyu Clinic,6.636213043,12.19658497,,,
General Hospital Dogondaji,4.799963196,12.47120093,,,
Primary Health Center Tudun Wada Opposite New Market Kujama,7.633486351,10.47568746,,,
Continental Hospital And Maternity Home,3.358718498,6.528142232,,,
Hope For The Village Clinic,7.556063717,10.4425258,,,
Prince O.K Wood,8.885699685,9.925212085,,,
Junction Road Primary Health Center,7.426363488,10.50388636,,,
Kaule Clinic,11.97112066,10.03413249,,,
Kageta,5.472144891,11.32558285,,,
Fegnolak Pharmacy,7.534363556,6.458016548,,,
Blessed clinic,8.865205765,9.894361485,,,
Prince And Princess Hospital,3.286001046,6.604936474,,,
Tawa Health Post,12.40107784,9.00183657,,,
Dan-Gulbi,5.324732696,12.35209123,,,
Imude Primary Health Care Center,3.11504509,6.466610597,,,
PHC Shagabe And Maternity,6.646232267,9.291965168,,,
Goni Kurmi Dispensary,13.63162714,11.47684712,,,
PHC Yarma,3.998337422,11.97908154,,,
Dabarmasara Health Clinic,13.83480087,12.80385083,,,
Mbalala Maternity and Child Health,12.87499148,10.77935492,,,
Monte Pharmacy,7.529543627,6.457866176,,,
Elbethel Hospital,3.276618678,6.456897396,,,
Primary Health Care Off Sarki Street Opp Bahago School Rido,7.497766574,10.40136294,,,
Shehuri Primary Health Clinic,13.15631095,11.84631345,,,
Phc Damaga,6.382538264,12.39828323,,,
Rini,5.836046894,12.79916644,,,
Ali Sheriffti Health Dispensary,13.85711668,12.86071777,,,
Saye Primary Health Centre,8.396162258,12.27551693,,,
Garingado Dispensary,11.662401,10.48916673,,,
PIX Centre,7.028359545,4.833987855,,,
Mbangan tiren heath post,11.99908185,8.704099634,,,
Palm Avenue Primary Health Centre,3.349810798,6.536528326,,,
Jinjimawa Health Post,8.273771217,12.33100907,,,
De Godswill Hospital,3.091445674,6.576423754,,,
Primary health care center,7.422453749,9.016028054,,,
boro heath post,12.10819587,8.64257043,,,
Gidan Nisau Health Post,8.19295693,12.35799033,,,
Family Medicine Department FMC,7.61140255,12.97973133,,,
Falola Medical Clinic,3.13550498,6.536786824,,,
MDG PHC Gbazhi,5.973837336,9.08649572,,,
Amino Kanu Teaching Hospital,8.594211543,11.97671348,,,
General Hospital Zurmi,6.78975593,12.77747005,,,
Mojol Hospital and Maternity Home,3.297199268,6.585339333,,,
Charles Henry Specialist Hospital,3.256642927,6.448683717,,,
Kofin,13.09834146,10.55337244,,,
Abodunrin Medical Center,3.178382773,6.471193235,,,
Usha-Kadu Primary Health Clinic,7.878967484,8.188114872,,,
Ipaja Primary Health Centre,3.254207481,6.604318225,,,
Alaso Amikanle Primary Health Care Center,3.244609196,6.65036245,,,
Mount Carmel Hospital and Mortuary,7.521728172,6.458546535,,,
PHC Sanyinnayal,4.887801518,12.57917358,,,
Trust care medical laboratories,8.891409354,9.915555546,,,
Tudun Magaji Health Post,7.781821562,11.45287437,,,
Phc Bawo,7.077351853,12.11606396,,,
Laminga Primary Health Centre,7.81069353,8.680043321,,,
Cedar med,8.87940957,9.920172298,,,
Skane Radiologistic center,8.882546497,9.896485962,,,
Nassarawo Clinic,12.44396695,9.280182224,,,
JSK Pharmacy,7.050557255,4.825126759,,,
Primary Health Centre Clinic,11.96868898,10.02532956,,,
Dabarmasara Health Centre,13.84649656,12.80212399,,,
Aminat Convalesce Home,3.31203859,6.441605535,,,
St Grace Nursing and Convascent Home,3.292712519,6.455681936,,,
Sharon Clinic,3.360338468,6.553617937,,,
General Hospital Sabon Tasha Beside Jeshmic Redemption School Maraban Rido,7.527496179,10.42948557,,,
Rido Primary Health Center,7.474710222,10.50901189,,,
Alimosho Local Goverment Egbe Idimu Lcda Health Center,3.287826289,6.57063496,,,
Oriwu Pharmacy & Supermarket,3.195530052,6.497808962,,,
Dwn Quarters Primary Health Center,7.414618095,10.49119825,,,
Orphanage and Less Privilege Clinic,6.562788745,12.27173434,,,
Kawo General Hospital NoH14 Kawo Road Kawo Market Kawo Kaduna,7.448692878,10.58165466,,,
Solad Medical Centre And Maternity Hospital,3.26752599,6.600598755,,,
Sentinel Hospital,3.341961397,6.532838947,,,
"Children Specialist Hospital, Oko Erin, Nigeria",4.554400674,8.497090347,,,
Ayobo Primary Health Care Centre,3.234946538,6.60642443,,,
Fafolu Clinic and Maternity Home,3.355395157,6.534615073,,,
Top Talent Hospital,3.292481263,6.603077368,,,
First Choice Pharmacy,7.518695684,6.456813577,,,
sukur sama heath post,13.58433007,10.74147308,,,
Clinic Matenity Center,5.460186263,10.40133528,,,
Phc Tsibiri,6.409727146,13.01919894,,,
Rigana Primary Health Centre,8.210192386,12.37794278,,,
Dogoshi Health Clinic,13.6746683,12.86222274,,,
PHC Rabba,5.029297431,9.213040832,,,
Kofar Kade Clinic,5.225244869,13.06638738,,,
Suzan Hospital,7.185929434,9.183385156,,,
Satellite Town Primary Health Care Center,3.264680166,6.449733299,,,
PHC,5.520923964,9.415180486,,,
PHC,6.733393331,9.274654526,,,
SFOUR HEALTH SERVICES LTD,7.503842029,8.990115149,,,
Gongulong Primary Health Centre,13.18674916,11.920112,,,
Hussara Health Clinic,13.2370659,10.4986263,,,
Tsaudawa Health Post,8.202675998,11.68093649,,,
General Hospital,3.219639339,7.533750588,,,
Sabon Fegi Health Post,8.063955417,11.80630294,,,
Police College Clinic Kaduna,7.444307466,10.50991504,,,
Confidence age care home,8.848850827,9.971290341,,,
Yimirdalong Primary Health Centre,11.84668577,10.39382133,,,
Nidus Aquilae,3.361187388,6.546772939,,,
Glory Clinic and Maternity,8.877308395,9.93916259,,,
NLNG RA HOSPITAL,7.178906237,4.385830543,,,
Praise Medical Center,3.28893203,6.468100983,,,
Primary Health Care Besse,4.433433299,11.27000949,,,
PHC,7.239587193,9.663908685,,,
MSF ATFC,4.512681679,11.4317783,,,
Kangarwa Health Clinic,13.55743766,13.14962177,,,
Abacheke Model Primary Health Care Centre,6.726269049,5.497720425,,,
Rumirgo Dispensary,13.02544698,10.60165992,,,
Basic Hospital,3.292042721,6.571901969,,,
Asibitin Salisu,8.887046238,9.948155282,,,
Molai Missionary Hospital,13.11053654,11.76152463,,,
Bio cycle clinic,7.419518491,9.019924298,,,
PHC Takware,4.523387883,11.33119495,,,
Healing Land Hospital And Maternity,3.140153248,6.460350069,,,
Kagara Primary Health Clinic and Dispensary,5.602286679,13.39302126,,,
gori heath post,13.63355414,10.93970802,,,
National Primary Care,4.817483385,12.13640508,,,
PHC Kasati,3.637735961,11.62542054,,,
Gamaye Dispensary,14.02562193,12.14107254,,,
"Oni and Sons Memorial Hospital, (Adeoyo) Ring Road, Ibadan",3.861941981,7.362431947,,,
Yola Health Post,8.287594232,12.24439308,,,
God's Footstep Nursing Home,3.263724629,6.644653117,,,
Health Of Ihe Sick Pharmacy,7.494529986,6.458543937,,,
Capital Medicare,8.124270251,6.324297448,,,
Pentecost Medical Center 112 Festac Town,3.2929105,6.470093864,,,
Kakuri Gwari 1 Primary Health Center,7.409888019,10.46091578,,,
Alheri Health clinic & Maternity,8.921621589,9.933199871,,,
Guwal Health Facility,11.91210443,10.54156829,,,
PHC Rinin Tawaye,5.242736895,13.06416777,,,
Chobal Kura Primary Health Centre,13.00170893,11.95471182,,,
Ada Pharmacy Tech,7.534474197,6.45918356,,,
Divine Nursin Hme,3.341710527,6.526532068,,,
Jiddari Primary Health Centre,13.14608796,11.79464002,,,
PHC Kudodo,6.813108583,10.16091212,,,
kingfield diagnostic services,3.422435128,6.60674093,,,
Gava Dispensory,13.91055969,11.18552519,,,
Oluwalase Clinic,3.343845565,6.538794792,,,
Rafingero Health Centre,5.778171529,12.23022615,,,
Josaf Pharm,5.626319355,6.324509091,,,
Bwalagyang Dispensary,12.78188254,10.8756728,,,
Cmc Clinic,13.15166637,11.85535895,,,
Mch Mungadi,4.12358116,12.11315594,,,
Tommy Patent Store,3.890876478,7.38209916,,,
Gurmana,6.62980776,10.00997819,,,
PHC,5.722062399,8.887080353,,,
Ijedodo Primary Health Center,3.247497935,6.498367365,,,
Giltoo Aris Specialist Hospital,7.428131064,10.48161254,,,
Orphans And Less Privilege Hospital,6.048860063,12.56713516,,,
Primary Health Care Bauni,5.073952188,13.60982472,,,
Hasppaleez pharmacy,8.868464397,9.902607685,,,
Naira'a Clinic,13.17380122,11.82700858,,,
Tsamiya Primary Health Centre,5.710883622,12.94744792,,,
Kaduna Emergency Operations Center,7.452552745,10.51354994,,,
Babarejo Dispensary,3.987537256,11.56299305,,,
Health Post Uba Dispensary,13.20617364,10.45406994,,,
PHC Aljannare,3.916197034,11.59033373,,,
Husama Health Post,8.113175964,11.78836197,,,
Azir Health Clinic,12.64579848,11.04405685,,,
Kofar Gwari Primary Health Centre,8.007614694,8.686362857,,,
Tashan Gurugu Health Post,11.86197336,9.337792637,,,
Malan Gajere Health Post,8.192114548,11.86029413,,,
PHC Shemma,4.042695124,12.02557453,,,
PHC Tungar Sule,3.685808355,11.7749335,,,
PHC Rafi,6.243029197,10.29931797,,,
Gwashi Primary Health Care,5.766424795,11.89982134,,,
Gatamarwa Health Centre,12.84458068,10.8697737,,,
Mbalwaha Health Post,12.94483419,10.32973572,,,
Belwin Memorial Clinic,7.514816539,6.458469254,,,
Hauwa Nursing And Maternity,7.3985235,10.50712496,,,
Martha Bamaiyi General Hospital Zuru,5.238257523,11.41895415,,,
PHC,6.587293322,8.443512467,,,
"Abdullahi Hospital, Owode-Academy, Ibadan",3.911109973,7.350922923,,,
PHC Dogon Daji,3.784892342,12.41782639,,,
Farida Hospital,6.661406529,12.17314958,,,
Yimir Mbula Clinic,12.77224603,10.92242764,,,
DORAYI KARAMA PRIMARY HEALTH CARE,8.476863054,11.96500916,,,
Barawa Primary Health Care Centre,13.79006556,11.05389679,,,
Bakaina Dispensary,12.03621116,10.1387948,,,
Conic Patent Medical Store,5.626268561,6.366735191,,,
Amc Hospital,3.313966427,6.465195396,,,
God's Will Ogbonna Medical Complex,7.426666242,8.992138792,,,
Health Post Mothol,12.93211985,10.13470242,,,
Doka Primary Health Center,7.528587838,10.55442798,,,
Pauline Medicine Shop,7.521094249,6.456542087,,,
St Femos Conual Home,3.32941922,6.509021853,,,
Jama'a Hospital Rikkos,8.899502417,9.915806416,,,
Mudiaga Faith Clinic,5.762138625,5.564436854,,,
Ifey Patent Medicine Store,3.910143624,7.485068075,,,
PHC Giro,4.180248777,11.77100305,,,
Kudar Clinic And Maternity,8.872447729,9.902569044,,,
General Hospital Sabon Tasha Karatudu Road,7.415338268,10.42458568,,,
Pax herbal clinic,8.871920675,9.904977333,,,
Odan Abuja Primary Health Center,3.175420273,6.578187726,,,
Malikawa Sarari Health Post,8.147552328,12.38052223,,,
Garaha Dutse Health Post,12.8867093,10.39900855,,,
Delife Hospital,3.254725147,6.551665372,,,
Muskat Hospital9 Abbi Street By Rasaq Bstop Off Bishiri Ajangbadi Ojo,3.153820444,6.461653372,,,
General hospital Kaltungo,11.32080139,9.830595821,,,
Rural Hospital Auna,4.737164636,10.18639646,,,
A Aand A Medical Diagostic Center,3.356140141,6.514704784,,,
National Hospital Abuja No4mm Lawal Jafaru Isa Road,7.472366055,10.54232996,,,
Primary Health Center Nassarawa,7.39876624,10.47056016,,,
General Hospital Sabon Tasha Close To The Sarki's House Maraban Damishi,7.566433724,10.44806364,,,
Elton pharmacy and store,8.884736689,9.898319755,,,
Primary Healthcare Kabala Layin Sarki Kabalan Doki Kaduna,7.446438481,10.50200596,,,
ABC Hospital,6.76915162,9.959187375,,,
"Emiloju Traditional Healthcare, Ebedi Area, Shasha.",3.913772652,7.483070081,,,
PHC Kwaifa,4.196573372,11.69265112,,,
Mount Carmel Maternity,7.521746361,6.458654829,,,
Sunnah Hospital,11.18488305,10.28606056,,,
gazama heath post,13.51275482,10.72759407,,,
Taqwa Hospital,3.251008947,6.666925258,,,
MedPlus,3.432020085,6.438533317,,,
Sauki Hospital,8.882034279,9.910033632,,,
wuro gayadi primary heath post,13.38944118,10.71351306,,,
Chiromawa Primary Health Centre,8.159493355,12.32150592,,,
Ejiwunmi Tradomedical,3.141298551,6.467034218,,,
Royal Health Care Galadimawa,7.427248869,8.992371222,,,
"Tobi Hospital, Oko Erin, Nigeria",4.540868678,8.483506467,,,
Maganda Health Post,8.759362025,10.64049026,,,
Police Clinic,6.54756394,9.62236923,,,
Alheri Primary Health Centre,13.13751219,11.85852043,,,
Ikogbo Primary Health Center,3.178693826,6.531857091,,,
Unguwar Sarki Primary Health Center,7.447700461,10.55114378,,,
Samadex Clinic,3.266241296,6.529354758,,,
Teaching Hospital No10 Sylvester Crescent Barnawa Kaduna State,7.438609197,10.48284686,,,
Ogbomoshotedo Community Health Cetre,3.258216042,6.574992879,,,
Outreach Medical Service,3.24542727,6.421362317,,,
Unimaid Medical Center,13.19737624,11.80405407,,,
Dzakwa Health Post,13.16308705,10.46006619,,,
Sickle Cell Patient Health Promotion Center,7.457632681,10.55933248,,,
Bum-Bum Health Post,8.39700179,12.24869149,,,
Tuberculosis and Leprosy center Tapa,3.228247134,7.555651998,,,
Loko 1 Primary Health Centre,7.846735378,8.004101084,,,
First Choice Specialist Clinic,7.504571925,6.437192966,,,
Health Post Wurobokki,12.05310263,10.07555099,,,
Durmawa Health Post,8.258319849,11.60518043,,,
Holy Family Catholic Church Medical Centre Festac,3.283021195,6.468380184,,,
dowaya health clinic,12.06257066,9.454796797,,,
PHC Tunga Kawo,5.380648036,11.17930699,,,
National Eye Centre Nigeria,7.405322229,10.57380392,,,
beval pharmacy,7.038989726,4.841853265,,,
Chemart Pharmacy,3.43077554,6.448740631,,,
Korede Dispensary,12.54460217,11.05236005,,,
Horatio Dential Clinic,5.614387548,6.334081392,,,
"Pharmaco Hospital, J and P Road, Moniya road",3.913901985,7.522182974,,,
Sigal Health Clinic,14.53527828,12.2872925,,,
Acf Water Board IDP Camp Clinic,13.61386136,12.68299829,,,
timkola heath post,12.16117972,8.640723562,,,
Daniya Dispensary,4.091383923,12.01612762,,,
PHC Gawosu,4.210697968,12.54410663,,,
Binji PHC,4.824084217,12.80127918,,,
Zauro Ambrusa General Hospital,4.312745292,12.49703009,,,
Ngamdu Dispensary,12.26232909,11.76049793,,,
General Hospital Kujama Kujama Market Kaduna,7.637447973,10.47622683,,,
Basmard Pharmacy,7.034745884,4.866360022,,,
pharmacy,11.14658714,10.29842663,,,
Tsanu Phc,6.834729954,12.69493488,,,
General Hospital,5.478682776,11.24595318,,,
Munidola Maternity Center,3.143994171,6.453468527,,,
tipto maternity and child heath,11.65728116,9.61266835,,,
Zephaniah Maternity Center,3.333571364,6.512085187,,,
Plateau State Primary Health care Board,8.874148333,9.942301445,,,
Jenvak hospital & maternity,8.868656929,9.902747076,,,
maiha gari maternity and heath facility,13.21544972,9.993605146,,,
God First PPM (Patent and Preparatory Medicine Vendor),3.909976991,7.483289938,,,
Torowa Health Clinic,13.28387447,12.54132074,,,
PHC,5.985994448,9.719148276,,,
New Era Clinic,8.87529657,9.939106431,,,
PHC Gidan Kwano,4.703661163,10.33512303,,,
PHC Sauki,6.251394923,10.18975174,,,
LizkebePharmaceutical Services,11.14639042,10.30033368,,,
PHC Jere Sapai,6.691466381,9.448127819,,,
Yanbundu Health Post,8.293144142,12.26915649,,,
Yusuf Dantsoho Hospital Pq 12 Danladi Inusa Road Uguwan Sunusi Kaduna,7.403531184,10.52764847,,,
Jodeb Hospital,7.427633598,10.50994337,,,
"Tolulope Clinic & Maternity, Oko Erin, Nigeria",4.601334889,8.485029459,,,
Dakingari Health Centre,4.062508518,11.64050948,,,
Ori Eru PHC,3.891368244,7.381255773,,,
Multe Dispensary,12.60591789,10.95240242,,,
PHC,5.396411966,10.14702633,,,
Unguwar Rimi Primary Health Center,7.462283631,10.52669788,,,
General Hospital Maiyama,4.371055175,12.07442594,,,
Primary Healthcare Tudun Wada No2 Bugai Road Kujama,7.643367525,10.4771988,,,
PHD Yidna Santi,6.629658898,9.36614258,,,
"Olodo PHC, Ibadan",4.013396936,7.417874967,,,
Gg Able Medical Diaglab,3.259392191,6.530609529,,,
"Six bed Primary Health care, Tapa",3.234458795,7.56202786,,,
Kayode Health Center Onipanu,3.364636625,6.532605847,,,
Kowa Hospital,6.529379149,9.656430854,,,
"Danax Pharmacy, Adamasingba Junction, Ibadan",3.886917957,7.396142955,,,
Turawa Primary Health Centre,8.047964338,11.69769116,,,
"Faith Mission House, Idi ori, Ojoo (Solution Gospel Aba Opa)",3.919901919,7.476389955,,,
Mofio Dispensary,13.41901556,12.3043485,,,
Gordita clinic and maternity Alheri,8.871551284,9.936831163,,,
Jofeg health and life pharmacy,5.620570962,6.32937445,,,
Gajale Health Post,8.237094774,11.43453862,,,
Tahaf pharmacy and stores,8.890910128,9.916247724,,,
GIDAN MAGANI,8.47244269,11.95797716,,,
PHC Ayena Ajeyi,6.703413024,9.868969347,,,
calvary medical centre,3.423045833,6.606417892,,,
Kwanyawa Primary Health Centre,7.867356956,11.77177494,,,
Ohhbee Hospital,3.280298669,6.541175756,,,
Josen clinic and maternity21,7.136252827,4.881927647,,,
Kabo Cottage General Hospital,8.167797558,11.85118928,,,
Serenity and Wellbeing Health Care Services,8.886862758,9.894910667,,,
Adex Patent Medicine Store,3.891961096,7.38323055,,,
General Hospital Barodikko No1b Yarima Street Ang Pama,7.456272717,10.45625242,,,
PHC Danbuwa,5.261468018,13.00213892,,,
Kabilo Health Clinic,12.20875683,9.031511189,,,
Pills & Tabs,3.489443498,6.436215469,,,
CHC Beni,7.18931522,9.649902273,,,
Fantaru Phc,6.562537958,12.23261416,,,
Maternity Health Centre Maiyama,4.371819521,12.08394158,,,
Mch Bagudo,4.227638716,11.40784335,,,
"Health Centre, Tungbo",6.167957855,5.126409993,,,
Primary Health Care Center Dutse Alhaji,7.37261906,9.141684182,,,
Maria Fustina  Clinic,5.708186745,5.590479343,,,
Delimi central pharmacy,8.888237642,9.918353425,,,
Golden Berries,5.627310096,6.320569261,,,
Divine Nursing Home,3.34430087,6.528931053,,,
Mt Sinai Hospital,3.281747062,6.54188453,,,
Epid Unit Offices,5.245915145,13.05029102,,,
Dikwa General Hospitl,13.91203969,12.04157667,,,
"Comfort Zone Hospital, Akingbile-Moniya Road",3.910151922,7.514384955,,,
duhu heath center,13.43739707,10.78897416,,,
Alabi Tutu Traditional Circumcision Centre,3.893152165,7.384670477,,,
Federal Training Center Dalori IDP Camp clinic C,13.22675515,11.78162175,,,
Banke Hospital,3.246178288,6.600790533,,,
bunary heath post,11.47437706,9.482689591,,,
Primary Health Center Warri Street,7.426346054,10.51422954,,,
Gundiri Health Centre,11.94365358,10.15218346,,,
PHC Suruyi,6.586830725,9.503653821,,,
Pa Clement Ogunsusi,3.200044293,6.492765571,,,
Wellspring Surgical Clinic,5.77589425,5.542559248,,,
Iyanu Medical Center,3.22633078,7.552953947,,,
Maternal & Child Health Facility,4.528973751,12.74186448,,,
Mallam Maja Primary Health Centre,14.09067196,11.98608747,,,
Sagbe Clinic(Oluwasogo Clinic),3.917551969,7.496821934,,,
PHC Burum,7.046346774,9.313606487,,,
Bungudu Wc Wc,6.556516399,12.27043959,,,
Safeside Clinic and Maternity,6.752757623,5.556086299,,,
"Tioluwani Private hospital, Idiose, along diplomate school",3.92081496,7.504479976,,,
PHC Amanawa,5.248617639,11.37786338,,,
PHC Liman,6.367845793,9.140500825,,,
Duldal Clinic,12.97813114,10.08484602,,,
Rally Hospital,3.362461437,6.541438193,,,
Bluesea Hospital And Maternity,3.280389864,6.557920787,,,
NOOWA Hospital,7.52725302,9.085441192,,,
Idera Oluwa Patent Medicine Store,3.912125525,7.485731419,,,
Afonja Eye Clinic,3.257800216,6.521818672,,,
Barka Clinic,13.22412105,10.46051026,,,
Komi Na Allah Ni Maternity Home Lumma Sanke,4.258620829,10.32093758,,,
Twaidi Zaidi Basic Health Centre,4.935645421,13.2511226,,,
Keecee Pharmacy,7.443505151,8.944875419,,,
Emergency Operations Center - Sokoto,5.245717165,13.05175392,,,
Wumbi Health Clinic,14.35861466,12.36132499,,,
Kakau Primary Health Care Center,7.356049379,10.42824044,,,
Kashimri Health Clinic,13.57845545,11.59137987,,,
Barka Specialist Hospital,7.400266936,10.52413595,,,
Synlab,7.470291618,9.083741594,,,
PHC,4.981771369,12.68686528,,,
Lamingo Medical Center,8.936015999,9.903675456,,,
Kiladejo Hospital,3.194979277,6.470227053,,,
Ndaba Health Clinic,13.94335624,11.23978183,,,
Sudi Medical Services,7.063304621,4.84981205,,,
Kedemure Primary Health Center,12.00133566,9.33237558,,,
Mapo Health Center,3.897624162,7.37651983,,,
Solar women and cervical screening center,8.885454934,9.919704923,,,
Molecular Diagnostics and research laboratory,8.892314851,9.913599797,,,
Phc Barayazaki,5.765240599,12.12959763,,,
PHC Jekadafari,11.16073537,10.28584582,,,
National Primary Health Care Development Agency,7.58446303,12.9887174,,,
PHC,5.639274676,8.975175831,,,
maitunku primary heath post,11.51947823,9.603875399,,,
Leverage Hospital Specialist Clinic,3.17178982,6.495506537,,,
Nakowa Clinic,4.745578223,10.84261239,,,
Ayantuga Primary Health Centre,3.355202038,6.533117478,,,
General Hospital Potiskum,10.99113452,11.72161026,,,
Shamage Primary Health Clinic,7.784770818,8.628639791,,,
Uba Phc,13.21788978,10.45139192,,,
Kurfar Magaji Phc,5.735148226,12.2696553,,,
Bankaura Health Post,8.381386891,12.27079339,,,
PHC Bussi,6.660123595,9.473925892,,,
PHC Rimi,6.739176174,10.08395075,,,
Safiya Medical Center,7.395279368,10.3748395,,,
Olowogbowo Primary Health Centre,3.382035779,6.459315323,,,
Maternal And Child Health Care Chimbi,6.996180077,9.464161143,,,
Medisound medical diagnostic,8.87881764,9.93167646,,,
National Hospital Abuja No4mm Lawal Jafaru Isa Road,7.47232314,10.54233264,,,
PHC Chacho,5.451384258,13.1673516,,,
Tudun Wada Family Health Unit Clinic,7.413360139,10.51096203,,,
Shalom Health Center,3.396520127,6.531782995,,,
Jiga Birni Health Facility,4.534360884,12.28194342,,,
Niima Clinic,6.575463523,12.57949687,,,
Dwn Quarters Primary Health Center,7.414549699,10.49112835,,,
PHC,6.116104384,8.984971762,,,
Conner Stone Medical Center,3.159327019,6.458140684,,,
Barau Diko Specialist Hospital Kaduna Plot 32 Gongola Roadchallawa Crescentbarnawa Kaduna,7.425821682,10.48434362,,,
Orisunbare Primary Health Care Center,3.302940537,6.569936832,,,
Ibido Health Centre,3.868246848,6.712079493,,,
Demsa LGA,12.14490902,9.415592624,,,
Jilbe Dispensary,14.63653762,11.91670216,,,
Laro Dispensary,11.80328369,10.33410638,,,
Diagnostic Center,7.45548113,10.53005676,,,
PHC Ofegbe,6.511511781,8.718497397,,,
PHC,6.96497794,9.672078274,,,
Dadin Kowa Primary Health Centre,8.630571149,10.70178762,,,
PHC Gayi,4.122430493,12.32733268,,,
Jeokem Hospital,3.304179717,6.459250699,,,
PHC Mazah,8.933907782,9.962790588,,,
Zoology Labortory,11.17325542,10.30718044,,,
PHC Mabera,5.250109953,13.0305664,,,
Kessa Kura Refugee Site,13.19295999,11.91868867,,,
PHC Guasase,6.39919277,9.641123235,,,
Dambazau Health Post,8.029298175,11.81145353,,,
Phonex Clinic,3.339183886,6.524055719,,,
Phc Wuya,6.095695456,12.07328893,,,
"2 Div Military Hospital, Odogbo Cantonment, Ojoo",3.918219923,7.47095295,,,
Al-Zunnur Clinic and Maternity,8.851933691,9.99326878,,,
Dangulbi P H C,6.247354259,11.64641897,,,
Sumel Optomentry,5.628210061,6.320508995,,,
Mari-ari Health Center,10.34173207,10.27248766,,,
PHC Kaliko,6.202507724,9.726880917,,,
Dumjos pharmacy,8.889405828,9.920676051,,,
White heart Pharmaceutical and Supermarket,7.423942543,8.995832864,,,
Adebek Maternity Home,3.216381628,6.525849194,,,
Primary health care centre Dabire,4.415069136,12.56988753,,,
Elf Foundation Primary Health Centre,3.269170184,6.552348833,,,
Godwin Pharmacy,7.530964359,6.460009429,,,
Wajiroko Dispensary,12.52675425,10.93396969,,,
Health Center Isheri Olofin,3.280570997,6.576854081,,,
Kubodeno Clinic,11.82043474,10.22295003,,,
General Hospital,7.073671778,9.526197117,,,
"General Hospital, Igbeti",4.147400182,8.736877234,,,
Maman Gimbiya clinic kabong,8.870283019,9.927438738,,,
Milestone galaxy diagnostic center,8.891986951,9.902535852,,,
Odonton Ville Dental Clinic,3.364060033,6.557294575,,,
Cocin Clinic Jebra,13.76310978,11.39765733,,,
Augie South,4.589659233,12.88106409,,,
dar dispensary,13.45184714,10.83688252,,,
PHC Maito,6.040950229,9.651409423,,,
BHC,6.312573596,9.00749536,,,
Dangora Primary Health Centre,8.15727609,11.53606744,,,
Makintakururi Clinic,12.39241405,11.77833722,,,
Carry medical clinic,3.420808955,6.607274941,,,
community base bamaco initiative,13.61925017,10.89347512,,,
Model Primary Health Care Bunkari,4.901530321,13.12479005,,,
God's Time Patent Medicine Store,3.90982662,7.482832035,,,
Soba Primary Health Center,7.437872847,10.58622917,,,
Division 44 Hospital,7.453338464,10.58932444,,,
Kaka Mallam Yale Maternity and Child Health,13.41477255,11.65326799,,,
PHC Nikuchi,6.67226847,9.343654856,,,
General Hospital Gakaru,8.121350498,8.846229471,,,
Glad Tidings Hospital,3.259712044,6.614013237,,,
M.B. Sauki Ultrasound Laboratory,9.794757569,10.26755759,,,
Pahra Clinic,11.80847167,10.17468259,,,
Odus Health Center,3.344950635,6.521117778,,,
Estandar Pharmacy,3.577867547,6.487290093,,,
"Fajimi Maternity Centre, sasa",3.920919985,7.476242937,,,
Mosolape clinic and diagnosis centre,3.905658467,7.483022471,,,
Primary health care centre Sabon Birni,5.275217022,13.24689435,,,
Noma Hospital,5.214894225,13.06760619,,,
Hamdala Clinic,5.238130118,13.05202583,,,
Faniyet Hospital,3.259988983,6.530250197,,,
Gwoza Town Health Clinic,13.70150078,11.08628832,,,
PHC ILORA,3.900002694,7.800018841,,,
Ruwa dispensary,4.964913099,13.71112907,,,
Chinwe Memorial Clinic,7.544272391,6.41342717,,,
Senda Poly Hospital,7.41427276,10.46334376,,,
Ibafon Primary Health Center,3.330775161,6.443241934,,,
HealthPlus Pharmacy,3.374250919,6.506368562,,,
State Epid Unit,5.246043892,13.05019044,,,
Unguwar Tofa Health Post,7.959640117,11.78564498,,,
konkol maternity clinic,13.10319173,9.649971088,,,
Al Mansur Specialist Hospital,7.459931334,10.55098696,,,
Guma Health Clinic,10.18319776,10.14107769,,,
Zarewa Primary Health Centre,7.811988031,11.39703153,,,
Al Ihsan Clinics and Surgery,8.55773635,11.94582055,,,
Federal NeuroPsychiatrist hospital,7.532397497,6.460583924,,,
Paba pharmacy,8.891776733,9.915272741,,,
Kakau Daji Primary Health Center,7.455714818,10.38521328,,,
Valif Pharmacy,5.625260218,6.331029038,,,
Fikayel Primary Health Centre,11.62119246,10.54389897,,,
Diagnoroy Consult ltd,7.42150299,9.017878527,,,
Leemp Health Center,6.236272629,10.20868989,,,
Governor Awan General Hospital No43 Bugai Road Kujama,7.644582649,10.47647343,,,
Primary Healthcare Kabala Layin Sarki Kabalan Doki Kaduna,7.446392884,10.50200077,,,
Prime Care Medicine Shop,7.423712292,8.995682074,,,
Alfurqan Clinic and Maternity,9.80070872,10.291141,,,
Total health care,8.882414147,9.925462285,,,
"Gbagba Alagbado Behind Sobi Specialist Hospital, Illorin, Nigeria",4.524975835,8.526503535,,,
Dorawa Dispensary,5.571207588,12.62298177,,,
His Grace Patent Medicine Store,3.91164499,7.480873854,,,
Mulgoi Dispensary,13.17280897,11.25139924,,,
Plateau State primary health care clinic Fomwan,8.897273417,9.92321166,,,
Rikkos Medical Center,8.920092227,9.888135659,,,
PHC Sambawa,4.261265655,12.27740722,,,
Noble Medical Digonistic Centre,3.174010773,6.492256538,,,
Mch Badariya,4.169896121,12.44318358,,,
Pela Mbirini Community Dispensary,12.37072747,10.40728752,,,
Phamarcy,3.234254696,6.523647017,,,
Garden Hospital Sabo Oniba Town,3.175394792,6.461714643,,,
Faith Durham Pharmacy,7.520695522,6.458005232,,,
Maneks Hospital,7.413657864,10.46778793,,,
Sanjarata Hospital No1 Block Ab Agwa New Extension Behind Makarfi Estate Trikania New Extension Kaduna,7.387618979,10.45662567,,,
PHC Galkogo,6.811144117,10.04349817,,,
Marke Yandotondaji Dispensary,6.895699834,12.0867149,,,
SFOUR HEALTH SERVICES LTD,7.503831384,8.990146162,,,
Fellowship Hospital,3.281397034,6.574232138,,,
Galadi Phc,6.421621318,13.0555298,,,
De havilah pharmacy kabong,8.872529117,9.929155268,,,
Mphc,6.805967537,12.54330968,,,
Dayspring Clinic,5.765308744,5.542639296,,,
Hand of God medicine store,3.413854992,6.601650936,,,
Sauki Clinic,7.634231921,10.47821686,,,
Urban Health Center,5.630784479,6.335844861,,,
Layo clinic,3.430036843,6.605541145,,,
Sabon Birni Primary Health Centre,8.031336654,11.85621365,,,
Mastafannamiri Primary Health Clinic,12.99108889,11.53192133,,,
Tsara Primary Health Centre,7.727665834,11.45074478,,,
Akwukwe Patent Medicine store,3.396151994,6.528280785,,,
Guba Health Facility,11.41939848,12.80718557,,,
Alau Health Clinic,13.23519539,11.73081325,,,
FCE(T) CLINIC GOMBE,11.14768936,10.31297686,,,
balaifi heath clinic,11.46877032,9.503211088,,,
Ifeoluwa Maternity Home,3.185367246,6.466994236,,,
Lakundum Dispensary,11.96047824,10.18260374,,,
Mdgs PHC Tsoho,4.039255191,12.76488127,,,
Lasapienza Hospital and Maternity,3.295251398,6.464653674,,,
PHC,6.676936855,10.05743937,,,
PHC,5.729583397,9.205042317,,,
Askolaye Primary Health Center,7.401616087,10.53277484,,,
Dialogue Pharmacy,7.450157364,10.52136824,,,
Lawanti Dispensary,12.53875186,12.39349943,,,
Kalla Dispensary,12.7866821,11.17547604,,,
Clinic Healthcare,3.311924596,6.472500476,,,
Kawaji Health Post,8.332936892,12.23190505,,,
PHC Ruggar Kura,5.248239447,12.92302926,,,
PHC Unguwar Jeji,4.155675132,12.32712699,,,
Ojoo Pry Healthcare Centre,3.91561994,7.471147997,,,
Kauji Kura Dispensary,12.7042206,11.03607753,,,
Irede Primary Health Center,3.265098591,6.441307056,,,
PHC Dutsen Kura Hausa,6.528819825,9.638366427,,,
Nganzai Family Support Clinic,13.21250248,12.48845138,,,
PHC,5.514026244,9.008923217,,,
jalingo buhu heath post,13.15742968,10.03975314,,,
PHC De Sauki,6.497383078,9.329556076,,,
Bethesda Family Clinic And Maternity,3.283865923,6.463273761,,,
Yafa Dispensary,13.30982685,10.77733153,,,
Ruwan Bore Phc,6.903181353,12.18956479,,,
Malari Maternity and Child Health,13.92071529,12.0336914,,,
Geneneral Hospital Tangaza,4.947361226,13.36473854,,,
Jaji Military Cantonement Hospital,7.576651263,10.83750874,,,
Bamzir Health Post,12.79650049,10.83181633,,,
Children Specialist Hospital,7.43220668,10.50405919,,,
FETHA,8.091613685,6.320863047,,,
Norex Clinic,3.241752643,6.465189948,,,
Pkakungu,6.530299147,9.596325399,,,
Grace View Medical Center,3.277497018,6.446749426,,,
POSH specialist Hospital,7.517686419,6.458268172,,,
Micony pharmacy,8.890162127,9.913656291,,,
Isuti Medical Centre,3.21889754,6.551743995,,,
Romee Eye Clinic,5.740147696,5.530961377,,,
Ba'Awa Health Post,7.987157654,11.59840667,,,
Salaam Kaula Patent Medicine Store,3.905883689,7.482769673,,,
Yola Primary Health Centre,7.949096772,11.71980865,,,
Alnur Patent Medicine and Store (Ventures),3.909698461,7.482766069,,,
John Vic Clinic,3.346006085,6.531950298,,,
Olutoba Clinic,3.354457725,6.529823725,,,
Mdgs PHC Tafki Tara,4.575152422,11.47442165,,,
Jowako Specialist Hospital,7.432611694,10.51418076,,,
Agbado Okeodo Primary Health Center,3.259765018,6.677866492,,,
Community Health Clinic Bidafu Chikan,6.081525178,9.507455936,,,
Desmond Pharmacy,7.534878456,6.460803866,,,
Primary Health Center,3.228145378,7.555431973,,,
Lifeway pharmacy,8.883542351,9.922378164,,,
Hagawa Health Post,8.169056436,12.2554986,,,
Osimike Health Service,5.635185816,6.377543069,,,
La Med Pharmacy,8.867514225,9.940369584,,,
Eromon Specialist Hospital,3.291633685,6.452258599,,,
Shibiri Primary Health Centre,3.144273121,6.461791924,,,
Emir Palace Health Center,5.990450938,9.088858243,,,
Gajiram Health Clinic,13.21382212,12.49438644,,,
Uche Kendu Medicine store,3.39687904,6.529091985,,,
PHC Basaura,4.253565619,12.32090879,,,
Chrisol Medicals Maternity Home,3.272567118,6.616978084,,,
Itohan Chemist,5.633706327,6.334973562,,,
Grace Specialist Clinic,6.34186357,4.951608672,,,
Mustaphawari Health Clinic,12.99102317,11.53190658,,,
General Hospital Nasarawa Ungwan Doma,7.395351787,10.3986312,,,
Nasarawa Medical Center (Salako),8.904756864,9.93464005,,,
Ultima Medical Hospital,3.366691281,6.540537558,,,
St Gerald Catholic Hospital No74 Naiyayi Road Opposite Space 2000,7.437103053,10.47727784,,,
Jodade Health Post,8.305717332,12.37205332,,,
Dorawa Dispensary,10.91797878,11.57627485,,,
Dozzy Pharmacy,7.535305347,6.460767991,,,
humbutuidi pbf heath facility,13.1584729,10.12306364,,,
Gava Clinic,13.6910488,11.10513218,,,
Funga Dispensary,12.90546356,12.52438737,,,
Blessed Assurance Maternity Home,3.303338845,6.457456972,,,
Igbesa Primary Health Center,3.134123642,6.527689274,,,
Oyalowo Traditional Herbalist Centre,3.892147175,7.384318018,,,
Kafa Health Post,12.47815028,11.30707837,,,
Bagarawa Primary Health Centre,5.213079627,12.89490982,,,
Federal Neuro Psychiatric Hospital Maiduguri,13.11873798,11.86509495,,,
East Side Hospital,7.536303967,6.448431757,,,
PHC Ikoliko,5.269595279,11.64868192,,,
PHC,4.650672783,9.836742271,,,
Kurmin Mashi181 Primary Health Care,7.414875587,10.55271405,,,
Mphc Mayasa,6.792680879,12.89664336,,,
Lesco pharmacy,8.885800268,9.921912717,,,
IfeOluwa Patent Medicine,3.889538978,7.383419562,,,
Kubau Road Primary Health Center,7.406928118,10.51947745,,,
Zwall Health Clinic,9.473920444,9.836891636,,,
Medical Center,3.981703032,7.42793367,,,
Sungwa Dispensary,12.20957817,10.32868648,,,
Kailani Health Post,8.182048553,11.73017832,,,
General Hospital Sabon Tasha Kaduna David Mifson Chemist Sa Gbagyi Street After Sharp Corner Durumi New Extension Gonin Gora Kaduna,7.384494122,10.43504889,,,
Lani,4.258832891,11.52523207,,,
Shonowo Hospital,3.250496645,6.563958775,,,
"Heavens gate redeem, F Division Road, Tanke",4.587860896,8.499272659,,,
Kingowa Dispensary,12.85932822,12.60569066,,,
Ladipo,3.344950635,6.547752281,,,
NGbobenge heath post,11.82063054,9.658969397,,,
Clinic,11.17563136,10.30857293,,,
Solar Clinic,5.749434425,5.539121578,,,
Rembo Hospital,3.343708773,6.531878968,,,
Doro Baga Primary Health Centre,13.8611291,13.11639859,,,
Maigodiya Health Care Centre,6.810171564,9.751824288,,,
Women and Children Welfare Clinic,5.248137859,13.06861303,,,
Linopmedical Laboratory Services,3.274079968,6.470646818,,,
Taonet Pharmacy,7.372297028,9.141783424,,,
Damargu Primary Health Centre,8.321570696,12.26581789,,,
General Hospital Sabon Tasha Down The Market Road Maraban Rido,7.532853892,10.42608009,,,
Common Sight Ltd,3.295985569,6.458976862,,,
Botschre,3.410074922,6.60508827,,,
St Joseph Mission Clinic,3.310945589,6.446277776,,,
Jubilee Health Center And Laboratory,3.227210377,6.535850817,,,
Noble-Med,8.885860953,9.925081244,,,
General Hospital Sabon Tasha Danhoni Street Ungwan Tanko,7.41679739,10.42174329,,,
Savelife Hospital Moshe,3.18855832,6.561595245,,,
Medicine Store,5.63572209,6.372974764,,,
Mch,4.743056024,10.8492398,,,
Umogidi Primary Health Centre,7.999699076,7.553273297,,,
Durbawa Primary Health Centre,5.34242924,13.06023682,,,
Kawo Primary Health Center,7.45077159,10.59309462,,,
New Smile Dental Clinic,5.625233228,6.326602723,,,
Bengoz Maternity Home,3.266308267,6.442049273,,,
Phc Yashi,5.600884889,12.18954517,,,
God's Power Health Centre,3.890844375,7.382815562,,,
Romo Liman New Primary Health Care,4.601289962,12.20804152,,,
PHC Dolekaina,3.638824184,11.71249829,,,
kilange heath post,13.12435067,10.17149738,,,
Winkoye Laboratory Service,3.221732635,6.552664663,,,
Sabon Birni Phc,6.867085357,12.56871247,,,
PHC Leaba,4.71028228,9.700988883,,,
Blessed Mary Natural Clinic And Maternity,3.188913126,6.464883422,,,
Ngudoram Health Outpost,13.99614354,12.0530722,,,
De laroy,8.875514919,9.928663418,,,
Toluwalope Clinic and Maternity,3.0917206,6.511803975,,,
Al Fauzan clinic,8.875720192,9.949899221,,,
Takatsba Dispensary,6.36667635,13.59811109,,,
Jones Specialist Hospital,3.274727721,6.544511921,,,
Moria Clinic And Maternity Home,3.301919956,6.603919917,,,
Runjin Sambo Clinic,5.205919553,13.07238614,,,
Newgate Trust Pharmacy,5.609686726,6.336215927,,,
PHC Bedi,5.355445917,11.42189218,,,
Mingila Nursing Home,9.830765555,10.896732,,,
Yelwa Domiciliary,9.799993996,10.28161614,,,
Bridge Clinic,7.424656262,9.064909385,,,
Primary health care centre Dabagin Ardo,5.38218226,12.95438546,,,
Caremax Hospital,3.630971095,6.473606636,,,
PHC Gwabare,4.45277278,12.56031489,,,
Nasara pharmacy,8.889051692,9.916723397,,,
Life Fount Medical Center,3.22687443,6.556956197,,,
PHC Marafa,4.768771116,11.53565472,,,
gangnai heath post,12.09085757,8.752039175,,,
Banki Health Clinic,14.15090046,11.24882825,,,
"BHC, Ilere",5.167404373,7.318647567,,,
28 Housing Clinic,13.42484232,11.64526068,,,
Agbelekale Primary Health Care,3.283526624,6.638243056,,,
Tinki Health Post,8.392552172,12.30315399,,,
faith clinic lafiya,11.81040303,9.65096074,,,
Okungbowa Medical Store,5.582941665,6.367449665,,,
MCH Jikpan,6.525087699,9.651343374,,,
Mdg PHC Dangamaji,4.304932017,12.21783619,,,
Sure mercies eye clinic & services,7.493084946,6.450379963,,,
Fafolu Mga Center,3.354794342,6.537471793,,,
PHC Maidabo,4.920127417,10.27673653,,,
Amina Nmadi Health Facility,7.402690228,10.49523607,,,
Divine Gift Medical Centre Hospital,3.221842522,6.445714093,,,
Ribe Primary Health Center,6.772584428,12.17394536,,,
PHC center,4.601224667,12.89934259,,,
Orit pharmacy,8.87412126,9.905654842,,,
Gajibo Maternity and Child Health,13.98861927,12.11238883,,,
Hayin Banki Health Care,7.435791453,10.57780787,,,
Shuwari Health Post,13.33438029,10.80072719,,,
Sanasi Nursing And Maternity Home,7.397936096,10.47615299,,,
MedPlus pharmacy,7.05465676,5.490647943,,,
Health Centre Magami,6.658484598,12.60197638,,,
Goni Adamti Health Centre,13.35510245,12.68511958,,,
PHC,5.863628049,10.00896649,,,
New Merit Hospital Limited,3.254055936,6.669855739,,,
GTC Clinic Enugu,7.497970925,6.459314988,,,
Wawa Lawanti Dispensary,12.65359483,11.09256284,,,
Merit Medical Clinic,3.353429098,6.53677358,,,
Excellent Medical & Diagnostic Laboratory,8.875824546,9.920022765,,,
Rophe Clinic,3.088598425,6.506117021,,,
Good shepherd Catholic church hospital,3.420789844,6.600975187,,,
SabonGari Primary Health Centre,4.648518969,12.40433127,,,
Unguwar Mai Chibi Comprehensive Health Care,7.432701548,10.45151388,,,
PHC,7.075278421,9.565354435,,,
Adventist Medical Center,8.920062471,9.934006378,,,
Agbara Medical Center,3.101179326,6.502889821,,,
Skin Clinic,13.68833759,11.52604738,,,
Emmanuel Power Hospital,3.162803162,6.476176947,,,
Labau Health Clinic,12.01511349,10.05183012,,,
Kwanni PHC,5.230929895,13.06385554,,,
Primary Health Center Ota,3.236632223,6.691210398,,,
Family Care Health Center,7.460549583,10.52727665,,,
Victoria's vestige memorial hospital,8.88227375,9.898802972,,,
Primary Health Care,6.50151368,9.674643639,,,
Oke Ilo Health Center,3.254152496,6.67274825,,,
EHA Lab,5.246222594,13.05000772,,,
PHC Auna,4.723542199,10.18864516,,,
Tarei Pharmacy,7.369375264,9.139519052,,,
"Olupelu Clinic and Maternity, Oko Erin, Nigeria",4.510959365,8.495486889,,,
Wazobia Clinic and Maternity,7.428844867,8.939289048,,,
PHC,6.978761896,9.56658867,,,
Meyetti Primary Health Center,7.445370962,10.5134569,,,
Doron Naira Clinic,13.60980787,13.19563096,,,
Jolamade Hospital,3.93566895,7.417985776,,,
Oriom Clinic,3.254428763,6.424923285,,,
Tsidau Health Post,8.149213286,12.30040439,,,
Temitope faith clinic and maternity house,3.237261284,6.520433647,,,
Diamond Clinic,3.346578736,6.534071422,,,
Zhedinyi Health Clinic,12.98761777,10.44239823,,,
Makera 1 Primary Health Care,7.412214836,10.46917279,,,
Kilangar Dispensary,12.7639824,10.70504005,,,
Royal Hospital,7.482119154,6.443285688,,,
JKF pharmacy,8.88876545,9.919155238,,,
Morai Phc,6.137441357,12.36825959,,,
Dialogue Clinic Isah Kaita,7.44689848,10.54572639,,,
PHC,5.548007821,8.928901691,,,
Grace Point Medical Centre,3.208377917,6.579428331,,,
Barry Medical Clinic,3.420851367,6.607250299,,,
General Hospital Moriki,6.499044958,12.87550613,,,
Primary Health Care,4.409398694,12.69505935,,,
Sparsh pharmacy and stores,8.889684275,9.922444129,,,
Ginjo Health Centre,4.971981223,13.16303408,,,
Hospitals No13a Tafoki Road Kabala West,7.396042456,10.50342879,,,
Specialist Hospital No24 Kubaka Road Off Jaabdulkadir Road Unguwan Kudu Unguwan Rimi Kaduna,7.462543722,10.52229914,,,
Kabala West Primary Health Center,7.3938122,10.50441383,,,
Igbede Primary Health Center Igbede Bstop Ojo Igbede,3.162761588,6.451578827,,,
PHC Tungan Doruwa,4.477288254,10.62277133,,,
Glory Clinic and Maternity,8.877305629,9.939170217,,,
Phc Gama Giwa,6.451397275,12.40848727,,,
Zetron,8.950727496,9.910398329,,,
Awesome Grace Hospital,3.344998999,6.520875289,,,
General Hospital Iseyin,3.617573126,7.948408618,,,
Omega clinic,8.868726918,9.940842239,,,
Henlong Medical Clinic And Maternity,7.379027863,10.47820622,,,
Ribadu Dispensary,13.16824293,10.64776969,,,
kwakida general hospital,13.55513557,10.83665127,,,
Ladith centre pharmacy,5.619104548,6.329307982,,,
Timkolba Health Post,11.97739024,8.323578162,,,
Am Hospital,3.327820624,6.501837137,,,
Isefun Primary Health Care Center,3.207435791,6.579812474,,,
Redeem Medical Center Annex,3.161692057,6.470938676,,,
PHC Clinic Sabongari,4.849476774,10.13780414,,,
Kukwal Dispensary,11.77638516,10.64840294,,,
GURISON DIVINE,2.795116395,6.352798936,,,
Emmanuel Clinic,7.49527497,6.440959961,,,
gulak secreteriat,13.44814544,10.80022947,,,
Will Of God Medicine & Supermarket,5.15026556,7.29187493,,,
Albarka Clinic,8.840661624,9.972028283,,,
Bogije Primary Health Center,3.307348747,6.470259071,,,
Limad Hospital Ltd,3.254903598,6.642913369,,,
Police Clinic,5.246958776,13.03330828,,,
Mary Anne Med Clinic,3.359791298,6.548815442,,,
Iyagbe Maternity Centre,3.200254847,6.418287835,,,
Guwo Laanti Dispensary,12.53009025,11.6248779,,,
PHC Tilli,3.976823424,12.34224928,,,
GANO MEDICINE STORE,8.471058754,11.95931282,,,
Gubio Maternity and Child Health,12.78433039,12.49173324,,,
Optimum Diagnostics & Clinical Services,9.828023247,10.31971097,,,
Gusau Medical Clinic,6.65795285,12.17427377,,,
Dutsan Amare Health Post,7.990822641,11.82731368,,,
The Lords Chosen Mission Hospital,3.31977802,6.491827469,,,
GANO RAHAMA CHEMIST,8.471794098,11.95966385,,,
Divine Care Neighborhood Clinic And Maternity Satellite Town,3.25203682,6.452954716,,,
Tashan Gurgu Health Post,11.86284868,9.338282224,,,
E.chuks scientific laboratory,8.880365442,9.931453921,,,
Daccom health care,8.871158089,9.937362744,,,
Abrar clinic and maternity,8.878825351,9.958210884,,,
New Life Clinic,6.34882977,4.951772873,,,
"As-salam Medical Centre, Office bus-stop Sasa",3.914402972,7.486229974,,,
Primary health care downbase,8.851478135,9.956570629,,,
Ngohi Kofan Hakimi Medical Dispensary,12.6898707,10.67139283,,,
Fori Health Centre,13.17804942,11.79971954,,,
Heritage Hospital,3.356299062,6.533567838,,,
PHC Gwadami,6.876419445,9.729091058,,,
Kaduna State Polytechnic Clinic Tudun Wada No10 Musabaka Road Kinkinau Kaduna,7.405689021,10.50120164,,,
PHC,7.338773271,9.308535017,,,
Betheland Hospital,3.196450133,6.497168166,,,
Arewa Hospital and Maternity Home,6.665904929,12.17188978,,,
Toluwalope Tradomedical maternity home,3.399974477,6.533982658,,,
PHC Kuchi Woro,5.96828642,9.001781165,,,
Obudu Clinic,9.063341131,6.533141199,,,
Fakai PHC,5.106630881,11.50895819,,,
Damisa Health Post,8.216474454,12.30937697,,,
Gangshaffa Dispensary,12.40210035,10.56022926,,,
Safeway hospital,3.629557655,6.473152169,,,
PHC Takuma,5.233158727,9.333461875,,,
Saint Zeno Hospital,4.169877932,7.638900725,,,
MSF Lassa Fever Treatment Centre,9.833594028,10.32586546,,,
PHC Tawo,6.687885632,9.787363557,,,
Broad Hospital And Maternity,3.266132582,6.549175277,,,
Alhaji Dan ladi Doctor pharmacy,8.902172053,9.929122075,,,
Kayamla Health Clinic,13.22045573,11.68931889,,,
PHC Ung Garji,4.337587996,12.27338684,,,
Rukudawa Phc,6.830174725,12.77086109,,,
Kumshe Clinic,14.20967495,11.35577363,,,
Tofawa Health Post,8.328901592,12.34688213,,,
Toni Care Pharmacy,5.608796568,6.342839223,,,
Cocin Clinic,9.792004533,10.27146373,,,
Health Post Zugwagunli Uding,12.90482653,10.14945607,,,
"Alafia Hospital, Mokola, Ibadan",3.888292924,7.398829942,,,
Double Crown Medical Diagnostic Service,3.27615868,6.621199629,,,
Odus Specialist Clinic,3.345251043,6.520835224,,,
General Hosptal Gwadabawa,5.234491785,13.35022377,,,
Nassarawo Demsa Maternity and Child Health,12.04055844,9.459506085,,,
Kida Primary Health Centre,12.27104334,10.56424076,,,
Aaye Primary Health Clinic,5.179828365,7.340137425,,,
De Fairlane Hospital,3.248216767,6.55342004,,,
God Save Patient Medicine & Provision,5.148282151,7.288653848,,,
Mdgs PHC Gorun Ango,3.64264365,12.1507197,,,
High Court Clinic,13.69195924,11.070903,,,
Mallan Inna Maternity,11.17720146,10.30963944,,,
Ndiagu Amechi Uwani Health Center,7.531526952,6.407997959,,,
Model Health Centre Balbaya,11.73397139,10.61855264,,,
Gwarmai Health Post,8.254828451,11.53319497,,,
Light Hospital,3.299809058,6.606348573,,,
EBIKON Medical Diagnostic LAB kabong,8.869076779,9.928874642,,,
chibok clinic,12.75045987,10.80438128,,,
Maidurmari Primary Health Centre,13.48157163,11.53465442,,,
Shani General Hospital,12.05358752,10.22674904,,,
Dikue Medical Centre,3.172020573,6.464723579,,,
General Hospital Sabon Tasha St Simon Catholic Church,7.528099676,10.42811387,,,
SHONGO HEALTH CLINIC,11.08030515,10.28852157,,,
General Hospital Isa,6.393227537,13.20038166,,,
IDi maternity Clinic,11.18150464,10.29334678,,,
Monguno Isolation Centre,13.60610064,12.68515646,,,
MDG Evungi,5.648950075,9.124944096,,,
Rumirgo Federal Model Health Centre,13.04239318,10.58984378,,,
Oluwadamilare Maternity Home,3.3391719,6.534877594,,,
Gomari Airport Primary Health Centre,13.08452733,11.83024349,,,
Solik Hospital,3.288685937,6.597606584,,,
PHC,6.931493243,9.312586158,,,
Ghumma Dispensary,12.25665497,10.52538443,,,
Msherde Clinic,14.45311953,11.99836,,,
Josh pharmacy,8.865314394,9.89779597,,,
RAHAMA CHEMIST,8.476251427,11.96537319,,,
Galangi Primary Health Centre,12.51411627,11.50907906,,,
Mosol,6.550850232,9.591601945,,,
Deelshaddai Health Canter Home,3.177001436,6.45873496,,,
Barau Dikko Teaching Hospital Kaduna No1and2 PTF Road Hayin Banki Kaduna,7.441343625,10.58456813,,,
Phc Dankurmi,6.08387429,11.58992184,,,
gangkiri,12.28338812,8.75180817,,,
General Hospital Sabon Tasha Firoro Road Uboro Sabon Tasha Kaduna,7.469167521,10.45134633,,,
Amina Hospital And Maternity,7.425951769,10.45513939,,,
Gilead Medicals,4.634419937,9.845985247,,,
sango pataki community health center,3.89338032,7.427300753,,,
Ayolik Medical Center,5.626526975,6.331201957,,,
pastorate Patent Medical Store,8.944102021,9.90771042,,,
Ubulu-okiti,6.447614857,6.235151633,,,
BPS,3.445367093,6.456207398,,,
Dhal Pharmacy,3.871730619,7.458452766,,,
Model Primary Health Care Center,7.07136533,4.830226644,,,
Sheikh ibikunle,3.910458029,7.485875671,,,
Airen Pharmacy,5.627442363,6.319107457,,,
Daverhodes Clinic And Maternity Home,3.268024881,6.598635043,,,
Madinat Specialist Hospital,7.458127548,10.57186485,,,
Kudiye Dispensary,13.99127197,11.97247308,,,
primary health care,10.57060036,11.07079219,,,
PHC Gupa,6.729860862,8.440016962,,,
Igbologun Medical Centre,3.332555477,6.420623369,,,
Omosola Hospital,3.297059793,6.61702737,,,
Kuros Kauwa Family Support Clinic,13.67460443,12.94934869,,,
Rimaye Health Post,8.201159544,12.26657989,,,
General Hospital Gamawa,10.53169508,12.1391779,,,
Anas Medical,5.253920366,13.04338744,,,
Zaitun Clinic,7.39576753,10.52011825,,,
Sacred Heart Catholic Hospital,9.066280832,6.53252295,,,
Nanel medical laboratory,8.894894969,9.907838579,,,
Royal end pharmancy,5.630367395,6.326750244,,,
El-laz,8.88522133,9.925005723,,,
Primary Health Center Ese Ofin Riverine,3.146526177,6.443888934,,,
tito asibiti,11.73106957,9.553985892,,,
Yelwa Sarman Dispensary,10.67120155,11.47731659,,,
Victory Success Maternity Home,3.245601697,6.585612499,,,
Maiwa Health Centre,13.2389934,12.32445056,,,
Kuda Dispensary,13.15864464,12.49213808,,,
Miam pharmacy,8.879059542,9.931346716,,,
The Islamic Natural Medical Clinic,5.780536483,5.566982354,,,
Lupanga Health Post,11.99133772,9.286854135,,,
Primary Health Care Isa Kaita Raid Malali,7.464898785,10.5491939,,,
Madinatu Camp IDP Camp,13.18061772,11.87730168,,,
PHC Kuna,7.075691481,9.650759071,,,
Yale Clinic,13.70732486,11.70750435,,,
Adebayo,4.314286221,7.905116675,,,
Tungushe Primary Health Centre,13.07160327,12.03626355,,,
Ajigin Mairi Dispensary,12.27931276,11.16907026,,,
Mainasara Primary Health Care Clinic And Maternity,6.085289826,9.429881757,,,
Spring Oak Pharmacy,5.598339221,6.311778824,,,
Falola Clinic Medical,3.136395473,6.524270295,,,
Royal Clinic & Maternity,4.736899097,10.82744827,,,
Emly Pharmacy,7.534882983,6.458411587,,,
Polytechnic Clinic,6.58541586,12.63742463,,,
Gamji Phc,5.889835998,12.65656177,,,
Gowon Guinea Worm Clinic,12.61416769,11.37385105,,,
Kuelu Primary Health Care,4.482624761,7.841494593,,,
Trinity Specialist Clinic,5.780539417,5.560425275,,,
Rapha Specialist Children Clinic,5.75665795,5.541864221,,,
PHC Zugurma,4.966364342,9.45976517,,,
Mariri Primary Health Centre,8.609116578,11.94987739,,,
Kashimiri Primary Health Care,13.95786783,11.60637359,,,
Hon C O Ojelabi Health Center Igbo Elerin,3.188253219,6.482182748,,,
Fulatan Primary Health Centre,7.858888048,11.40062092,,,
Gwamna Awan General Hospital Primary Health Care Kakau,7.395241817,10.37575229,,,
Muna Mallam Kori Refugee Site,13.25026806,11.86597546,,,
Yelwa Primary Health Care,7.420618196,10.43529674,,,
Sabon Layin Kara Health Post,7.93262759,11.82491512,,,
Sefa Specialist Hospital,7.422616442,10.53704559,,,
Prestige Medical Clinic 6a Aina Obembe Street Ipaja,3.254257018,6.601206276,,,
"Origbegi Satisfaction maternity hospital, Ayeye",3.89332282,7.382750099,,,
Fountain Of Grace Hospital,3.350277419,6.537407755,,,
Baga Health Clinic,13.8217163,13.09472659,,,
General Hospital Ikono,7.713093057,5.282263939,,,
Cornell Health Laboratory Service,3.258977119,6.528763163,,,
PHC,5.321670283,9.023040186,,,
PHC Kusogi,5.207876895,9.111773696,,,
Mbulo primary heath center,11.90134768,8.654887469,,,
Joas Medical Diagnostics,3.272528226,6.54582964,,,
Guburnde Dispensary,11.77270508,10.33587647,,,
Unguwan Shanu Primary Health Center,7.438082059,10.54702106,,,
"Aromokeye pharmacy, Oko Erin, Nigeria",4.562464987,8.478287559,,,
PHC Dankogi,5.349490323,9.16412019,,,
PHC Ezhi,5.210676451,9.344067749,,,
Jamco Herbal Care Ltd.,8.912562679,9.928176597,,,
Regina Mundi Catholic Hospital,3.35555609,6.527286858,,,
Unguwar Turaki Health Post,8.230910858,11.82029426,,,
General Hospital Baro Dikko No18 Kaduna Road By Dan Asabe Road Nasarawa Kaduna,7.39733394,10.46827869,,,
PHC,6.422234287,8.829464659,,,
Shalom Medical Centre,4.24682548,8.143099693,,,
Cornemed Pharmacy and Stores,7.437373118,8.970217433,,,
Barau Dikko Teaching Hospital Dan Honu 2 New Millennium City,7.505166789,10.53617798,,,
Bulungu Health Clinic,13.79388427,11.43371577,,,
Fafty Clinic,3.363447149,6.538961341,,,
Famoseg Medical & Diagnostic Service Limited,8.913180593,9.918277569,,,
"Loroh Dispensary,",11.80135585,10.33465615,,,
Goniri Health Clinic,13.67197653,11.50491275,,,
Skylark Pharmacy,7.466706175,9.059618728,,,
PHC,5.5920279,9.542599495,,,
kofur heath center,13.49566999,10.75966424,,,
Ckc Hospital,3.307894577,6.59981136,,,
Gamadadi Comprehensive Health Clinic,11.55471684,10.32151375,,,
AKOL Pharmacy,4.552627985,7.777201121,,,
Maryaam Abacha Hospital,5.232319866,13.06277973,,,
Primary health care Kc3 Zuba Road Shooting Range Kabala,7.449234684,10.50461165,,,
Goshen Medical Center Furaka,8.915552839,9.90818953,,,
Dumun Dispensary,9.900486141,10.50218047,,,
The Tent Wellness Centre,3.372259463,6.5657924,,,
University of Nigeria teaching hospital,7.461623137,6.298721495,,,
Dr. Harcourt -Whyte,6.780478589,4.721857437,,,
Mandaragirau Health Centre,12.33137762,10.69331913,,,
Immaculate Maternity,3.89761578,7.376517819,,,
Life Line Medicare Clinic,5.626747671,6.331466657,,,
Health Centre Tugwama,6.286360284,10.33293158,,,
B.B Omoniyi Patent Medicine Store,3.887957983,7.382450781,,,
Alhayat Hospital 2ekuweme Street Off Ogo Oluwa Street By Green And White Bus Stop,3.151241416,6.473009425,,,
Pfemex pharmacy,8.887006173,9.923660595,,,
Kwamarawa Health Post,8.389795532,12.33023215,,,
Godiya Hospital,5.233023946,13.05965026,,,
Eldunamis Medical Center,3.22430018,6.542368165,,,
Balogun Primary Healthcare Center.,3.228330367,6.590625297,,,
Primary Health Care,6.79867109,11.84542245,,,
Bingham university teaching hospitals,8.877795132,9.931092829,,,
Primary Health Building Dadiluwi Ilaje Riverine,3.029230494,6.404255691,,,
Nguma Dispensary,12.35970787,10.73088808,,,
Gwalam Dispensary,12.33990478,10.46667473,,,
Sabon Gari Dispensary 2,11.61445224,10.55148057,,,
"Crescent Gc Hospital, Olufunmilayo Street, Tanke, Ilorin, Kwara, Nigeria",4.61005978,8.482751677,,,
Gidan Dare Clinic,5.20923007,13.0536603,,,
General Hospital Talata Mafara,6.059555874,12.56394702,,,
"St Mary's Catholic Hospital, Eleta, Academy, Ibadan",3.910764387,7.355297941,,,
Holy Rosary Medical Center,3.285003264,6.467138237,,,
Viva Healthfoo Shop & Dietetic Clinic,7.494976993,6.418406942,,,
Kagoro Road Primary Health Care,7.40182664,10.51240723,,,
Pearl Medical Diagnostics & Laboratory,8.88557622,9.924422175,,,
Budam Dispensary,11.9598242,10.32146916,,,
Al- Salam Hospital,6.668900957,12.15768129,,,
Al Fijir Clinics,7.386664029,10.50175543,,,
General Hospital Gada,5.64766756,13.75828616,,,
Mane Sol Pharmacy,7.42048878,9.014785521,,,
Dunamis House Medical Center,3.261967196,6.455723259,,,
"Aromokeye Pharmacy, Muritala Muhamed Way, Oko Erin, Nigeria",4.564199957,8.490399996,,,
Alkamu Dispensary,5.372184996,13.14270679,,,
Rauf Aregbesola Flagship Pry Healthcare Center,3.282661695,6.594758245,,,
PHC Madangyan,5.304840763,10.32935594,,,
Primary Health Centre Chibok,12.8538908,10.86640677,,,
Union diagnostics,8.893937085,9.905500364,,,
Egan Primary Health Care Center,3.235959072,6.550374056,,,
Summy Indeel Laboratary,3.131360967,6.458484425,,,
Kolaku Maternity Centre,11.77789306,10.03833006,,,
Marmara Primary Health Centre,7.769082326,8.610772339,,,
Ehibass Pharmacy Store,5.618776732,6.339769854,,,
Dans Medical Hospital,3.334731754,6.512498583,,,
UNN Medical Center,7.413148328,6.86043767,,,
Ruwan Bago Health Post,7.75745319,11.40718344,,,
Garba Lawal Primary Health Center,7.412197317,10.50523006,,,
Emergency,9.829213478,10.32333975,,,
Maternity Center,4.136415531,7.832528974,,,
Gonin Gora Primary Health Center,7.401865532,10.43120545,,,
Bumou Health Clinic,13.69316883,12.89490789,,,
As Salam Patent Medicine Store,3.909354384,7.481497887,,,
Ngungwaling Health Post,12.21203348,9.508904496,,,
Ndufu MCH Clinic,14.27956468,12.22439327,,,
Makal Medical Center,3.294122775,6.457723516,,,
Kangarwa Health Clinic,13.50270953,13.30868188,,,
Eclochi Clinic,5.759333621,5.532475651,,,
Alex Pharmacy,7.526470737,6.457974219,,,
General Hospital Gummi,5.123119761,12.14106617,,,
Primary Health Center Maker,7.41351973,10.46840526,,,
Maraku Health Post,8.128890775,11.67714015,,,
"Primary Health Centre, Toru-Ebeni",6.076103344,4.980096833,,,
Priesnhood Pharmacy and Stores,8.912970543,9.926319586,,,
Mecure Health Care,3.346672697,6.5530737,,,
General Hospital Kaduna Keke B Main Township Road,7.493654748,10.55648993,,,
EYN Dispensary,12.00708003,10.28070067,,,
Samas Hospital And Maternity,3.247261817,6.584318753,,,
PHC,5.821124424,9.139319898,,,
Megacare+ Pharmacy,3.501893139,6.615296339,,,
Sethfone Hospital And Maternity Home,3.288063664,6.653967087,,,
Karari Health Post,8.174450777,12.24283866,,,
Usman Aisha Hospital,6.018823345,9.095549768,,,
Bukz Clinical Diagnostic Center,3.228344281,6.541795933,,,
Mobile Ambulance Center,5.246247656,13.05088706,,,
Nassarawa Maternity,4.200870354,12.45856697,,,
Standard dental design,4.031156261,7.448441253,,,
Oluyole Private Hospital,3.855747922,7.366357946,,,
Gurawa Health Post,7.888228984,11.76764116,,,
Jag-Bon Medical Center,3.367094953,6.520312947,,,
Fajaldu Comprehensive Health Centre,5.380159874,12.84210115,,,
Belan Consultant Home,3.341573734,6.514368921,,,
Eti-Osa,3.585217722,6.462777636,,,
Pharmacy,3.58505922,6.467436633,,,
Genesis Health Center,3.189558197,6.453572462,,,
Macfin Medical Clinic,3.292934556,6.458320559,,,
Yimirali Health Clinic,12.99476896,10.61161888,,,
Kuburivu Dispensary,13.02448993,10.92633763,,,
Khadijah Women Children Welfare Clinic,6.588769962,12.60748505,,,
PHC,6.989636828,9.991505144,,,
BHC Kadna,6.598036994,9.563593229,,,
Gubio Dispensary,12.78520118,12.50183686,,,
Hexo pharmacy,8.889407337,9.920839582,,,
Malari Dispensary,13.34527937,11.69485497,,,
Careway Hospital And Maternity,3.289845992,6.592557493,,,
God's and Glory Pharmacy Ltd,7.517509561,6.458239758,,,
Noro pharmacy,8.882012151,9.909458047,,,
UBA General Hospital,13.19009136,10.47572258,,,
Yelwa Maibene Health Clinic,7.409348895,10.53886765,,,
Hope In God Faith Clinic and Maternity Home,3.209531267,6.577243169,,,
Gawa Clinic,13.3139852,11.88526289,,,
ABDULFATAH PHARMACY,8.46885775,11.95601613,,,
Ginga Clinic,4.074945922,12.04102824,,,
Primary Haelth Care No1 River Line Road Kabala Coastin,7.440141996,10.50133876,,,
Amen Health Center,3.280934353,6.634158722,,,
General hospiat,6.54421428,9.612093184,,,
PHC Ashiriwe,6.621513029,9.908028681,,,
PHC Dumbegu,4.331314225,12.29015358,,,
Kauna hospital,8.888798391,9.920709746,,,
Surulere Primary Health Care Center,3.260117729,6.65426146,,,
Realcare Hospitals,3.25981598,6.629885293,,,
Phc Zugu,5.334392085,11.86058774,,,
Bonne Fante Hospital,3.229041655,6.459080043,,,
Adacon pharmacy,8.889914442,9.913580183,,,
Birnin Mallam Mdg Phc,6.544337158,12.26729244,,,
Julsam Pharmacy,5.619229522,6.349021129,,,
Kasgada PHC,5.201880147,13.27971553,,,
PHC,5.671055333,9.512161788,,,
Mayome Health Center,12.23078062,9.22627854,,,
Saint Gerad Hospital Kakuri Noaa 26 Makera Road Nasarawa Kaduna,7.396950384,10.47802953,,,
Akinsayosikenu Hospital,3.259754289,6.603486992,,,
Kainiki Community Health Centre,4.088274153,11.9102175,,,
Jeki Health Post,12.00310483,10.07168945,,,
Kala Health Clinic,14.46403034,12.08016285,,,
JKG5 Medical Center,8.907786922,9.934550364,,,
PHC,4.517619122,12.65961588,,,
Irede Primary Health Centre,3.233809281,6.426645179,,,
Slon,3.313128488,6.539880333,,,
Karaye Hospital,5.237031837,13.05239815,,,
Lamba Health Post,8.148073263,12.34000746,,,
Adesak tradomedical Centre,3.39961548,6.527096254,,,
Agbongbon Health Center,3.89949869,7.367314657,,,
Island Clinic,5.758031995,5.535561533,,,
Dr Sodiq hospital Moniya Olosooko,3.892512877,7.563723938,,,
Sabsuwwa Lawanti Clinic,13.13944438,12.55388002,,,
bamako clinic kwaboon,13.07822028,10.04713835,,,
Pharmacy,3.483836675,6.62677326,,,
Jauro Gotel Primary Health Centre,11.75031769,10.09958367,,,
Aboru Primary Health Centre,3.282126595,6.624483491,,,
PHC,7.103851994,9.502717394,,,
Dalal Health Post,7.949128875,11.83514213,,,
kopa basic heath clinic,13.3383705,10.7379666,,,
Amadiya Muslim Hospital,4.517674024,9.875447385,,,
Hoyo Health Clinic,12.94998865,12.00033863,,,
"Ero Omo Hospital, Kilanko Road, Ilorin, Nigeria",4.585472976,8.452881926,,,
Redeemed Medical Center,3.181697984,6.46655184,,,
New Day Clinic and Maternity,7.062588639,4.850403645,,,
Kogo Primary Health Centre,8.171951126,11.62300245,,,
Maternity and Child Health Monguno,13.61612766,12.67065158,,,
Kanoma Phc,6.307163497,12.24361499,,,
Horo Birni Model Primary Health Centre,5.157005449,12.71691122,,,
Clinic,7.229656984,9.573313219,,,
PHC Magalajido Salka,4.961772819,10.31945934,,,
Anguan Kampani,6.576266258,9.590087922,,,
Al Qidan Patent Medicine Store,3.911063957,7.480963289,,,
Pharmacy,3.502883377,6.617068776,,,
lafiya primary heath care,11.81543753,9.64566455,,,
Pilak Health Post Kombo Shani,11.83182516,10.06363905,,,
PHC Zago,6.419711669,8.699055489,,,
PHC Sesita,6.745461931,9.406522399,,,
Yimirmbula Dispensary,12.77266085,10.92263845,,,
Maikaho Primary Health Clinic,11.692688,10.09869376,,,
Viandra Eyes Clinic,6.34901325,4.953817052,,,
Dot center,13.22375845,9.663261686,,,
Giwa Hospital,7.433136066,10.54308944,,,
manjekin A primary heath center,13.13077448,10.04011256,,,
Edit Pharmacy,7.532085858,6.457766599,,,
Primary Health Care Bosso Senior Secondry School A,6.517550524,9.653768174,,,
Ben Cee Divine Medical,7.483366129,8.961999647,,,
Dezubik,6.721920853,6.194668717,,,
Fori Primary School IDP Camp,13.17693932,11.7996151,,,
Ministry Of Health and Human Service Kaduna State Kaduna,7.438926955,10.52239938,,,
"Gbemisola Memorial hospital, Boluwaji Area, Ibadan",3.905347918,7.337546998,,,
Kokai Health Post,8.022147322,12.21878972,,,
Cavesbury Private Hospital,3.257558817,6.657991239,,,
Yajiwa Camp Kusheri Refugee Site,13.13061472,11.78870739,,,
Mdg Hospital,4.690934081,13.06830633,,,
PHC Azeido,7.072474172,9.52019777,,,
Vineyard Convalescent Hospital,3.140516687,6.459373242,,,
Luna Union Hospital,8.907527251,9.93263644,,,
Purpose Of God Clinic and Maternity,3.246080388,6.568295487,,,
Tandari Fsp,13.69494588,11.52834126,,,
"Primary Oral Health Centre, Idikan (UCH Annex)",3.891130953,7.383339095,,,
Mountain Of Fire Hospital,3.329100121,6.508514161,,,
Denow Ayetoro Medical Center,3.153970648,6.48844755,,,
Angelic Care Foundation Maternity,3.14153182,6.493719683,,,
PHC Rara,5.614911417,12.98738769,,,
Rural Hospital Kuta,6.71353962,9.856513588,,,
King Fahad Hospital,6.694340368,12.15353702,,,
Yoyo Health Clinic,13.63906449,12.71382467,,,
LA Med Pharmacy,8.878388654,9.89024245,,,
St Claire Specialist Clinic,3.359658864,6.515724777,,,
Unguwar Shanu PHC,7.437862118,10.54660448,,,
Salahu Primary Health Centre,11.94146096,10.56066646,,,
St David Med Center,3.221181441,6.456224329,,,
Ebenezer Specialist Clinic and Maternity,3.354858799,6.539001239,,,
Wellness Hospital,7.080345785,4.825862019,,,
Bagado Dispensary Clinic,7.492831226,10.47178132,,,
Akol Pharmacy,4.251478442,8.151323598,,,
Messiah Medical Centre,8.860695043,9.948392155,,,
Old Jos university teaching hospital,8.891242973,9.916371524,,,
Barau Dikko Teaching Hospital Gwari Road Mando,7.41850998,10.58521932,,,
General Hospital Makera Kakuri Kaduna No12 Ligari Road Kadunadan Kaduna,7.371718844,10.47554765,,,
Ngwalimiri Dispensary,13.08765805,11.2948755,,,
Dalaram Clinic,13.16931145,11.86749267,,,
Iya Fatia (Iya Ibiye) Alagbo,3.913733928,7.482000466,,,
Nasi Pharmacy,5.62530087,6.326262334,,,
Wuyo Health Centre,11.69581629,10.38389045,,,
Miye Dispensary,13.24913206,12.22535644,,,
Aibeth Centre,8.94360665,9.906600153,,,
Beulah Ultrasound Scan Centre,7.376634327,9.143153362,,,
Musaka Beto Specialist Hospital,7.411966731,10.54256725,,,
Primary Health Care Centre Samalu,5.020888622,13.10170545,,,
Cele Apata Community Health Center,3.214540962,6.575322624,,,
Hanacy Stores and Pharmacy,7.513424221,6.459700053,,,
Zuman Pharmacy,7.433519454,10.50773726,,,
Comprehensive Health Centre,12.61688226,13.26171875,,,
Siya Medical Center,7.033681718,4.836613738,,,
Taimako Hospital And Maternity,6.551129182,9.618230581,,,
Nkurvu Dispensary,13.14940586,10.84383917,,,
Moland Jones Pharmacy,8.952021243,9.910315264,,,
Dan Gayaki Health Post,7.903103929,11.72530894,,,
Yanoko Primary Health Centre,7.918082222,11.45589487,,,
Dalila Pharmacy,7.527117485,6.457866931,,,
Dimkuna Health Post,11.96551065,8.399525832,,,
PHC Saint John's,4.401550886,10.62630959,,,
G. 9 First Healthcare Clinic,8.91556206,9.925273776,,,
Neb's Clinic and Health Care Service,3.295779039,6.468350847,,,
Kiramisau Health Post,10.14086194,12.55087016,,,
Recall Life Pharmacy,5.627052688,6.367479756,,,
G. Medical,8.914428994,9.920377068,,,
Edmark pharmacy,8.89061475,9.897981796,,,
Niger Optical Eye Clinic,7.047963056,4.847378281,,,
PHC Gami,6.703441019,9.316187192,,,
Kaleku Health Post,7.883483989,11.62495853,,,
Agbaju Primary Health Center,3.24545602,6.453116068,,,
Makuwana Dispensary,6.246761742,13.57111785,,,
Iceme Central Pharmacy,8.951863244,9.909882171,,,
Leho Dispensary,12.84550026,10.70411318,,,
Gora Dispensary,11.91276685,10.0462689,,,
DICON Staff clinic,7.420472519,10.48773728,,,
PHC Tudun Wada,6.901185622,9.366368724,,,
"Primary Health Care, Kilgori",5.016672273,12.82810924,,,
Gomboru Health Clinic,14.21069335,12.37030025,,,
Rasmah Maternity And Clinic,7.403680046,10.53031852,,,
Aishat Specialist Hospital Limited,3.351263298,6.5192031,,,
Anikantamo Health Post,3.394401266,6.457864919,,,
Hajia Asama'u Ahmad Makarfi Health Center Barnawa,7.42966797,10.48143459,,,
Bulonguwa Dispensary,13.96162007,12.01966193,,,
suwa primary heath center,11.60711807,9.533744266,,,
Primary Health Care Centre,6.507223432,11.78532814,,,
dashen heath post,12.1335176,8.57709687,,,
Obelle Health Center,6.808791568,5.035190747,,,
Favor chemist store,3.234419568,6.52260984,,,
Allahu Sammad Patent Medicine,3.891581396,7.381132392,,,
Dr Karima Wcwc,6.678342835,12.16841599,,,
Ibru Medical Center,6.062463389,5.532590819,,,
Burashika Health Post,11.92122478,10.14132462,,,
Kauthar Pharmacy and Store,8.951900795,9.9102783,,,
Izzige Dispensary,13.30189614,10.98315017,,,
Chibira Health Post,11.8103027,10.37512205,,,
Iyayi Dispensary,9.25007996,11.30819996,,,
Mdgs PHC Rijiyar Maikabi,3.80642872,11.79736129,,,
New Bethel Hospital,6.516413351,9.647626838,,,
Fufore Cottage Hospital,12.66286479,9.2174876,,,
Islamic Medical Foundation Musawa Road Zango,7.405658176,10.50509956,,,
Delli Dispensary,13.21789548,10.74829092,,,
JJC,5.783040577,5.553260424,,,
Jarawa Dispensary,14.39871495,11.96051026,,,
"Bolajoko Hospital(Badejoko Hospital) Mokola road, after GTBank",3.892191934,7.411569932,,,
Primary Health Care Romon Sarki,4.601565559,12.22940699,,,
Daksiri Center,12.9269965,10.14189308,,,
Primary Health Care Tudun Wada Road Rido,7.508341183,10.39915758,,,
Pink Clinic Nigeria,3.386916059,6.576025698,,,
Rivet,3.310213095,6.541132673,,,
Liberty Hospital,7.179161718,9.188441036,,,
Kirigi Health Clinic,4.757294363,11.49215985,,,
Shiwa Kalaa Health Clinic,13.04582666,10.26049433,,,
BHC Kafanin Waya,5.629348491,10.31027445,,,
Phc Kanoma,6.307169532,12.24412863,,,
B. U Clinic,5.762027062,5.538042576,,,
University of Maiduguri Teaching Hospital,13.18267153,11.82517337,,,
Artemis Hospital,7.057945148,5.493196293,,,
Health Clinic Dikko Dabban,5.739424338,9.267024144,,,
"Federeal Neuro-Psychiatric Hospital, Barnawa",7.429447358,10.4634938,,,
Mdg Saminaka,4.64270922,11.18205676,,,
Dispensary Kurngulung,11.80587345,10.23948442,,,
Nahuta Dispensary,11.94326759,10.31639425,,,
371 Nigerian Air Force Medical Center,5.714035637,5.583329664,,,
Koburut Dispensary,11.7359009,10.21032705,,,
PHC Shagwa,4.7024825,10.10332895,,,
Sangotedo Primary Health Care Center,3.632504229,6.472260586,,,
Alexander Memorial Hospital Olugbemi Agric,3.220091123,6.458503033,,,
Durmawa Health Post,8.258327728,11.60517498,,,
Loyola Medical Center,5.778346795,5.555394876,,,
Rhowil Total Care Medical Center,3.262547139,6.453203994,,,
Kanwa Primary Health Center,6.574740668,12.69675366,,,
Primary Health Care Center,8.914745075,9.936094562,,,
Dominic Pharmacy,7.523481918,6.458843087,,,
Al Mansur Specialist Hospital,7.459856232,10.55101596,,,
Lafiya Clinic,5.214528019,13.04538635,,,
Bethlem Hospital,3.339194699,6.518085121,,,
Model PHC Balkore,5.231994648,13.29989513,,,
Micki-Mike Medicine store,8.903341161,9.923369575,,,
"One Step Pharm Ltd, Ilorin, Nigeria",4.53175604,8.470326846,,,
BHC Dije Bala,7.179494228,9.1746777,,,
Gadai Dispensary,12.94449515,12.40134564,,,
Hefamaa Laboratory,3.214318926,6.527686591,,,
MHC Lapai,6.569545229,9.038737899,,,
PHC Luwi,7.19021376,9.832723819,,,
PHC Rumbukawa,5.225093325,13.06616392,,,
Jerusaves pharmacy & Lab,7.458667594,10.45005048,,,
Akalawa Mdg,4.306723733,12.17264357,,,
Bethel Medical Clinic,7.501110954,6.447610918,,,
Yusuf Dantsoho,7.416254242,10.52019997,,,
Melody Pharmacy,7.521357189,6.458721885,,,
Primary Health Centre Silame,4.846769084,13.03348263,,,
Ndieze Homeopathic Medical Services 20 Drchiwumba Off Summit Light Road,3.206787367,6.500451357,,,
Darlington Pharmacy,7.531359566,6.459120696,,,
Safehands Medical Centre,3.300014247,6.458541758,,,
Buratai. Health Centre,12.08489032,10.90479765,,,
PHC,6.15295123,8.991337985,,,
MRS Hospital,3.227679093,6.469640738,,,
Kabala West Primary Health Center,7.393777331,10.50443227,,,
Pharmacy,3.388088351,6.490097863,,,
gadamahol general hospital,13.63115515,10.88876106,,,
Mt Horeb Specialist Hospital,7.440682461,10.50385074,,,
PHC Shengel,5.53431045,11.54943473,,,
"Mummy Segun pharmacy, Sagbe Ibadan",3.91645,7.502806948,,,
Unguwan Makama Clinic,7.399010321,10.45062758,,,
Okerube pharmacy,3.235784645,6.528052462,,,
Alimosho General Hospital,3.25115915,6.561347476,,,
PHC,5.5376814,9.555678869,,,
Al-Ameen Medical Diagnostics Center,9.829729887,10.31846735,,,
Festac Primary Health Centre,3.283769448,6.469454241,,,
Mushin General Hospital,3.346251423,6.531525252,,,
"Ola Olu Hospital, Murtala Mohammed Way, Oko Erin, Nigeria",4.568635492,8.469890568,,,
PHC Magami,6.548763474,10.04151066,,,
Phc Rikkina,5.291993317,12.97754725,,,
Federal Medical Centre Abuja,7.407601436,9.014977634,,,
PHC Ola Sisters,5.406095159,10.68658008,,,
PHC,7.091414591,9.917156071,,,
JK pharmacy tudun wada jos,8.866643596,9.901486522,,,
Nestle Nig Plc Staff Clinic,3.087477345,6.501101625,,,
Hybrid Medical Diagotics,6.326152447,4.942862994,,,
Cherith Hospital,3.306066651,6.469960592,,,
Health Point Diagnostic,3.265732933,6.546487871,,,
Outreach Specialist Hospital,3.256494064,6.450987148,,,
Sara's Hospital,9.898827698,11.66683435,,,
Cb2 Musawa By Faki Road Tudun Wada,7.406704237,10.51210926,,,
PHC Maya Tafukka,4.345763621,11.72075296,,,
Olabaji Clinic,3.129311759,6.540664041,,,
Koron Tsohuwa Primary Health Care,7.439294418,10.46676995,,,
Nasarawa Phc,6.783312845,12.79247885,,,
Reference health,7.572845796,8.828975994,,,
Okerube Health Centre,3.23878612,6.528416739,,,
Talala Dispensary,12.31488036,11.22088617,,,
Fikayel Dispensary,11.6212223,10.55790043,,,
Bokko Dispensary,13.69101116,11.07773819,,,
Damaya Health Facility,11.55917358,12.82783246,,,
Jibril Birnin Gwari General Hospital Pmp 27187 Zahid Road Opposite Shagari Road,7.428627273,10.46339514,,,
Okoko Central Hospital Jakande New Site,3.180044318,6.467569989,,,
Afriglobal Medicare,3.248163123,6.555874261,,,
Kadafa Health Post,7.941186938,11.79884849,,,
OPD 1,5.245998294,13.05068942,,,
PHC Illo,3.704725054,11.55233077,,,
Health Center Akinogun,3.284576793,6.609489859,,,
Orion Clinic,3.259294961,6.434597175,,,
Moris Pharmacy,3.889803762,7.359332654,,,
Model Primary Health Centre,12.26355042,11.76177818,,,
Binduldul Health Clinic,12.63564699,12.7983622,,,
Fountain of Life Hospital,6.321046443,4.936226538,,,
BES Clinic,7.033091381,4.838175789,,,
Moniya private clinic(His Favour Hospital) Moniya,3.908551984,7.532174957,,,
Bulabulin Ngaburawa Dispensary,12.90738637,11.38769736,,,
Rimi Clinic,7.443197032,10.50078757,,,
Genaral Hopital Nasarawa,5.742619938,12.04357995,,,
Amasad Clinic,9.829906996,10.30128972,,,
Baze University Hospital,7.403381651,9.00841167,,,
Sage Clinic,5.749511874,5.531302771,,,
Primary Health care centre,8.894755661,9.914252998,,,
Wadata pharmacy,8.889633061,9.91475323,,,
Oki Primary Health,3.295916418,6.615352749,,,
Dangora Primary Health Centre,8.157280784,11.53608664,,,
General Hospital Maradh,6.193263491,12.55411572,,,
Primary Health Centre Clinic,11.97167965,10.02868643,,,
Dove Hospital,3.256064827,6.565834644,,,
Sagondare Health Post,7.954741817,11.48004238,,,
GSU old Clinic,11.17466585,10.30676755,,,
Betterlife Hospital,3.236736996,6.534138058,,,
PHC,5.784422417,8.885318057,,,
PHC,5.439098065,9.46352504,,,
Omo Medical Health Center,3.363779743,6.538806779,,,
Igando Diagnostic Center,3.24374016,6.551785317,,,
PHC Yoko Mdg,5.090997877,11.38032724,,,
Mch Town Clinic,6.40285935,12.33188028,,,
"Yalwan Soba, Primary Health Centre",7.906908055,8.773589887,,,
None,3.430756681,6.605523291,,,
Babban Saura Primary Health Center,7.463112434,10.48478937,,,
Alhameed Conval Hospital,3.354850166,6.525535292,,,
gang abdu primary heath clinic,12.13828087,8.614818284,,,
Atla Medical Centre,13.14227286,11.79827877,,,
Zamani Maternity Home Clinic,6.441355755,9.486199094,,,
Cocin Rural Health Programme,13.81469729,13.09490966,,,
PHC Bakuwai,4.073607583,11.97106768,,,
Yajiwa Health Clinic,12.72332145,11.38854796,,,
Uvu Health Centre,13.12908938,10.49792473,,,
Mieye Clinic,6.338312577,4.949764569,,,
Akingbade Health Bay,4.521630869,7.505206938,,,
Christ Apostolic Maternity Center,3.236960877,6.560821177,,,
Bossom Hospital And Maternity,3.187285025,6.483547238,,,
Federal Neuro Psychatric Hospital Oshodi,3.348650743,6.548286543,,,
Tampul Dispensary,13.22226748,10.57833015,,,
Better life Hospital,3.237054587,6.529011938,,,
Chuckstar Pharmacy,7.53018283,6.458205057,,,
Rigange primary heath center,11.76104829,9.574156858,,,
Moyo Medical Center,3.251950318,6.583431528,,,
Wanori Primary Health Clinic,13.30108637,11.74591057,,,
Model Primary Health Center Rahama,8.759555731,10.45297216,,,
Ungwan Muazu Primary Health Center,7.392956575,10.49798935,,,
Ajegunle Primary Health care Centre,3.431090868,6.607272175,,,
Bosycare.,3.410125381,6.60523026,,,
"Michael Bella Memorial Hospital, General Gas-Akobo",3.939256991,7.42771792,,,
Maternit,2.753711218,6.561212947,,,
"Cureland Medical Centre, Moniya Road, Akingbile",3.915064974,7.522636938,,,
PHC Bodo,6.877812349,9.850633431,,,
Dan Giwa Hospital Marabar Rido No1 Umar Faruk By Yakowa Express Kamazo Gra,7.486254533,10.45651352,,,
"Midland Fertility Centre Ilorin Kwara State, Kano Road, Oko Erin, Nigeria",4.512110452,8.477355826,,,
Alhazawa Health Post,8.167286932,11.70937729,,,
Kombo Dispensary,11.82275628,10.05850706,,,
Royal Jubille Hospital,3.245459456,6.53769559,,,
Alvine Pharmacy,7.522182974,6.456708132,,,
Chul Primary Health Centre,13.13171384,10.61608886,,,
Victory Clinic,7.500097665,6.436358967,,,
PHC Kpautagi,5.213989147,9.361067673,,,
General Hospital Kagarko,7.688932891,9.493458744,,,
Kubuku Dispensary,11.92911936,10.42474183,,,
Biu Maternity Hospital,12.19034028,10.62028652,,,
Tatsan Health Post,8.092819087,12.28855967,,,
Bangwu Maternal And Child Health Clinic,6.319170321,9.538802745,,,
PHC Wuna Dzukodan,6.349803998,8.848406754,,,
Pioneer Medical Clinic,3.171891827,6.495593122,,,
Yako Primary Health Centre,8.192915188,11.65571626,,,
Theck Maternity Home,7.427562436,10.44627393,,,
PHC Matsinkai,4.378583884,11.43349709,,,
Christ the king Hospital,7.487083587,6.478418938,,,
dispensary wuro bamadi,13.10740313,9.573557133,,,
kaya primary heath post,13.42122435,10.81692186,,,
Aibinu Traditional Orthopaedic Healing Centre,3.89311847,7.384515998,,,
Pela Dispensary,12.32351213,10.5453337,,,
Phc Waramu,5.825076659,12.13477539,,,
Odugbe Hosipal,3.091709871,6.617403046,,,
"Usmanu Danfodio University, Sokoto",5.20508262,13.12931427,,,
Asibitinyara Health Center,7.41093802,10.5044798,,,
OPD 2,5.246027379,13.05086158,,,
Zaman Clinic,13.14491768,11.85373437,,,
Ikolaba Hospital,3.919217956,7.410706931,,,
General Hospital (Specialist),9.841302026,10.33363742,,,
Turban Gida Health Facility,11.67848704,12.46770886,,,
PHC Lani,4.420417125,11.56815655,,,
"Lagelu Youth Friendly Health Centre, Agugu",3.926835262,7.383749138,,,
Shasha Medical Centre,3.306116272,6.586979336,,,
Bolus Coudlescent Center,3.186786134,6.483592584,,,
Zangon Mata Health Post,8.413565855,12.23343919,,,
Noble Clinic,3.243274127,6.536922778,,,
Kalage Dispensary,6.287996431,13.64387419,,,
Mazan Gudu Health Post,8.907214438,12.19538015,,,
Arboko Health Clinic,13.8564121,11.14582154,,,
May Hospital Ilupeju,3.359447975,6.548338595,,,
Kumaga Health Clinic,14.62035057,12.13561559,,,
gangsifa primary heath,11.92749763,8.685010437,,,
"Metropolitan Specialist Hospital and Maternity Home, Beside Concord School, MKO Abiola Road, Oluyole, Ibadan",3.861980957,7.365061182,,,
Jos city Medical Diagnostic Laboratory,8.913747797,9.921244847,,,
MUBARAKUN MEDICINE,8.473905751,11.96268947,,,
Ramadan Pharmacy,8.898784255,9.929179324,,,
Malaharam Dispensary,12.75362178,11.04705699,,,
PHC,6.517357488,9.626711391,,,
PHC Byari,4.38767146,12.21654379,,,
Tilam Health Clinic,14.42961986,12.29832535,,,
Shalom Riyyah Hospital And Maternity,3.242086578,6.467536629,,,
Hopehill medical center,8.887235837,9.895953376,,,
Agboyi primary health Centre (PHC),3.409667729,6.578380845,,,
Ojasogbon Natural centre and maternity home,3.396785666,6.533476643,,,
Biu Town Dispensary,12.19610594,10.61151117,,,
Saraki Specialist Hospital,5.244352926,13.02962033,,,
Dandi Mahe PHC,5.117542024,12.73525828,,,
Classic Symbols Diagnostic Ltd Medical Centre,7.425045182,8.995491553,,,
Custom House Idp Clinic,13.77703614,11.22788188,,,
"General Hospital, Sabon Tasha",7.468213995,10.45069614,,,
Primary Healthcare Clinic Gamajigo,8.858529998,9.97463824,,,
Zangun Majema Health Post,8.002073921,11.8161764,,,
PHC Barakwai,7.19916295,9.620898876,,,
Model Primary Health Centre,5.400559499,12.58608052,,,
Gasarawa Health Clinic,13.33111563,12.61791985,,,
PHC Ruwa Wuri,4.965024997,13.71107367,,,
BHC,5.966886391,9.190858545,,,
Flora Hospital And Maternity,3.26419192,6.576086634,,,
Specialist Hospital No20a Gobarar Road Unguwar Rimi Kaduna,7.457884725,10.50937977,,,
Prison Clinic,4.567590018,12.75408907,,,
First Wave Medical Center,3.271030967,6.646175019,,,
Jeri Health Post,13.9447903,11.38832928,,,
General Hospital Sabon Tasha Kaduna Florence Chukwuemeka Chemist By Sabon Hanya Before Catholic Church Unguwan Bije Gonin Gora Kaduna,7.395319517,10.41963155,,,
RX pharmacy,7.422400021,9.01664756,,,
Abdussala Abubakar Genera Hospital,6.584101577,8.648873873,,,
Phc Makera Main Roadkakuri Kaduna,7.41158854,10.4683947,,,
Family Suport Clinic,12.17039915,10.61898758,,,
Jonap Pharmacy,7.519077396,6.456701343,,,
Asogbon Pry Healthcare Centre,3.396190048,6.535028468,,,
44 Army Hospital No27 Idenpence Way Kaduna,7.441488465,10.51328809,,,
General Hospitals And Primary Health Care Gwagwada Primary Health Care,7.398063417,10.4611783,,,
Mairamri Primary Health Clinic,13.48893194,11.60145836,,,
Victory Life Medical Diagnostic,3.255285729,6.515772051,,,
Royal Immaculate Hospital,3.920062516,7.364731773,,,
Hilma Chemist,3.907834828,7.441454267,,,
Garaha Larh Health Post,12.84815808,10.41016025,,,
lihyambula health clinic,13.50664575,10.86042712,,,
Faith medical and diagnostic laboratory,8.87157073,9.904915391,,,
Gimo Maternity Buba Sauri Road Romi,7.424102386,10.53165284,,,
PHC Marnona,5.494360288,13.21438715,,,
Baje Primary Health Centre,8.257426673,12.36538862,,,
Grace Springs Med Clinic,3.361342956,6.546614438,,,
Sifawa Health Clinic,5.134384117,12.82221994,,,
Tasmukawu Dispensary,12.34695488,11.77432044,,,
Isuhu Dan Tsoho Hospital Isuhu Dan Tsoho Hospital,7.459950026,10.53165544,,,
Ayatuga Health Care,3.354054053,6.533106749,,,
Service Pharmacetical,5.60992385,6.342347876,,,
Enord pharmacy,7.579869076,8.824644226,,,
Kent Hospital,3.25097676,6.562978259,,,
Mutuke Maternity Clinic,11.47325983,10.81686964,,,
Rapha Mamasuwe Maternity And Clinic,7.385913094,10.50025088,,,
Teshegwa Health post,10.14198059,12.54791135,,,
Mdgs Dogon Daji,4.330822794,12.00956174,,,
Oke Ari Health Post,3.38507732,6.460139684,,,
Wasada Dispensary Nkurvu,13.14397195,10.84395635,,,
Ali Sheriffti Health Centre,13.85107417,12.86187732,,,
Duchidama Health Clinic,12.9664093,10.16395325,,,
John Pofi Foundation Medical Center Fudawa,8.917768093,9.929090392,,,
Naraguta health clinic,8.898105154,9.983870655,,,
Ufoma Specialist Hospital,3.360349197,6.550619479,,,
Mount Moriah Hospital And Maternity,3.224550296,6.562614485,,,
Pakal Medical Centre,3.215141777,6.525529425,,,
PHC Kalial,4.10257544,11.48786957,,,
Kimky Pharmacy,8.919375658,9.889456563,,,
Azuwah Mem,7.314259221,9.611455824,,,
Lotanna Clinic,7.508549977,6.482700917,,,
Ni'ima Hospital,9.815917768,10.29786228,,,
Ever Life Hospital,3.139471967,6.494905555,,,
Benisheik Dispensary,12.48828123,11.80731195,,,
Phc Kwashabawa,6.857796868,12.94903864,,,
Comprehensive Health Centre,11.62011715,10.22491458,,,
General Hospital Tureta,5.550045629,12.59320338,,,
PHC,5.641536617,9.397847129,,,
Primary Health Centre,5.129142661,12.92721208,,,
Tumfafi Health Post,8.022259974,11.8377453,,,
HOD office,11.17548769,10.30607294,,,
PHC,4.69330725,10.79973703,,,
duhu primary heath center,13.44080347,10.78872237,,,
Udege-Mbeki Primary Health Centre,7.907471319,8.420498443,,,
Doctors Quarters,5.622540123,6.328183633,,,
Dr. Bash Medical Care And Services,9.819460798,10.31707687,,,
Lokoja Community Dispensary,12.26445818,10.38306039,,,
Guburnde Dispensary,11.77282712,10.33589793,,,
Kor Angilin Health Centre,12.71148679,10.86511227,,,
ATTAUFIQ MEDICINE STORE,8.470517786,11.95854252,,,
General Hospital Ribah,5.470249827,11.40194987,,,
Phc Kaya,6.438773039,12.8039743,,,
PHC Urgun,5.04073437,11.57863838,,,
Korban Pharmacy & Stores,5.627549483,6.317951844,,,
Zion Clinic Ak45 Yoruba Road,7.425640633,10.5100826,,,
Pry Health Center,6.491659244,12.88050719,,,
Freehand Specialist Hospital,5.249830081,13.03514585,,,
Mijuwana Health Clinic,12.05567855,10.09459727,,,
Ecwa health clinic,8.871753624,9.89855185,,,
MCH,7.228639086,9.572486764,,,
General Hospital Dansadau,6.490888025,11.30517619,,,
Primecare Hospital Festac,3.278096576,6.469035733,,,
Mount Camel Hospital,3.342896063,6.515013824,,,
Pharmacy,11.14786597,10.30462975,,,
Primary Health Centre Shagari,4.988079925,12.62779105,,,
Zaitun Clinic Buwaya,7.405803099,10.40775389,,,
DOMA HOSPITAL GOMBE,11.18205734,10.28824715,,,
General Hospital Wurno,5.416584273,13.29571868,,,
TLC Eye Clinic,7.031430423,4.83665045,,,
PHC Dakala,4.483872826,12.38534115,,,
Queen Amina Infirmary,7.422149738,10.47538152,,,
Bunzawa Dispensary,4.741302698,10.89975878,,,
Divine Mercy Patent Medicine,3.912453341,7.485757822,,,
Maternity Wurthavu,13.26227573,10.76117156,,,
Barau Dikko Teaching Hospital Jama'a Road Kadaure,7.488864323,10.52409898,,,
Metrixmed Clinic,6.331816769,4.937676691,,,
Gatti Dispensary,5.356593986,13.78817242,,,
PHC,6.389056954,10.39780122,,,
Benisheik Maternal Child Health Clinic,12.48809809,11.80731195,,,
Sadu Clinic And Maternity,13.82269287,13.09631346,,,
Yangwarzo Health Post,8.155868852,12.27439577,,,
diriff heath post,13.63877523,10.81876227,,,
United Nigerian Textiles Hospital,7.408923765,10.48022659,,,
Romchi Pharmacy,7.533825941,6.460316877,,,
Sowaaf(Omo Daddy),4.314820316,7.901401983,,,
Martanal Child Health Center,6.738185098,10.08199123,,,
Kimba Primary Health Centre,12.42028807,10.82611077,,,
Rivon Clinic,7.033861929,4.841361583,,,
Fsp Clinic,13.61810294,12.66668694,,,
Mary Anne Hospital,3.339273069,6.521146444,,,
Ladith Pharmacy,5.616867921,6.352991049,,,
De Uzoma Clinic,3.263630081,6.441320383,,,
Barau Dikko Teaching Hospital Kaduna State University Campus Tafawa Balewa Way Unguwan Rimi Kaduna,7.449543138,10.51898694,,,
Ketu Medical Clinic,3.153277297,6.486935874,,,
Life Hope Multi Medical Center,3.260565658,6.454257432,,,
Unguwar Ayaba Dispensary,7.454682251,10.34202846,,,
Sandia Health Clinic,12.81498443,11.22686297,,,
Dr. Rita's,3.456837392,6.429608434,,,
Primary Health Centre Bindin,6.33689922,11.68992784,,,
Godspower Specialist Clinic Hospital And Matanity,3.285925273,6.466685196,,,
PHC Gwagwa Wulo,6.734619017,10.0641827,,,
PHC Tudun Wada,4.390646281,12.23146777,,,
"Ola Olu Hospital, Muritala Muhamed Way, Oko Erin, Nigeria",4.568457377,8.469626454,,,
Kez Clinic,7.027786977,4.834380296,,,
ResQ Pharmacy,8.866588695,9.93976659,,,
Planet Medical Centre,7.516833979,6.479048922,,,
Davan Health Post,11.98941257,8.422324022,,,
Samas Hospital,3.254754652,6.605811629,,,
IK Pharmacy,5.626880188,6.329495234,,,
Halimat clinic,6.393844445,10.40573033,,,
Dauran Phc,6.733480755,12.72563846,,,
Faith Care Hospital,3.286482418,6.468389488,,,
dan's medical centre hospital,3.423842952,6.608035431,,,
Yankan medical laboratory and Ultra-sound scanning center,8.894082427,9.911877483,,,
Alheri Hospital And Maternity,7.410197898,10.47606062,,,
Assurance Medical Lab,5.626110143,6.330707592,,,
BHC,6.335256954,8.871150797,,,
duna heath post,12.29508825,8.446358626,,,
Ehj Catholic Hospital,3.269002295,6.642410874,,,
PHC,6.251110693,9.659402993,,,
Jos Road Primary Health Center,7.435657342,10.51558766,,,
Divine Favour Maternity Center Adoloko,3.158723522,6.478045189,,,
PHC Centre Zamare,4.710610767,10.71283019,,,
PHC Jaamere,5.280947645,11.04935413,,,
Pharmacy,6.720192337,6.194277282,,,
Pharmacy,3.233247778,6.522520741,,,
Beside Startech Filing Station Kakau,7.396770676,10.37988918,,,
Carniela pharmacy and stores,8.870008679,9.904181387,,,
CLINIQUE LA PAIX,2.742863527,6.555520629,,,
Barau Dikko Hospital NoBN13 Kinshasha Road Unguwan Rimi Kaduna,7.462264856,10.5336676,,,
National Orthopedic Hospital,7.525303892,6.468298041,,,
Zafafi Hospital,5.238901337,13.05107348,,,
Dan kasheari medical store,8.893421346,9.915820917,,,
Mbulatawiwi Dispensary,12.10089104,10.43371575,,,
PHC,5.48177947,10.40852318,,,
Crusaints Hospital,3.359903951,6.542514765,,,
Phc Kango Marafa,6.461404932,11.7024152,,,
PHC,5.762432997,8.808098936,,,
MPHC Gatawa,6.371324618,13.40172377,,,
Olatemi Maternity Home,3.252179731,6.513999866,,,
Best Option Healthcare And Maternity Home,3.253554363,6.528864416,,,
"Mobolaji Maternity and Ultrasound, 43, Obafemi Awolowo Way, Oke Bola, Ibadan",3.88089799,7.384014928,,,
Yawi Dispensary,12.21748516,10.59637027,,,
Matakari Dispensary,4.055923947,11.99577804,,,
Kobchi Dispensary,13.15710665,10.86800562,,,
Kwarakka Dispensary,5.046011616,13.32541568,,,
Shittimari Primary Health Care,12.41240833,11.52599416,,,
Salvation Hospital,3.339477588,6.524476742,,,
Health Clinic,6.806709838,12.13395036,,,
Majesty Hospital,3.282237823,6.577602836,,,
Dela Nursing Home,3.346551998,6.516984577,,,
Bamaiyi Sundume Memorial Medical Health Centre,5.233387972,11.31567075,,,
wuro ladde heath clinic,12.20423899,9.890059641,,,
dispensary ishishiwa,13.53347128,10.81505647,,,
LCCN Clinic Karlaje,12.05010987,10.04327387,,,
Karfen Sarki PHC,4.516719241,13.27375189,,,
Bachaka PHC,4.177340676,13.40385152,,,
Crownpoint Pharmacy & Stores Ltd,7.518069975,6.458652231,,,
Emc Hospital and Maternity,3.305345137,6.584641288,,,
Ademola Medical Center,3.143878836,6.494429882,,,
Aman Clinic Makera Cd 35 Zango Road Sabon Gari South,7.406992575,10.50695875,,,
Birnin Magaji Phc,5.298395499,12.17152467,,,
Coka Pharmarcy,5.626766446,6.304945394,,,
Madayi Health Centre,13.79414763,13.41496232,,,
Kareji Health Post,11.86010738,10.03631589,,,
Dentoba Dental Clinic,5.782439762,5.568695866,,,
PHC,6.42137598,8.611188585,,,
PHC,5.181031923,10.31815596,,,
General Hospital Sabon Birni,6.316299017,13.56129694,,,
Adetunji Memorial Hospital,3.30635633,6.456238997,,,
Primary Health Care Centre Gora,11.91137948,10.04679469,,,
Illogbo Central Hospital Illogboope,3.153410066,6.464834136,,,
St Andrew Hospital,3.342735131,6.531662463,,,
Ire-Anu Hospital,3.495053925,6.624475026,,,
PHC,5.088831742,9.69125456,,,
Daddo Health Post,8.335134459,12.29987005,,,
Flowell Pharnacy,5.625475968,6.325816332,,,
Godiya Hospital Zuru,5.22843938,11.44815167,,,
ALPHA ET OMEGA,2.735576468,6.63702198,,,
Talbari Dispensary,12.97374572,11.54717816,,,
PHC,7.075547732,9.525064386,,,
Paus Pharmacy,7.520646236,6.457858297,,,
Hudumcha Dispensary,13.79156693,11.12911523,,,
Calvary Medical Centre,5.604425992,6.334319857,,,
Bazam Village Dispensary,12.78989077,12.5748269,,,
No1 Maisamari Roadkinkinau Gr A Along Umuazu Road Kaduna,7.400576731,10.49824525,,,
Primary Health Care,6.333847369,4.943492642,,,
Naf Medical Centre Kainji,4.493425597,9.88468265,,,
Al-Bishir Clinic & Maternity,9.795701036,10.29932693,,,
Doma health Clinic Gombe,11.34681078,9.724905135,,,
PHC Wasagu,5.808076818,11.37552382,,,
Redeemtion Medical Clinic,3.358576257,6.528808425,,,
Agbomola Traditional Home,3.891895885,7.384158091,,,
Ashed Specialist Hospital,8.86762914,9.940386767,,,
Good Land Medical Diagnosis,3.285632242,6.609058275,,,
Yawo Memorial Clinic Maikujeri,6.291785722,10.27547246,,,
Jni Muslim Hospital,7.409686854,10.51469105,,,
Seal Pharmacy,3.42501273,6.608204662,,,
Pharmaceutical shop,3.235343589,6.529229867,,,
Funmak Medicine Store,3.913850939,7.481844646,,,
Kauthama 2 Primary Health Centre,12.79448355,10.74151474,,,
Shagari Phc,6.658413519,12.15817154,,,
Pinecastle,13.14807129,11.8521118,,,
PHC,5.78832939,8.949178437,,,
Phcbagega,6.000214598,11.86839188,,,
Chata Dispensary,12.02330069,10.35089869,,,
Gwaskara Dispensary,12.14111328,10.27691649,,,
Garbwala Medical Clinic,13.16668699,11.80828852,,,
Three Primary Health Care,7.412668129,10.45625636,,,
Etsu Yahaya Abubakar Health Center,6.194178124,9.279256694,,,
General Hospital Minna,6.544542683,9.612366937,,,
Federal Training Center Dalori IDP Camp clinic B,13.22400245,11.77994747,,,
dagali heath post,13.46175329,10.7877406,,,
Tundun Wada Primary Health Center,7.635540923,10.47649715,,,
Ijegun Primary Health Care,3.251727779,6.514041188,,,
Joba Diagnostic Medical Service,3.262311776,6.547541727,,,
St Monica Hospital,3.233781118,6.593063676,,,
Borno Kiji Dispensary,11.75866707,10.7105478,,,
"Better Life Health Care, Agbowo",3.909477933,7.441944943,,,
Rural Hospital Kujama,7.650791963,10.48094928,,,
Krowa Hospital,3.301522319,6.612178858,,,
Streams of Life Hospital,7.061072856,5.446843698,,,
Ayete health center,3.220943395,7.544406753,,,
Mairi Clinic,13.18815422,11.81103217,,,
Yanawo Clinic and Maternity Farin Gada Jos,8.860981621,9.962781619,,,
Ayele Primary Health Clinic,7.895487126,8.010231273,,,
Onome Acapuncture and Medical Center,5.776350644,5.559719183,,,
Society for Family Health,5.601486123,6.30711354,,,
Layi Health Dispensary,7.319922622,10.48570987,,,
Kemberi Primary Health Center,3.187224675,6.46717956,,,
Uba Dispensary,13.21389454,10.45911367,,,
Ijanikin Primary Health Care Center By Ile Oba Bstop Lagos Badagry Express Road,3.118624498,6.497403949,,,
Dan Indo Health Center,4.781863649,11.48294093,,,
Shehu Muhammad Kangiwa Medical Center Kaduna Polytechnic,7.415849229,10.52406076,,,
Yar Akija Basic Health Clinic,5.236271934,13.05435398,,,
Guiwa Low Cost Primary Health Centre,5.223748364,13.0134363,,,
Mdgs PHC Gulmare,4.562028457,12.39450492,,,
Rural Hospital Sarkin Pawa,7.122618069,10.02229858,,,
Mount Pisgah Hospital,3.283259828,6.541410282,,,
Mary The Queen Hospital,3.299661536,6.59168083,,,
Islamic Medical Foundation Musawa Road Zango,7.405643423,10.50503753,,,
vokini heath facility,13.16905178,10.13147312,,,
44 Army Hospital No13 Abba Road Off Lea Primary School Kagoro Road,7.440913131,10.5566403,,,
312 Artenary Kalapanzi Barracks Primary Health Center,7.419971784,10.45530158,,,
Bauda Health Post,8.190445041,11.58893135,,,
Panox Hospital and Neurological Center,3.304266889,6.470833483,,,
Federal Road Safety Hospital,7.397446593,10.36926973,,,
Pama Dispensary,12.24810785,10.47808837,,,
Christian medical center,8.89428485,9.909590565,,,
Lawanti Health Centre,13.27776724,12.66109143,,,
Ecwa central pharmacy,8.889161328,9.910372596,,,
Kofar Rini Clinic,5.256436278,13.06735013,,,
VNusamin Clinic,3.360227827,6.515321692,,,
Primex Hospital,3.260721226,6.5486903,,,
Assamad Medicine Store,3.887607871,7.382193457,,,
Police Clinic,6.666568776,12.16797988,,,
Antul Dispensary,13.99804832,12.02197098,,,
Yisau Patent Medicine Store,3.911001763,7.485144769,,,
Hiltops Clinics,7.500835943,6.473830936,,,
BHC,6.555320134,9.599295359,,,
PHC,4.516093448,10.62664386,,,
POHP Physiotherapy Clinic,5.760118083,5.536265026,,,
Gaidam Dispensary,11.75284492,10.45033245,,,
The Muslim Hospital,4.452915859,7.693208836,,,
Oluwalogbon Medical Centre,3.088893552,6.579738462,,,
Badu Lawanti Health Centre,13.2203808,12.70083515,,,
Mother of Christ specialist hospital,7.490379771,6.436476146,,,
Victory Specialist Hopital,7.452638324,10.58202908,,,
Capitol Hill Clinic,5.762659476,5.541138264,,,
Abu Hospital Plot 13 Maje Street Gonin Gora,7.397873735,10.43648119,,,
"Al-Ameen Hospital, Awotan, Apete",3.861867968,7.448647951,,,
Tri Star Hospital,3.297405798,6.605661174,,,
Primary Health Care Centre Kudurla,4.362592722,13.57374976,,,
Dahad Dispensary,12.07958852,10.18698353,,,
General Hospital Marafa Close Off Independence Way Marafa,7.441303392,10.51454336,,,
Bilazi Dispensary,11.86372442,10.32037046,,,
Tashan Arede Primary Health Centre,12.41974383,10.49064924,,,
Lambar Tureta Primarey Health Centre,5.562496443,12.66356225,,,
"Insta-pharm Pharmacy, Office bus-stop sasa",3.914391991,7.485581969,,,
Pons Medicaldiagonistics,3.281682689,6.5774124,,,
"Folawiyo Hospital, Idi-ose",3.914639928,7.503959963,,,
dong health clinic,11.99352339,9.411674168,,,
Edo Convalescent Homeclinic And Easy Delivery,3.153517355,6.457592926,,,
Bm Hospital,3.364874084,6.521125741,,,
PHC Umaruma,5.315120329,13.12410693,,,
PHC,7.211958428,9.54808302,,,
Mdgs PHC Sabiyal,4.437731036,12.3840775,,,
Christ Bay Consultant Hospital,5.152622887,7.290569197,,,
Kadassaka Dispensary,5.566250195,13.67670367,,,
Ore Ofe Hospital Ijanikin,3.125312586,6.496168791,,,
Maimadi Health Center,10.33468893,10.271841,,,
Plateau State primary health care,8.889023529,9.944524828,,,
Both Public And Private Hospitals And Clinics No21 Sani Sambo Avenue,7.441260477,10.5465702,,,
Patent Pharmacy,4.129675139,7.830042567,,,
Bilachi Primary Health Centerc,12.8498503,9.377772722,,,
Gwei heath post,11.63224635,9.537417971,,,
Union Diagnostics,5.627272629,6.320862041,,,
Fadagwe Dispensary,13.63858504,11.08794106,,,
Community Health Clinic,6.112054248,9.161481567,,,
Rock Of Ages Hospital,3.07742979,6.529645275,,,
Maijama'a Clinic,9.838583775,10.31721945,,,
Kesa Dispensary,10.69780856,11.96355155,,,
Bularaba HEALTH CURE,11.79422143,11.06954488,,,
Gazabure Dispensary,12.81592262,12.89962405,,,
Lingir Health Clinic,13.51075867,12.68752326,,,
Bauda Health Post,8.190404975,11.58892699,,,
New Nigeria Hospital,3.214262683,6.444539956,,,
Amuwo Mile 2 Primary Health Center,3.269685168,6.56226672,,,
PHC Maikende,4.81631126,11.62791114,,,
Paya Yesu Dispensary,12.91966577,10.74833677,,,
Semper,3.29963002,6.540817765,,,
Divine Release Maternity Home,3.184984528,6.458503955,,,
Cleon Pharmacy,7.521061392,6.458041274,,,
Crusaints Hospital,3.252598156,6.51089194,,,
Plateau state government dental centre,8.884801984,9.896680338,,,
Moboluwaduro Patent Medicine Store,3.913023226,7.486224023,,,
PHC Kwasara,4.145364721,11.52727147,,,
Gabchari Health Clinic,13.65636105,11.61555529,,,
Miringa Town Dispensary,12.14548989,10.72947766,,,
Banoram Lawanti Dispensary,12.50488276,11.98327634,,,
EHA Clinics,7.407905867,9.08253988,,,
General Hospital Rann,14.46935888,12.26615946,,,
Forfor Dispensary,12.64428706,10.89648439,,,
Yola Rafi PHC,4.802921672,13.09556629,,,
Belli Health Post,8.284982264,12.31189816,,,
Hyera Primary Health Centre,12.30407709,10.47552485,,,
Saving Grace Hospital,3.080519695,6.588284985,,,
Farm Centre Idp Health Centre,13.77594876,11.22860976,,,
Eye Foundation Hospital,7.481634177,8.999740256,,,
Bayan Dutse Primary Health Care,7.457297321,10.47663436,,,
Atinuke Tr Clinic And Maternity Home,3.218952526,6.547154064,,,
De Marvel Hospitalsabo Crown Hospital,3.27147286,6.464558372,,,
reliance medical laboratary,5.587852874,6.363866653,,,
Pinnacle Ace Health Center,5.773724259,5.547535417,,,
Santamaria Hospital Annex,3.239451224,6.564900733,,,
PHC Model,6.163547297,10.31630465,,,
Hopeland Hospital,3.256295581,6.451757445,,,
F. M.c Gusau,6.660712843,12.17174888,,,
Wulo Dispensary,13.51802729,12.50453592,,,
Megaleyi,12.39644357,9.025587447,,,
Abalamo Maternity Centre,3.261462856,6.604596672,,,
Tsohuwar Rogo Health Post,7.799461947,11.57466795,,,
Ruka-Med pharmacy and stores,8.856004363,9.958169645,,,
Yammedi Primary Health Centre,8.092459587,11.82383997,,,
Bio-Cycle Laboratory,7.420008245,9.017317861,,,
PHC KapulagI,6.235983034,9.532262681,,,
Bay-Kins,3.452512162,6.429915463,,,
Health Center,5.705925726,5.592199477,,,
PHC Gari Tudu,4.550663938,11.62698117,,,
Upgraded Dispensary,3.955011867,12.26034895,,,
Levan Hospital First Avenue G Close Festac Town,3.295722796,6.470153879,,,
St Monica Hospital,3.23374055,6.593107765,,,
PHC,5.648785119,9.279715938,,,
missionary dispensary dashen,12.23824378,8.697069984,,,
EYN Mbalala,12.8793743,10.76882885,,,
Crown Well Hospital Haggai Diagonistic Ltd,3.228073377,6.595056641,,,
Asheco Hospital,3.311897774,6.43881235,,,
Zagbavi Pharmacy,7.468538626,9.061280273,,,
Guruntun Dispensary,10.30052739,10.26103102,,,
hospital small garden,11.18009833,10.29290589,,,
"Ibadan Central Hospital, Ososami Road, Oke Ado, New GRA. Ibadan",3.928577943,7.395517917,,,
Donald Pharmacy,7.522737354,6.457907248,,,
Zadawa Health Centre,12.89423223,10.64690367,,,
Fikka Dispensary,12.01096982,10.43228823,,,
Precision Imaging Consultant,7.049541871,4.826108028,,,
Yako Primary Health Centre,8.192827262,11.65569866,,,
"Primary Health Center, Emekuku",6.996559442,4.794102317,,,
Kaura Primary health care,4.994018336,13.28021677,,,
Kimeri Primary Health Clinic,13.32014598,11.70903078,,,
Zoza Health Post,7.87180607,11.62744846,,,
"Hamdalat Hospital, Ojoo",3.912442947,7.471786949,,,
PHC Nasarawa,5.744629919,12.04143996,,,
Ohbye Pharmacy Ltd.,7.426610168,8.992541458,,,
Cleveland Clinic,7.037551643,4.828251448,,,
Above Clinic Medical Centre,3.254705031,6.538929322,,,
ludga maternity and child heath,13.28072823,9.968469579,,,
Betlem Hospital,3.344280083,6.516476886,,,
Primary health care centre Nagudawa,4.754663368,12.39174384,,,
Joycy Hospital Saka Adisa Street Abule Osun,3.23165815,6.454837124,,,
Psychiatric Mental Home Jega,4.371152154,12.22361962,,,
gwangwanso healt clinic,8.176731242,8.818064181,,,
Reluluwa Reluluwa PHC,4.94111302,12.53812665,,,
Abe Medical Clinic and Maternity,5.6298245,6.33099836,,,
Aromiwe Primary Health Care,4.480647972,7.834984537,,,
Barau Dikko Teaching Hospital Dana Old Airport Kawo Kaduna,7.445892652,10.59080083,,,
Kareto Primary Care Centre,12.50857063,12.88401167,,,
Kashim Dispensary,12.0631936,10.13232782,,,
Goodness Medical Services,3.144338835,6.46101509,,,
Garin Bulama Ibrahim Health Post,12.11008884,10.21582323,,,
Gramath Medical Center,3.247768084,6.686091821,,,
"Balogun Hospital, Oko Erin, Nigeria",4.541836871,8.483636722,,,
CLINIQUE FIFATIN,2.744062558,6.646517922,,,
polo dispensary,12.03559367,8.673359843,,,
Abasori Health Clinic,12.66355278,11.92466647,,,
PHC Daza,6.999857386,9.583526233,,,
Primary Health Care Dan Isa,6.73806708,12.38073152,,,
Antek Medical Laboratories,7.025547165,4.830934663,,,
bafyo primary heath center,11.79017959,9.602989431,,,
Uba Clinic A,13.22696939,10.45833214,,,
Mayaflora Pharmacy,3.535650751,6.63192813,,,
Phc Matusgi,6.107010354,12.60754658,,,
St Alexander Hospital And Maternity Home,3.296002332,6.614633498,,,
PHC Awal,4.769416774,11.66081313,,,
Carlvon Pharmacy,7.02785026,4.834642985,,,
Jodem Hospital Yoruba Road Central Kaduna Central Kaduna,7.405934443,10.47249873,,,
Alafiatayo Hospital,3.346369524,6.527556085,,,
Huyum Dispensary,13.14248383,10.7680298,,,
Ajata Aboki Dispensary,6.734578868,10.06413115,,,
Vintage Hospital,3.226537897,6.551810631,,,
Holiness Nursing And Maternity,7.433318456,10.44841057,,,
H-Medix pharmacy,7.485665285,9.105700672,,,
Labake Maternity Center,3.344333727,6.521464118,,,
PHC GAGI,5.278498788,13.04635832,,,
Life Anchor Hospital,3.298052127,6.588459497,,,
Tuwakari Dispensary,12.08768016,10.33253184,,,
PHC Dagbadna,6.894012389,9.792460173,,,
Kaya Dispensary,12.89346629,11.01597488,,,
Jajaye Primary Health Centre,7.935751274,11.55676882,,,
Sabongari Dispensary,12.45604535,10.81121068,,,
The Point Clinic,3.311946724,6.442890146,,,
"Olorisa-oko PHC, Akinyele",3.887011918,7.561389997,,,
Phc Tungar Kado,6.482524981,13.04628657,,,
Chinwendu Clinic & Maternity,7.519430944,6.479912928,,,
Oluwabamise Convalescent and Maternity Home,3.20683967,6.577899975,,,
Gawon Bature Health Post,8.418861374,12.26273788,,,
Harang Dispensary,12.46122856,10.56973023,,,
opalo primary heath clinic,11.92871049,9.510657152,,,
Era Primary Health Care Center,3.124095533,6.476914554,,,
PPMC clinc,11.13226456,10.28847304,,,
Paragon Clinic and Imaging,7.015179253,4.82678428,,,
Ogungbaiye Primary Health Centre,3.353313763,6.525301521,,,
St Grace Natural Medical Clinic And Me Eternity,3.26181959,6.506704676,,,
Dr Gwamna Awan General Hospital,7.40234833,10.46535626,,,
Olutope Nursing Home,3.315636773,6.462860617,,,
boken dispensary clinic,13.2456778,10.00177407,,,
Saint Claire Hospital Ltd,3.339658637,6.536555651,,,
Salvation Health Clinic,7.633462127,10.4802214,,,
Sasa Primary Health Center,3.91394314,7.485849687,,,
Darajamal Health Post Clinic,13.97110897,11.32377856,,,
Nasara Medical Clinic,5.48394242,11.39665368,,,
Mount Zion Faith Clinic,5.761149057,5.536269133,,,
PHC Alanga,5.285681744,10.93987306,,,
Dashi Health Post,8.22732399,11.71734052,,,
Dure Dispensary,13.78529659,11.21799836,,,
Farsa Health Post,8.101274667,12.38153862,,,
Hillstar Hospital,3.344854076,6.53434593,,,
Grace Land Medical Center,3.199982519,6.490239182,,,
Lawanti Primary Health Clinic,13.47976499,11.58684308,,,
Alves Primary Health Center,3.344744776,6.514559525,,,
PHC Butu Zanchita,6.535264,9.300170883,,,
Umaru Hausaju Maternity Health Care,11.60980707,10.34703245,,,
Zakari Memorial Clinic Primary Health Center,7.431859334,10.50920049,,,
Primary health care downbase,8.851478135,9.956570629,,,
Mambo Clinic,8.328866221,4.944116927,,,
PHC,6.832491483,9.307518292,,,
PHC Sarari,6.805989917,10.03409695,,,
bolon health,11.99481085,9.411703337,,,
Nwoza General Hospital,13.70043008,11.07413187,,,
Gadali Pharmacy,11.14682795,10.29598398,,,
Federal Teaching Hospital,11.13668334,10.29974988,,,
Afuye Primary Health Centre,13.99159334,11.98272934,,,
Gonin Gora Health Clinic Health Clinic Angwan Madaki Opposite Deeper Life Church,7.423248019,10.39509076,,,
Hansa Clinics,7.496328994,6.430424999,,,
Ezanol Pharmacy ltd,7.569695038,8.830258257,,,
Maternity and Child Health Bama,13.68527534,11.51657239,,,
Medplus,3.451075672,6.43627783,,,
Yelwa Clinic,9.794658663,10.27119936,,,
Kagara General Hospital,6.131301277,12.34725529,,,
Rayville radiology,8.880628383,9.929302538,,,
PHC Kambama,5.223096588,12.61421958,,,
Kagara Phc,6.13098528,12.35104064,,,
Ginza medical center,8.880876738,9.928433837,,,
mayo wandu heath clinic,13.43820408,10.70788202,,,
Buma Maternity and Child Health,12.17828367,10.32891849,,,
Mercy Maternity Center,3.346090574,6.534230092,,,
"Olanrewaju Hospital, Ilorin, Nigeria",4.568582519,8.488425722,,,
PHC,7.028086295,9.501901332,,,
PHC Gulbedu Samgori,5.281352659,11.00630987,,,
Khamaz Clinic And Maternity,7.388630172,10.50350138,,,
Hammed Conwale Hospital,3.344485272,6.527827827,,,
Hada Kaya Dispensary,13.87804755,11.19207875,,,
Damaram Health Clinic,13.18872495,12.53082207,,,
Zodiak Hospital,3.312242438,6.467712565,,,
Gwamna Awan General Hospital Nassarawa Kaduna NoR F 2 Wasah Yari Street Unguwan Romi New Extension Kaduna,7.415578326,10.44034826,,,
LAUTECH Teaching Hospital Dental Centre,4.258701463,8.159936171,,,
Muliye Dispensary,14.09299794,11.89821226,,,
Dawal Dispensary,11.71288763,10.60081276,,,
Nafada Health Post,12.11932368,10.16387932,,,
Femtab Hosp,3.342798163,6.530541971,,,
Jacob Memorial Clinic,7.502102952,6.438332989,,,
Firstline Hospital Festac,3.28412484,6.462663475,,,
Grace Mobolaji Maternity,3.139276166,6.454710557,,,
Cedar Clinic,3.34771197,6.532644487,,,
Mch Kalgo,4.201140335,12.33383687,,,
MedicPlus Pharmacy,8.947906567,9.910498744,,,
PHC,5.129047443,10.24250719,,,
"Federal School of Statistics (FSS) Clinic, Sasa",3.904199932,7.476072952,,,
Nas Pharmacy and stores,8.894602859,9.914221566,,,
State Specialist Hospital,11.9566172,11.72964658,,,
Kuku Primary Health Centre,8.281903088,12.37298698,,,
PHC Ndon Utim,7.824449742,4.82152824,,,
University of Maiduguri Teaching Hospital UMTH,13.18555952,11.82448823,,,
Jama'A Primary Health Centre,7.866100341,11.81519815,,,
PHC Budai,5.354141022,12.80379132,,,
PHC Birnin Tudu,5.097956617,11.53665887,,,
Dr Dele Omo-oye Traditional Health Centre,3.892268964,7.38280718,,,
PHC Nagopita,6.683795263,9.366481293,,,
PHC Kware,5.26257049,13.21605707,,,
Gwamna Awan General Hospital Tunga Road No60 Angwa Sauri,7.424499353,10.41536726,,,
"CBN quarters, Ilorin, Nigeria",4.588954483,8.47217229,,,
"Dola Medical Centre, Iwo-Road/Olodo",3.999037982,7.429367981,,,
Chirallia Dispensary,12.36353488,11.14603578,,,
Gwarmai Health Post,8.254855524,11.53319379,,,
Bojos Dispensary,10.33295974,10.27136314,,,
Rafin Buda Primary Health Centre,5.492893119,12.62462412,,,
Zephaniah Maternity Center,3.270969946,6.529503956,,,
Ungwan Sanusi Primary Health Center,7.410474082,10.52469896,,,
Flourish health medical diagnostic services,8.879998231,9.932474921,,,
Boluri Medical Clinic,13.14388998,11.85335148,,,
Holiness Hospital,3.272728134,6.537751581,,,
PHC Kusherki,6.437715327,10.5335324,,,
Karagawaru Dispensary,12.55432124,11.90631094,,,
Saltak Consualtant Home,3.351165397,6.527696566,,,
Kurugu Health Post,8.039603976,11.83283459,,,
Pompomari Primary Health Centre,13.06592386,11.83662992,,,
Ogunmoded Memorial Hospital And Maternity Home,3.262541021,6.549284493,,,
Oxford Hospital,7.408177273,10.4678824,,,
Medicine & Stores,7.426117982,8.991420295,,,
Health Post Tasha Tiding,12.96466779,10.13470108,,,
Barau Dikko Teaching Hospital No1 Suleiman Ahmed Road Shagari Lowcost,7.431659426,10.4635943,,,
PHC Yartsakuwa,5.785524721,12.83967232,,,
Yalwa Health Post,8.186621049,11.48653752,,,
jaba jaba heath clinic,13.22668306,9.974320483,,,
Primary Health care clinic,8.901838621,9.917795945,,,
Gulubba Phc,6.846752872,12.17946049,,,
Ali Jodi PHC,5.229467924,13.06105205,,,
Daura Health Post,7.983008528,11.72562879,,,
Obaby Clinic,5.152778371,7.286372126,,,
Araba Medical Center,3.278026838,6.639938883,,,
MDGS Clinic B Division,7.192563375,9.164731985,,,
Egudu Health Center,3.042700548,6.552142387,,,
Noka Optical,3.909497127,7.481572067,,,
Giwi Dispensary,13.10550136,10.50879044,,,
Prlmary Health Centre,5.675963272,13.44229554,,,
Ngalimari Health Clinic,13.66012142,11.56209015,,,
Isashi Primary Health Care Center,3.171618242,6.50232488,,,
Divine Mercy Clinic And Maternity,6.805385162,9.918765144,,,
Healthy You Pharmacy & Superstore,8.91208139,9.933000717,,,
Top Dental Clinic,3.338883479,6.631034452,,,
PHC Gotupe,6.734104117,9.72413685,,,
Burguma Dispensary,12.40531389,11.60114982,,,
Amanawa Leprosy Centre,4.188029195,12.35507863,,,
"Sadiku Hospital, Unity Road, Ilorin, Nigeria",4.558521636,8.480565676,,,
Health Plus,3.354267288,6.596936199,,,
Lord's own medical center,3.233785728,6.525000778,,,
Wadako Dispensary,5.674609427,11.505488,,,
"Molly Specialist Hospital, Idi ape, Ibadan",3.925714937,7.401531932,,,
"Khadijat Memorial Hospital, Sango Road, Oko Erin, Nigeria",4.587742124,8.510716136,,,
Mdgs PHC Jalbabu,4.726225498,10.74483716,,,
Kanwa Health Post,8.150525137,11.82642864,,,
BHC Tsadza,6.478363534,9.144953795,,,
Mainok Maternity and Child Health,12.63189693,11.82989498,,,
Ozitex Diagnostic Centre,8.858909949,9.958148187,,,
Jadan Clinic And Maternity,7.407503535,10.43975332,,,
Dayaso Health Post,7.735481455,11.51592506,,,
Mboa Kuchini. Dispensary,12.77446313,10.94704747,,,
Marguba Primary Health Centre,12.58428956,11.69372559,,,
Aluluwa Upgraded Dispensary,4.938004424,12.53906006,,,
Alela Dispensary,4.997139756,13.36337833,,,
Heaven Hospital Alagbado,3.26105449,6.678567135,,,
PHC Zodi,5.394960136,11.44371798,,,
Ben-Dominics Dental Surgery clinic,8.892369333,9.906725043,,,
His Glory Clinic,5.707689698,5.588870521,,,
Okokomaiko Primary Health Care Board,3.191083033,6.470704151,,,
Papiri PHC,4.326966365,10.63712098,,,
Wamiri Health Clinic,13.45648182,12.72611338,,,
Gomboru Maternal And Child Clinic,14.21048473,12.37004996,,,
Sudugi Health Centre,6.530166377,9.127569392,,,
Olyros Hospital,5.150207055,7.29259284,,,
W C W C Bakura,5.870116481,12.71194746,,,
Zango Road Primary Health Center,7.408588489,10.50273259,,,
Molabi Hospital,3.270503242,6.523057769,,,
kurang heath post,13.59226447,10.71271879,,,
NNPC Industrial Clinic No35 Rabah Road,7.467312773,10.55142994,,,
Jara Gol Eyn Clinic,11.62410375,10.22550324,,,
Alafara Aderogba Health Centre,3.904890769,7.382774993,,,
Es 5 Junction Road By Station Roundabout Kaduna,7.418721875,10.49678672,,,
"University Health Service, Jaja Clinic, UI",3.900755976,7.442594541,,,
East side hospital,7.527921142,6.445965634,,,
Daksiri Health Post,12.92637372,10.14365873,,,
Makawa Dispensary,10.19995159,12.20629213,,,
Tokache Health Clinic,7.616022488,10.52849102,,,
Delimi central pharmacy,8.887097871,9.923399666,,,
De-Mercy pharmacy,8.877365224,9.931058463,,,
Primary Health Care,6.815582921,12.14073836,,,
"Federal Nuero Psychiatric Hospital, Kware sokoto",5.264596899,13.20890496,,,
Al Mansur Specialist Hospital,7.459845419,10.5510054,,,
Ajiua Health Centre,12.45888397,9.278296966,,,
Kirbutu Primary Health Centre,12.43297383,10.48204949,,,
Gomna Awan Hospital Queen Amina College Pobox 211,7.42309924,10.47481448,,,
PHC Sakufo,5.87080673,9.129585575,,,
Aduwa Health Clinic,13.19012447,12.82507314,,,
Kirawa Dispensary,13.91054394,11.19027052,,,
Ketu Health Centre,3.071586598,6.598713665,,,
PHC Rabba Kede,5.029778887,9.209244165,,,
Medics Clinical Venture,3.079090078,6.561049081,,,
Blue Sky Hospital,3.290391151,6.592479876,,,
General Hospitals And Primary Health Care Gwagwada Primary Health Care,7.398076996,10.4611638,,,
Wasaram Clinic,12.32199098,11.63259034,,,
Dala Clinic & Maternity Home,13.12707513,11.82592765,,,
Right way Clinic,5.776396493,5.548992024,,,
Vicah Clinic,5.752426178,5.529308884,,,
hubare heath clinic,13.09978616,10.09102558,,,
Gwarabjawa Health Post,8.541892122,12.44795975,,,
Dalori Primary Health Clinic,13.26320805,11.75576676,,,
Primary Health Care,6.447185536,13.19632364,,,
Multi Clinic,7.460589816,10.53951372,,,
"General Hospital, Ilorin, Surulere Road, Ilorin, Nigeria",4.534149577,8.479141423,,,
General Hospital Bodingal,5.143804957,12.85113692,,,
Pelfik Clinic And Maternity Center,3.218217517,6.549468392,,,
Lawolon Dispensary,11.88751218,10.03210448,,,
Zodiac Hospital,3.285930638,6.467738549,,,
Soye Health Clinic,13.75692544,11.46539199,,,
Tonia Pharmacy Ltd.,7.47924106,9.053074138,,,
General Hospital Rabah,5.498751064,13.12337552,,,
Kirya Health Post,8.388875032,12.21268954,,,
Ward Model PHC Centre,5.817897727,13.66242795,,,
Magaji PHC,4.882683192,13.10722535,,,
Orogun Public Healthcare Centre,3.911919917,7.457724966,,,
Mallam Fantamri,13.61240802,11.64514333,,,
Delimi pharmacy,8.889074156,9.922550999,,,
Excel Diagnostic and Clinical Services,8.910031428,9.933141952,,,
Achilafiya Health Post,8.138667427,11.74846479,,,
Nassarawa Ecwa Maternity Home,7.402693664,10.47349769,,,
Mount Sinai Clinic,5.773471125,5.567856586,,,
Bargoni Health Post,8.105222627,11.71905093,,,
Golden Care Hospital,3.286735971,6.458156693,,,
UMM clinic kabong,8.871923525,9.928141728,,,
Yalwan Dan Musa Health Post,8.715917196,10.57586478,,,
"Olive Pry Health Centre, iso pako, Bodija",3.920186988,7.43991493,,,
Bargu Clinic,11.96258318,10.08746377,,,
PHC Kurebe,6.924337025,10.46941939,,,
Naisa diagnostic laboratory,8.891116071,9.958201245,,,
Gulumba Primary Health Centre,14.09763615,11.64940854,,,
PHC,7.134968217,9.65182198,,,
Layi Health Clinic,12.61426694,12.91659146,,,
Max Health Consultant Hospital Ltd,3.263112499,6.57761214,,,
PHC Kurawa,6.354842779,13.51700176,,,
Dariyar Shere Primary Health Centre,8.7410562,10.67046118,,,
Tobolo Health Clinic,12.54963618,11.55677267,,,
Merit Medical Centre Ojuwoyw,3.352733065,6.532826961,,,
Hussein Medical Centre,5.233170797,13.04131392,,,
Arnari Health Clinic,13.45392325,11.72220856,,,
Maternity and Child Health Baga,13.82120148,13.09444622,,,
Taddangari Primary Health Centre,8.309360945,12.23524038,,,
Gazan Health Post,8.197410319,11.71084982,,,
Skylark Pharmacy,7.463666226,9.044022772,,,
Kauyen Liman Health Post,7.820640921,11.54261136,,,
Health Center Mushin,3.35469443,6.524926431,,,
Karshi Health Post,7.825975919,11.54124,,,
"Oreofe Maternity, Ori Eru",3.889232954,7.388236977,,,
midline pharmacy,6.981869989,4.829486941,,,
Kabala Primary Health Center,7.443603387,10.50214317,,,
Albarka patient Medicine Store,11.18144873,10.29577192,,,
specialist Hospital No6 Shehu Ibrahim Close Malali,7.470237722,10.55049779,,,
General Hospital Sabontasha Kaduna Majalisa Street Sabontasha Kaduna,7.458634486,10.43354526,,,
National Blood Transfusion Center (NBTS) Sokoto,5.246328122,13.05031324,,,
NNPC Industrial Clinic No35 Rabah Road,7.467277821,10.55139826,,,
"Cottage Hospital, Atanda",4.737221633,8.320359176,,,
FMCP,6.993288656,9.273190794,,,
Dokar Sati Health Post,8.619357923,10.72898497,,,
Turban Gida Health Facility,11.67406525,12.50763127,,,
Primary Health Care Mairari,13.44058907,12.68154479,,,
Faith Maternity Clinic & Child Welfare(Mummy Mercy),3.919747944,7.481306947,,,
PHC Lambara,5.070611496,12.63470202,,,
Sundu Health Post,7.76152604,11.38063318,,,
Darlington Pharmacy,7.525689879,6.458018056,,,
Belmont Specialist Hospital,7.470571657,10.54803887,,,
Lizmart Clinic,5.775709094,5.563512246,,,
Saint Kizito Clinic,3.3516663,6.52080924,,,
Apex Clinic,8.876579756,9.889577933,,,
Patient Medicine Shop,3.389104993,6.493867624,,,
Hirpaya Dispensary,12.78727663,10.86537488,,,
Askira Dispensary,12.91033654,10.64945596,,,
PHC Gidan Madi,4.971494485,13.29624196,,,
Maternity and Child Health Kukawa,13.56829826,12.92309564,,,
Berith Specialist Hospital,7.370640344,9.146846345,,,
komsiri heath post,12.05566732,8.722331196,,,
Tsaudawa Health Post,8.202673651,11.68094059,,,
Arkclinic,5.784399954,5.543817791,,,
PHC Pyatta,6.564567049,9.728429474,,,
Nassarawo Demsa Health Clinic,12.04633172,9.452523289,,,
Johnson Pharmacy,7.523025356,6.456788347,,,
PHC,6.602654417,8.343567827,,,
Crescent Hospital,3.269599337,6.648700067,,,
Marie Stopes Clinic General Medical Care And Laboratory,3.22365645,6.540500258,,,
Kibiyare Dispensary,4.894880286,12.82649446,,,
Daboe Clinic,5.296057199,13.73482094,,,
NNPC Hospital No2 Sultan Road Unguwan Rimi Gra Kaduna,7.451546749,10.53638627,,,
Mojide Specialist Hospital,3.364005048,6.539225119,,,
Agboju Primary Health Care Center,3.291282399,6.459093454,,,
"Secretariat Staff Clinic , Total Garden road",3.908169937,7.411436995,,,
Jama'a Nursing And Maternity Home,7.455148955,10.60044513,,,
"Pharmacist Council, Edo State Medical Store",5.623041193,6.362120618,,,
St White Shield Clinic,3.245495666,6.538930663,,,
God Cures Hospital,3.142988343,6.470072574,,,
Kaffe Primary Health Center,5.723476258,13.69084093,,,
Son Allah Primary Health Care,6.470275332,13.55562574,,,
Dasin Hausa Primary Health Care Center,12.64750227,9.266426263,,,
Jordan Eye ,8.884527392,9.892201468,,,
Ilupewo Health Center,3.252065737,6.679888458,,,
Jes And Jes Mosque Road Jakande Estate,3.311705996,6.463173765,,,
Niger foundation hospital,7.51569974,6.443851886,,,
Faag Hospital,7.178275247,9.197105829,,,
B Rock Convalescent And Maternity Home,3.25969922,6.549912046,,,
Abdulazeez Memorial Clinic and Maternity,7.399274518,10.5084436,,,
PHC,6.982018433,9.271604938,,,
St Clements Hospital,3.2873248,6.465227331,,,
Cheers Medical and Diagontics  Center,5.747826274,5.53406838,,,
Gayari Phc,4.900051837,12.11833387,,,
Mallum Bairi Dispensary,13.75722225,12.76953566,,,
PHC Kpataki,5.215796788,9.305279486,,,
Gorgore Dispensary,12.11973398,11.24385008,,,
Gidan Dan Giwa Up Graded Health Clinic,5.309688856,12.57420353,,,
PHC Kadadin Buda,5.487531383,13.86520798,,,
Mile Ninety Health Clinic,13.66496993,12.77985135,,,
PHC Bugo,6.645795067,9.29293135,,,
Fame Medical Imaging,8.879994292,9.931163656,,,
Safatawa Health Post,12.39373647,9.028601747,,,
Tukuibi Health Post,8.34168148,12.26745563,,,
Efun Goro,5.05217265,9.292747367,,,
Rufai Health Post,8.647128677,10.63870483,,,
vizik heath clinic,11.68495469,10.84967574,,,
Cumi,7.061472337,4.830801894,,,
Muzidala Dispensary,12.77447503,10.94708242,,,
Mayanchi Phc,6.249054947,12.35232718,,,
Pharmacy,3.621567438,6.602401535,,,
Isolo Road Primary Health Care Centre,3.348939751,6.527188287,,,
PIX Centre,7.028549563,4.833963967,,,
General Hospital Sabon Tasha Faith Academy Kaduna Off Kachia Road Opposite Jakaranda,7.551159968,10.44264046,,,
Golden Cross Hospital Festac,3.283304084,6.468133672,,,
Alanni Traditional Hospital and Maternity Home,3.236608167,6.592445594,,,
Hyssop Eye Clinic,3.125435967,6.494383278,,,
Wcwc,5.923849341,12.11073156,,,
Abduri Health Clinic,13.42127272,11.65409629,,,
Danmarke Dispensary,6.452509721,12.26136392,,,
Phc Tubali,6.424874921,12.97359393,,,
Gatamarwa Dispensary,12.98190676,10.70370423,,,
Lagos State Ministry Of Health Belinda Convalscent And Fertility Centre,3.170767982,6.499745182,,,
Vina Dam Dispensary,12.05016485,10.58659219,,,
Health Care Centre,5.314003189,11.54351426,,,
Kauna health clinic and maternity,8.867137542,9.900418164,,,
Chyle pharmacy,8.88404887,9.923424561,,,
Fai Dispensary,12.66453396,11.29116634,,,
Rogo General Hospital,7.830878829,11.55266152,,,
Pharmacy,3.3541398,6.627043241,,,
Phc Bingi,6.364754883,12.05857534,,,
Koramgilim A Dispensary,12.71173095,10.86511227,,,
Ultima Hospital and maternity Jos,8.911426261,9.924387138,,,
Dongo Health Center,12.4495239,11.57550044,,,
Babatunde Sanwo-Olu primary health care center Okerube,3.238841692,6.528563674,,,
PHC,5.687205081,8.910294369,,,
Iyawo Amuludun's Chemist (Toluwani Pharmacy) Moniya road,3.912366923,7.522264949,,,
Sheikh Gummi PHC,5.22721227,13.01939625,,,
sukur settlement heath post,13.60915107,10.88048577,,,
Rosanna Clinic,3.362159688,6.556756289,,,
Phc Tofa,6.81298319,12.21751366,,,
Ayodamola Health Careand Maternity Home,3.238179271,6.522860543,,,
Ola Omoyenji Maternity Home,3.347374095,6.517423286,,,
Nigus PHarmacy,7.521146971,6.457987127,,,
Best Hospital,3.344219398,6.528409782,,,
Safe Healing Nursing Home,3.222983886,6.459232678,,,
Alimosho Health Centre,3.300345499,6.600377557,,,
Deoyefemi Clinic Block 4 Jakande Estate Mile 2,3.306498487,6.464182527,,,
Fravyn Maternity,3.295153497,6.458964876,,,
Kwayabura Dispensary,12.12431662,10.54385605,,,
Angelic Care Health Center 124 Adaloko Road By Pako Bstop,3.158217926,6.476845822,,,
Rabban Medical Centre,3.280181993,6.607035973,,,
Model PHC,4.064093788,12.89818463,,,
Carolina Specialist Clinic,7.492040645,6.482312081,,,
Garba Lawal Primary Health Center,7.41215985,10.50519704,,,
Gwayoko Dispensary,11.65009435,10.30996692,,,
PHC Kashin Zama,4.483549787,12.38525188,,,
Kundesana Clinic,13.68671267,11.08813108,,,
Samari Dispensary,12.08007802,10.29669183,,,
H-Medix Pharmacy & Supermarket,7.48504536,9.023356268,,,
Tudun Bichi,5.728415881,11.35430143,,,
Kdimti PHC,5.176034381,11.49958957,,,
D2 Staff Clinic,3.356164951,6.556130077,,,
Ayetunde Medical Centre Tegina,6.188592424,10.06895074,,,
Ancel Hospital,3.185262639,6.486293568,,,
Kirawe General Hospital,13.90302436,11.1987204,,,
Warafanau Patent Medicine Store,3.911172167,7.481825033,,,
Cottage Hospital,5.343664649,5.351519582,,,
Meleri Primary Health Care,12.57063326,13.19349182,,,
PHC Iburo,6.864762564,10.15185104,,,
Nyaleri Primary Health Clinic,12.84843024,11.29486762,,,
Carelife Medical Centre,3.279015819,6.579693199,,,
Truvision,3.419067447,6.436959782,,,
Devital Care Hospital,3.14234059,6.476696625,,,
Mussa Primary Health Centre,13.12754468,10.74194976,,,
Healthway,7.932430448,5.031707563,,,
"Ike Obaleye Olorisa World Temple (a,.k.a Obabirin Sango Agbaye)",3.891452566,7.382310636,,,
Sholay Beauty World,3.220142085,6.536059358,,,
Faith Alive foundation hospital annex,8.881424077,9.92824734,,,
Gava Missionary Hospital,13.69082324,11.07946494,,,
Allahu Lateef Chemist,3.886916196,7.375451222,,,
Abakawa Community Health Center,7.42641445,10.54656483,,,
Nature Hospital,3.347670395,6.531344035,,,
Flowell Pharmacy,5.627235581,6.321157922,,,
Ark Of God Covenant Clinics And Maternity,7.410378863,10.46687875,,,
Makera II Primary Health Center,7.410221954,10.47818384,,,
Santa Maria Hospital,3.23154952,6.548731539,,,
Kidang Dispensary,12.14770506,10.42987055,,,
Hope in God Clinic,8.103405179,6.236989197,,,
"New Day Hospital, Challenge, express road, Ibadan",3.912744947,7.34516992,,,
Maternal And Child Health Care Old Airport,6.537334581,9.624796797,,,
Nigerian Navy Reference Hospital,3.282119889,6.451650827,,,
tikisu primary heath center,13.56001224,10.71562857,,,
Primary Healthcare Clinic,7.440840879,8.942335535,,,
Geo Medical Center,3.342941074,6.572006743,,,
44 Military Hospital Yusuf Dantsoho Hospital And Nursing Home YB32 Kabala Road,7.396958431,10.50803733,,,
Mekwandira Health Post,8.63017963,10.80883844,,,
Pathfinders Hospital and Maternity,8.861228719,9.939876057,,,
Solvicaj Laboratory,3.245252926,6.531633127,,,
Bari Primary Health Centre,7.751198781,11.56831975,,,
Tower Of Glory Hospital,3.171111221,6.496421925,,,
PHC Tungar Ruwa,4.8747892,9.206921959,,,
Jeki Kanakuri Dispensary,11.99963413,10.06704026,,,
Attakwanyo Primary Health Care Centre,5.164824088,13.40435519,,,
Albishir Clinic,8.84905325,9.964654975,,,
PHC Komagumbi,4.707029263,10.63830837,,,
Gudumbali Maternity,13.17609409,12.94524256,,,
Ba Umshe Health Post,12.69559017,9.366364533,,,
Al Afrah Health Care Centre,8.901660254,9.915038634,,,
"O.r.t Unit, Ept",6.545708438,9.613729583,,,
Pemi Dispensary,12.94810817,10.77554962,,,
202. Clinic,13.19390865,11.79632562,,,
Glory Of God Health Care Centre,3.259801228,6.515554876,,,
Femola Hospital,3.118443448,6.494343297,,,
Sick Bay,7.652130637,11.15457048,,,
KML Muslim Hospital,4.176462252,7.65390584,,,
Kujama Gari Primary Health Center,7.637922724,10.45794448,,,
Irewe Primary Care Health Center Osulu Kingdom,3.144908721,6.418177278,,,
PHC Rfin Hinta,5.426615735,11.48984996,,,
Pills & potions pharmacy,8.891852589,9.901517535,,,
PHC Korso,5.371625085,11.11649996,,,
Badikko Family Health,7.408418169,10.53571647,,,
Omoda Hospital,4.535211396,8.504050931,,,
PHC Isgogo,5.17551135,11.52616766,,,
Town Dispensary,12.84433802,10.8695551,,,
Dispensary,4.272226418,12.03458038,,,
Ilasa Health Centre,3.337536926,6.520143717,,,
Grace Hill Medical Center,5.765702861,5.564208698,,,
MDGs Clinic Lagbe,7.016656061,9.781553892,,,
Tuberculosis and Leprosy center,3.228468249,7.55567664,,,
New Bethsaida Hospital Maternity,3.350674469,6.536301847,,,
Goodness Medical Center,3.105370362,6.460731195,,,
Matcom Medical Diagnostic Service S,3.256217797,6.539784779,,,
Pharmacy Angaz,8.875154162,9.921767291,,,
PHC Mago,4.426769434,10.87219808,,,
Shadalafiya Primary Health Care,7.442456239,8.944190617,,,
Briyel Fsp Clinic,11.60989164,10.34695794,,,
PHC Tunga,4.065451321,12.22887508,,,
PHC Kampani Dorowa,6.706240659,9.40894326,,,
PHC Ward Model,7.312118064,9.61039149,,,
Nigerian Army Reference Hospital,7.422117551,10.53503879,,,
Healing Land Hospital And Maternity,3.140226925,6.460177486,,,
"Oke Ado Hospital, SW7/217, Ibukun Olu Street, Oke Ado, Ibadan",3.879719997,7.378137957,,,
Yerwa Dispensary,12.86987299,11.27307123,,,
MHT2(Jajeri Kantudu),13.13279393,11.87880296,,,
Able God Hospital,3.335241039,6.50803589,,,
Baale Health Clinic,13.06740394,11.20637216,,,
PHC,6.931310266,9.596345684,,,
"Kunle Ara Pharmacy, Harboni Compound 2, Queen Elizabeth Road, Opp UCH, Ibadan",3.89900793,7.400366932,,,
Harmony Hospital Barnawa Goodnews Academy No8 Damishi Village Off Kachia Road By 1st Baptist Church Maraban Damishi,7.570564325,10.44353724,,,
General Hospital Bakura,5.868879898,12.71509679,,,
Ajajari camp,13.18225177,11.79380619,,,
family support,11.95594882,11.76349496,,,
PHC,6.997483044,9.281791381,,,
Badafi Health Post,8.169150732,11.37354125,,,
Jakana Model Health Centre,12.76892604,11.84247026,,,
Health Clinic & Maternity,11.69250485,10.09869376,,,
Ojo Bala Ologunebi Trado And Maternity Clinic,3.244398643,6.495323979,,,
Yanmamman Health Post,8.041386891,12.2622436,,,
PHC Maidahini,4.044966955,12.12955179,,,
Governor One Hospital No3 Dokaji Street Romi,7.419922163,10.43876283,,,
Gongulong Camp IDP Camp,13.18829294,11.92333903,,,
jamtari hetath center,13.16559257,9.560815131,,,
Lafiya clinic and maternity,8.895105187,9.907992136,,,
Epsilon Specialist Hospital,7.424633463,10.48395067,,,
"Diadem Pharmacy, Ojoo",3.912507991,7.466474918,,,
Doro Duguri Health Clinic,13.80407709,13.27071178,,,
Kara Primary Health Centre,7.959113231,11.84328758,,,
Maina Baba Dispensary,11.58038659,10.34081945,,,
"Oluyoro Catholic Hospital, Oke Ofa, Ibadan",3.919488188,7.38792123,,,
Nasara Clinic Sabon Birni,6.31939504,13.56049454,,,
Young People's home,8.88174502,9.938877773,,,
Trisa Clinics,7.510796243,6.440261749,,,
Primary Health Care Centre Wauru,5.49121808,13.76977834,,,
PHC Centre,5.946492299,11.18161595,,,
G/Jarma,10.89775844,11.45365598,,,
Adeleye Clinic,4.042969632,7.452088052,,,
Bidemi Medicine Store,3.892646233,7.383329372,,,
gang alada clinic,12.0395014,8.702912422,,,
Fend Clinic,3.237276037,6.585800254,,,
Gamadadi Health Centre,11.55468533,10.32176277,,,
Community Islamiya,12.84930413,10.86187736,,,
Mijigite Health Clinic,13.94101182,11.92774556,,,
Havilah Pharmacy,4.534977541,7.764235742,,,
Jewu Primary Health Clinic,12.85447669,11.76718409,,,
Abulam Dispensary,12.47087319,11.19116797,,,
Rauda Street,13.18343244,11.80601996,,,
PHC Lolo,3.616784472,11.63895162,,,
PHC Borsi,5.235410442,11.46607143,,,
Adis Bunm Trado Medical Hospital And Maternity Home 14 Nnaema Uzor Street Off Summit Light Road,3.206595589,6.502985793,,,
BHC,5.905711825,9.257746886,,,
Primary health care tudu wada,8.868211096,9.905399529,,,
Sogoma Dispensary,14.00170895,11.95428468,,,
Kubo Comprehensive Health Center,12.0306517,10.10784143,,,
Jauro Baba Wuro Dispensary,11.87214505,10.25984675,,,
General Hospital Sabon Tasha Off Nnpc Rido Roadno 1 Market Road Along Abuja Express Way Rido Behind Nnpc Rido,7.496779521,10.39793676,,,
Goodhope Clinic and Maternity,3.344255943,6.54448535,,,
Maraku Health Post,8.128883483,11.67712549,,,
Canvalescent And Health Care Center,3.34470119,6.534046193,,,
Bida Dispensary,13.45451099,12.34721556,,,
Masanawa Health Post,8.242561116,11.84689356,,,
Daula Hospital Gusau,6.683726867,12.17181242,,,
Njaba Dispensary,12.95208739,11.13769528,,,
